{
"type": "FeatureCollection",
"name": "distritos_puno",
"crs": { "type": "name", "properties": { "name": "urn:ogc:def:crs:OGC:1.3:CRS84" } },
"features": [
{ "type": "Feature", "properties": { "depto": "Puno", "provincia": "Azángaro", "distrito": "Azangaro" }, "geometry": { "type": "Polygon", "coordinates": [ [ [ -69.9763, -14.9438 ], [ -69.9826, -14.9399 ], [ -69.9901, -14.9408 ], [ -69.9942, -14.9391 ], [ -69.9954, -14.9454 ], [ -70.0003, -14.9474 ], [ -70.0035, -14.956 ], [ -70.0065, -14.9612 ], [ -70.0115, -14.9654 ], [ -70.0143, -14.9723 ], [ -70.0177, -14.9736 ], [ -70.0299, -14.9729 ], [ -70.0449, -14.9855 ], [ -70.0435, -14.9931 ], [ -70.0476, -15.0009 ], [ -70.0515, -15.0059 ], [ -70.0603, -15.0125 ], [ -70.0706, -15.0063 ], [ -70.0836, -14.9905 ], [ -70.0908, -14.9842 ], [ -70.0938, -14.9756 ], [ -70.1043, -14.9646 ], [ -70.1081, -14.9571 ], [ -70.1139, -14.9548 ], [ -70.1283, -14.9576 ], [ -70.1374, -14.9511 ], [ -70.1432, -14.9501 ], [ -70.1456, -14.9467 ], [ -70.1523, -14.9474 ], [ -70.1595, -14.9449 ], [ -70.1718, -14.9458 ], [ -70.1819, -14.9316 ], [ -70.1854, -14.9361 ], [ -70.1863, -14.9433 ], [ -70.1855, -14.95 ], [ -70.1814, -14.9536 ], [ -70.1848, -14.9588 ], [ -70.1789, -14.9714 ], [ -70.186, -14.9751 ], [ -70.191, -14.9871 ], [ -70.1939, -14.9889 ], [ -70.1986, -14.9887 ], [ -70.2024, -14.9938 ], [ -70.2184, -14.9856 ], [ -70.2409, -14.9811 ], [ -70.2469, -14.9877 ], [ -70.2498, -14.9966 ], [ -70.256, -14.9984 ], [ -70.2606, -15.0036 ], [ -70.2706, -14.9933 ], [ -70.2863, -14.9811 ], [ -70.295, -14.9758 ], [ -70.3026, -14.9739 ], [ -70.3064, -14.9624 ], [ -70.3135, -14.9543 ], [ -70.3214, -14.9386 ], [ -70.3184, -14.9314 ], [ -70.3208, -14.9249 ], [ -70.3114, -14.9111 ], [ -70.311, -14.8939 ], [ -70.3024, -14.8853 ], [ -70.3003, -14.8794 ], [ -70.3033, -14.8721 ], [ -70.3019, -14.8593 ], [ -70.3084, -14.8491 ], [ -70.3154, -14.8425 ], [ -70.3213, -14.8275 ], [ -70.3171, -14.822 ], [ -70.3088, -14.8172 ], [ -70.3032, -14.8111 ], [ -70.2906, -14.8183 ], [ -70.2889, -14.8021 ], [ -70.2868, -14.7978 ], [ -70.2809, -14.7924 ], [ -70.2607, -14.8052 ], [ -70.2517, -14.8091 ], [ -70.231, -14.8101 ], [ -70.2203, -14.8068 ], [ -70.2078, -14.7972 ], [ -70.1857, -14.7905 ], [ -70.1851, -14.7882 ], [ -70.1877, -14.7805 ], [ -70.1815, -14.7749 ], [ -70.1607, -14.7756 ], [ -70.1529, -14.7714 ], [ -70.1475, -14.7715 ], [ -70.1453, -14.7728 ], [ -70.1442, -14.7786 ], [ -70.1379, -14.7808 ], [ -70.1329, -14.7753 ], [ -70.1331, -14.764 ], [ -70.1309, -14.755 ], [ -70.1286, -14.7567 ], [ -70.1255, -14.7559 ], [ -70.1262, -14.7452 ], [ -70.1185, -14.7413 ], [ -70.11, -14.7404 ], [ -70.104, -14.7319 ], [ -70.102, -14.7261 ], [ -70.087, -14.7229 ], [ -70.0719, -14.7084 ], [ -70.0633, -14.72 ], [ -70.0674, -14.7243 ], [ -70.0682, -14.7352 ], [ -70.0739, -14.7424 ], [ -70.0731, -14.7491 ], [ -70.0779, -14.7706 ], [ -70.0697, -14.7765 ], [ -70.0715, -14.7796 ], [ -70.0689, -14.7872 ], [ -70.0658, -14.7892 ], [ -70.0576, -14.7901 ], [ -70.0483, -14.801 ], [ -70.0349, -14.8089 ], [ -70.0338, -14.8141 ], [ -70.0356, -14.8202 ], [ -70.0343, -14.8247 ], [ -70.0267, -14.831 ], [ -70.0102, -14.8388 ], [ -70.0078, -14.8422 ], [ -70.0076, -14.8484 ], [ -70.0045, -14.8522 ], [ -70.0038, -14.8576 ], [ -69.9942, -14.8657 ], [ -69.9784, -14.8845 ], [ -69.9763, -14.9067 ], [ -69.9657, -14.925 ], [ -69.9696, -14.9274 ], [ -69.9708, -14.9351 ], [ -69.9763, -14.9438 ] ] ] } },
{ "type": "Feature", "properties": { "depto": "Puno", "provincia": "Azángaro", "distrito": "SanAnton" }, "geometry": { "type": "Polygon", "coordinates": [ [ [ -70.2493, -14.6663 ], [ -70.2558, -14.6611 ], [ -70.2684, -14.6595 ], [ -70.2756, -14.6498 ], [ -70.2929, -14.642 ], [ -70.2974, -14.6412 ], [ -70.3125, -14.6444 ], [ -70.3284, -14.6536 ], [ -70.3375, -14.6502 ], [ -70.3463, -14.6438 ], [ -70.3515, -14.6372 ], [ -70.3585, -14.6375 ], [ -70.3633, -14.6348 ], [ -70.3645, -14.6314 ], [ -70.3577, -14.6275 ], [ -70.3526, -14.6222 ], [ -70.3517, -14.6171 ], [ -70.3435, -14.612 ], [ -70.3406, -14.6072 ], [ -70.3396, -14.5998 ], [ -70.334, -14.5984 ], [ -70.3268, -14.5862 ], [ -70.3268, -14.5834 ], [ -70.3275, -14.5819 ], [ -70.338, -14.5839 ], [ -70.3408, -14.582 ], [ -70.3455, -14.5666 ], [ -70.3514, -14.5636 ], [ -70.3518, -14.5595 ], [ -70.3542, -14.5572 ], [ -70.3657, -14.5511 ], [ -70.3699, -14.5415 ], [ -70.3579, -14.5366 ], [ -70.3528, -14.5305 ], [ -70.3544, -14.5226 ], [ -70.3529, -14.5065 ], [ -70.3503, -14.5051 ], [ -70.3418, -14.4937 ], [ -70.3383, -14.4866 ], [ -70.3387, -14.4809 ], [ -70.3358, -14.4743 ], [ -70.3302, -14.4677 ], [ -70.3306, -14.4579 ], [ -70.3343, -14.4527 ], [ -70.3312, -14.4444 ], [ -70.3299, -14.4313 ], [ -70.3268, -14.4269 ], [ -70.3275, -14.4189 ], [ -70.3187, -14.4056 ], [ -70.3199, -14.3921 ], [ -70.3157, -14.3797 ], [ -70.3119, -14.3794 ], [ -70.3071, -14.3843 ], [ -70.3025, -14.386 ], [ -70.2914, -14.3813 ], [ -70.2805, -14.388 ], [ -70.2773, -14.3941 ], [ -70.2739, -14.3968 ], [ -70.2522, -14.4008 ], [ -70.2501, -14.3986 ], [ -70.2501, -14.3936 ], [ -70.2442, -14.3849 ], [ -70.2203, -14.3731 ], [ -70.2178, -14.3762 ], [ -70.2216, -14.3845 ], [ -70.2189, -14.3908 ], [ -70.2238, -14.3954 ], [ -70.2245, -14.398 ], [ -70.209, -14.407 ], [ -70.2044, -14.4298 ], [ -70.2009, -14.4362 ], [ -70.1889, -14.4485 ], [ -70.1745, -14.4489 ], [ -70.1709, -14.4504 ], [ -70.1692, -14.4586 ], [ -70.1644, -14.4642 ], [ -70.1631, -14.4693 ], [ -70.1578, -14.4695 ], [ -70.1464, -14.4641 ], [ -70.1447, -14.4648 ], [ -70.1295, -14.4843 ], [ -70.1212, -14.4899 ], [ -70.1203, -14.4937 ], [ -70.1255, -14.4961 ], [ -70.1284, -14.4994 ], [ -70.1329, -14.499 ], [ -70.1372, -14.5007 ], [ -70.1449, -14.5123 ], [ -70.1473, -14.5206 ], [ -70.1503, -14.5238 ], [ -70.1509, -14.53 ], [ -70.1593, -14.533 ], [ -70.1641, -14.5373 ], [ -70.1638, -14.5447 ], [ -70.1667, -14.5499 ], [ -70.1659, -14.5557 ], [ -70.1688, -14.5594 ], [ -70.1661, -14.5636 ], [ -70.1661, -14.5693 ], [ -70.1635, -14.5726 ], [ -70.1665, -14.577 ], [ -70.1639, -14.5862 ], [ -70.173, -14.59 ], [ -70.1807, -14.5918 ], [ -70.1838, -14.5911 ], [ -70.1847, -14.598 ], [ -70.194, -14.6023 ], [ -70.2002, -14.6022 ], [ -70.2013, -14.6052 ], [ -70.1989, -14.6104 ], [ -70.2048, -14.6138 ], [ -70.2089, -14.6279 ], [ -70.2222, -14.6369 ], [ -70.2271, -14.645 ], [ -70.2349, -14.6525 ], [ -70.2392, -14.6644 ], [ -70.2434, -14.6667 ], [ -70.2493, -14.6663 ] ] ] } },
{ "type": "Feature", "properties": { "depto": "Puno", "provincia": "Carabaya", "distrito": "Ajoyani" }, "geometry": { "type": "Polygon", "coordinates": [ [ [ -70.1796, -14.2904 ], [ -70.1897, -14.29 ], [ -70.202, -14.2788 ], [ -70.2082, -14.2685 ], [ -70.2119, -14.2681 ], [ -70.2174, -14.2736 ], [ -70.2232, -14.2839 ], [ -70.224, -14.293 ], [ -70.2222, -14.3005 ], [ -70.2242, -14.3109 ], [ -70.2425, -14.3087 ], [ -70.2538, -14.3007 ], [ -70.2593, -14.2859 ], [ -70.2672, -14.2848 ], [ -70.2698, -14.2816 ], [ -70.2747, -14.2795 ], [ -70.2755, -14.2742 ], [ -70.2724, -14.2694 ], [ -70.274, -14.2662 ], [ -70.2776, -14.2645 ], [ -70.2869, -14.2652 ], [ -70.2889, -14.2636 ], [ -70.2932, -14.2463 ], [ -70.2903, -14.2183 ], [ -70.2938, -14.2169 ], [ -70.303, -14.2189 ], [ -70.3064, -14.2133 ], [ -70.3165, -14.2055 ], [ -70.3182, -14.2013 ], [ -70.3248, -14.1949 ], [ -70.3289, -14.1841 ], [ -70.3294, -14.1748 ], [ -70.3277, -14.1701 ], [ -70.3254, -14.168 ], [ -70.3225, -14.1688 ], [ -70.3215, -14.1642 ], [ -70.3221, -14.1591 ], [ -70.3256, -14.1518 ], [ -70.3263, -14.128 ], [ -70.33, -14.1172 ], [ -70.3356, -14.1091 ], [ -70.3325, -14.0982 ], [ -70.3355, -14.0893 ], [ -70.3347, -14.0843 ], [ -70.3312, -14.0781 ], [ -70.3266, -14.0777 ], [ -70.3206, -14.0745 ], [ -70.3055, -14.0794 ], [ -70.294, -14.0803 ], [ -70.2875, -14.085 ], [ -70.2671, -14.0864 ], [ -70.261, -14.0846 ], [ -70.2593, -14.0868 ], [ -70.2533, -14.0875 ], [ -70.2503, -14.09 ], [ -70.2471, -14.0944 ], [ -70.2475, -14.0982 ], [ -70.2409, -14.0984 ], [ -70.2326, -14.0958 ], [ -70.2257, -14.0762 ], [ -70.2271, -14.0694 ], [ -70.2162, -14.0615 ], [ -70.2136, -14.058 ], [ -70.1929, -14.0635 ], [ -70.1865, -14.0629 ], [ -70.1843, -14.0662 ], [ -70.1856, -14.0725 ], [ -70.1766, -14.0761 ], [ -70.1721, -14.0809 ], [ -70.1678, -14.0926 ], [ -70.1632, -14.0942 ], [ -70.1599, -14.0982 ], [ -70.157, -14.11 ], [ -70.1501, -14.111 ], [ -70.139, -14.1215 ], [ -70.1323, -14.1183 ], [ -70.1281, -14.1226 ], [ -70.1193, -14.1275 ], [ -70.1163, -14.1344 ], [ -70.1156, -14.1411 ], [ -70.1081, -14.1501 ], [ -70.1029, -14.1602 ], [ -70.1026, -14.1638 ], [ -70.1054, -14.1654 ], [ -70.1137, -14.1659 ], [ -70.1162, -14.1707 ], [ -70.1305, -14.1794 ], [ -70.1349, -14.1888 ], [ -70.1391, -14.1897 ], [ -70.1341, -14.1952 ], [ -70.1307, -14.2023 ], [ -70.1203, -14.2051 ], [ -70.142, -14.2199 ], [ -70.1579, -14.2403 ], [ -70.1644, -14.2512 ], [ -70.1689, -14.2553 ], [ -70.1746, -14.2572 ], [ -70.1762, -14.2606 ], [ -70.1743, -14.272 ], [ -70.1796, -14.2904 ] ] ] } },
{ "type": "Feature", "properties": { "depto": "Puno", "provincia": "Melgar", "distrito": "Antauta" }, "geometry": { "type": "Polygon", "coordinates": [ [ [ -70.3423, -14.5779 ], [ -70.3467, -14.5847 ], [ -70.3552, -14.5881 ], [ -70.3653, -14.5972 ], [ -70.3678, -14.5962 ], [ -70.3901, -14.5708 ], [ -70.4158, -14.5559 ], [ -70.4296, -14.5449 ], [ -70.4376, -14.5346 ], [ -70.4341, -14.5289 ], [ -70.4364, -14.5223 ], [ -70.4401, -14.5199 ], [ -70.4497, -14.5177 ], [ -70.4585, -14.5103 ], [ -70.4583, -14.506 ], [ -70.4659, -14.4845 ], [ -70.4643, -14.4776 ], [ -70.4555, -14.46 ], [ -70.4591, -14.4486 ], [ -70.4557, -14.438 ], [ -70.4641, -14.4328 ], [ -70.4656, -14.4295 ], [ -70.4594, -14.4245 ], [ -70.4547, -14.4081 ], [ -70.4554, -14.4001 ], [ -70.4501, -14.3975 ], [ -70.4486, -14.3932 ], [ -70.4528, -14.3825 ], [ -70.4539, -14.3754 ], [ -70.4603, -14.3676 ], [ -70.4617, -14.3597 ], [ -70.4678, -14.3527 ], [ -70.4665, -14.3436 ], [ -70.4689, -14.339 ], [ -70.4718, -14.3372 ], [ -70.4681, -14.3285 ], [ -70.4617, -14.3264 ], [ -70.4586, -14.3233 ], [ -70.4593, -14.3164 ], [ -70.4649, -14.3098 ], [ -70.4656, -14.2979 ], [ -70.4692, -14.2849 ], [ -70.4645, -14.2826 ], [ -70.4591, -14.2672 ], [ -70.4714, -14.2515 ], [ -70.4716, -14.2425 ], [ -70.4774, -14.2391 ], [ -70.4795, -14.2343 ], [ -70.4883, -14.2339 ], [ -70.4912, -14.2283 ], [ -70.4876, -14.225 ], [ -70.4875, -14.2212 ], [ -70.4801, -14.2224 ], [ -70.4739, -14.2198 ], [ -70.4623, -14.2073 ], [ -70.4498, -14.2001 ], [ -70.4431, -14.1885 ], [ -70.4301, -14.1811 ], [ -70.4243, -14.1744 ], [ -70.423, -14.1819 ], [ -70.4145, -14.1813 ], [ -70.4099, -14.1899 ], [ -70.4005, -14.1895 ], [ -70.3882, -14.1959 ], [ -70.3779, -14.1894 ], [ -70.3683, -14.1908 ], [ -70.3653, -14.1898 ], [ -70.3639, -14.188 ], [ -70.3639, -14.1819 ], [ -70.3569, -14.1701 ], [ -70.3476, -14.1723 ], [ -70.3407, -14.1712 ], [ -70.3368, -14.1759 ], [ -70.3294, -14.1748 ], [ -70.3289, -14.1841 ], [ -70.3248, -14.1949 ], [ -70.3182, -14.2013 ], [ -70.3165, -14.2055 ], [ -70.3064, -14.2133 ], [ -70.303, -14.2189 ], [ -70.2938, -14.2169 ], [ -70.2903, -14.2183 ], [ -70.2932, -14.2463 ], [ -70.2889, -14.2636 ], [ -70.2869, -14.2652 ], [ -70.2776, -14.2645 ], [ -70.274, -14.2662 ], [ -70.2724, -14.2694 ], [ -70.2755, -14.2742 ], [ -70.2757, -14.2781 ], [ -70.2672, -14.2848 ], [ -70.269, -14.3018 ], [ -70.2766, -14.3246 ], [ -70.292, -14.3383 ], [ -70.3034, -14.3449 ], [ -70.3056, -14.3455 ], [ -70.3108, -14.3408 ], [ -70.3155, -14.3409 ], [ -70.3239, -14.3467 ], [ -70.3282, -14.3518 ], [ -70.324, -14.3625 ], [ -70.3235, -14.3739 ], [ -70.3157, -14.3797 ], [ -70.3199, -14.3921 ], [ -70.3187, -14.4056 ], [ -70.3275, -14.4189 ], [ -70.3268, -14.4269 ], [ -70.3299, -14.4313 ], [ -70.3312, -14.4444 ], [ -70.3343, -14.4527 ], [ -70.3306, -14.4579 ], [ -70.3302, -14.4677 ], [ -70.3358, -14.4743 ], [ -70.3387, -14.4809 ], [ -70.3383, -14.4866 ], [ -70.3418, -14.4937 ], [ -70.3503, -14.5051 ], [ -70.3529, -14.5065 ], [ -70.3544, -14.5226 ], [ -70.3528, -14.5305 ], [ -70.3579, -14.5366 ], [ -70.3699, -14.5415 ], [ -70.3657, -14.5511 ], [ -70.3542, -14.5572 ], [ -70.3518, -14.5595 ], [ -70.3514, -14.5636 ], [ -70.3455, -14.5666 ], [ -70.3423, -14.5779 ] ] ] } },
{ "type": "Feature", "properties": { "depto": "Puno", "provincia": "Melgar", "distrito": "Ñuñoa" }, "geometry": { "type": "Polygon", "coordinates": [ [ [ -70.9734, -14.42 ], [ -70.9746, -14.4177 ], [ -70.9789, -14.417 ], [ -70.9859, -14.4053 ], [ -70.979, -14.3952 ], [ -70.9804, -14.3863 ], [ -70.9857, -14.3792 ], [ -70.9789, -14.379 ], [ -70.9778, -14.3772 ], [ -70.9759, -14.3782 ], [ -70.9704, -14.3774 ], [ -70.9626, -14.3612 ], [ -70.9482, -14.3524 ], [ -70.943, -14.3517 ], [ -70.9296, -14.3407 ], [ -70.9245, -14.3405 ], [ -70.9184, -14.3444 ], [ -70.9125, -14.3416 ], [ -70.9115, -14.3371 ], [ -70.9082, -14.3333 ], [ -70.9141, -14.3234 ], [ -70.9136, -14.3031 ], [ -70.893, -14.2875 ], [ -70.8912, -14.2726 ], [ -70.8802, -14.2702 ], [ -70.8824, -14.2533 ], [ -70.8911, -14.2441 ], [ -70.892, -14.2385 ], [ -70.8971, -14.2362 ], [ -70.8997, -14.2321 ], [ -70.8968, -14.2245 ], [ -70.8976, -14.2201 ], [ -70.8943, -14.2087 ], [ -70.8873, -14.2053 ], [ -70.8826, -14.1977 ], [ -70.8828, -14.1942 ], [ -70.8898, -14.1869 ], [ -70.8863, -14.1715 ], [ -70.8824, -14.1683 ], [ -70.8743, -14.1714 ], [ -70.8709, -14.1692 ], [ -70.8676, -14.1696 ], [ -70.8628, -14.1599 ], [ -70.8591, -14.1583 ], [ -70.8545, -14.1593 ], [ -70.8501, -14.1519 ], [ -70.8458, -14.1483 ], [ -70.8417, -14.1481 ], [ -70.8334, -14.1424 ], [ -70.8206, -14.1409 ], [ -70.8214, -14.1335 ], [ -70.809, -14.1239 ], [ -70.8065, -14.12 ], [ -70.8052, -14.1162 ], [ -70.8063, -14.0995 ], [ -70.7951, -14.0883 ], [ -70.7892, -14.0795 ], [ -70.7834, -14.0825 ], [ -70.7702, -14.0816 ], [ -70.7669, -14.0795 ], [ -70.7604, -14.0796 ], [ -70.7504, -14.0764 ], [ -70.7391, -14.0799 ], [ -70.7218, -14.076 ], [ -70.7182, -14.0764 ], [ -70.7094, -14.0808 ], [ -70.7033, -14.086 ], [ -70.7016, -14.0966 ], [ -70.7028, -14.1003 ], [ -70.6954, -14.1101 ], [ -70.695, -14.1194 ], [ -70.6921, -14.1246 ], [ -70.6814, -14.1241 ], [ -70.6672, -14.1257 ], [ -70.6594, -14.1246 ], [ -70.6524, -14.1213 ], [ -70.6484, -14.1265 ], [ -70.6406, -14.1309 ], [ -70.6369, -14.1364 ], [ -70.6349, -14.1469 ], [ -70.6234, -14.157 ], [ -70.617, -14.159 ], [ -70.6129, -14.1542 ], [ -70.6072, -14.1614 ], [ -70.6011, -14.1577 ], [ -70.5997, -14.1547 ], [ -70.5953, -14.1586 ], [ -70.5896, -14.1578 ], [ -70.5821, -14.1486 ], [ -70.5737, -14.1474 ], [ -70.5701, -14.1451 ], [ -70.5667, -14.1525 ], [ -70.556, -14.1527 ], [ -70.551, -14.1551 ], [ -70.5491, -14.1693 ], [ -70.5451, -14.1735 ], [ -70.5456, -14.1794 ], [ -70.5407, -14.19 ], [ -70.5359, -14.1914 ], [ -70.5305, -14.1967 ], [ -70.5269, -14.1972 ], [ -70.5217, -14.2021 ], [ -70.5124, -14.1981 ], [ -70.5033, -14.2038 ], [ -70.4959, -14.2198 ], [ -70.4875, -14.2212 ], [ -70.4876, -14.225 ], [ -70.4912, -14.2283 ], [ -70.489, -14.2334 ], [ -70.4795, -14.2343 ], [ -70.4774, -14.2391 ], [ -70.4716, -14.2425 ], [ -70.4714, -14.2515 ], [ -70.4591, -14.2672 ], [ -70.4645, -14.2826 ], [ -70.4692, -14.2849 ], [ -70.4656, -14.2979 ], [ -70.4649, -14.3098 ], [ -70.4593, -14.3164 ], [ -70.4585, -14.3225 ], [ -70.4617, -14.3264 ], [ -70.4681, -14.3285 ], [ -70.4718, -14.3372 ], [ -70.4689, -14.339 ], [ -70.4665, -14.3436 ], [ -70.4678, -14.3527 ], [ -70.4617, -14.3597 ], [ -70.4603, -14.3676 ], [ -70.4539, -14.3754 ], [ -70.4528, -14.3825 ], [ -70.4486, -14.3932 ], [ -70.4501, -14.3975 ], [ -70.4554, -14.4001 ], [ -70.4547, -14.4081 ], [ -70.4594, -14.4245 ], [ -70.4656, -14.4295 ], [ -70.4641, -14.4328 ], [ -70.4557, -14.438 ], [ -70.4591, -14.4486 ], [ -70.4555, -14.46 ], [ -70.4643, -14.4776 ], [ -70.4659, -14.4845 ], [ -70.4583, -14.506 ], [ -70.4585, -14.5103 ], [ -70.4497, -14.5177 ], [ -70.4401, -14.5199 ], [ -70.4364, -14.5223 ], [ -70.4341, -14.5289 ], [ -70.4376, -14.5346 ], [ -70.4344, -14.5391 ], [ -70.4236, -14.5507 ], [ -70.405, -14.5626 ], [ -70.4191, -14.5687 ], [ -70.4302, -14.5782 ], [ -70.4467, -14.5747 ], [ -70.459, -14.5799 ], [ -70.4614, -14.5868 ], [ -70.4653, -14.5869 ], [ -70.4713, -14.5817 ], [ -70.4772, -14.5839 ], [ -70.4782, -14.5857 ], [ -70.4837, -14.5862 ], [ -70.486, -14.5911 ], [ -70.4818, -14.6006 ], [ -70.4833, -14.604 ], [ -70.4911, -14.6045 ], [ -70.4931, -14.6014 ], [ -70.5001, -14.5976 ], [ -70.5016, -14.5938 ], [ -70.5057, -14.5899 ], [ -70.5056, -14.5852 ], [ -70.5094, -14.5842 ], [ -70.5115, -14.5816 ], [ -70.516, -14.5819 ], [ -70.5274, -14.5777 ], [ -70.5297, -14.5787 ], [ -70.5354, -14.5771 ], [ -70.5413, -14.5818 ], [ -70.5403, -14.5853 ], [ -70.5423, -14.5898 ], [ -70.5419, -14.5978 ], [ -70.5435, -14.6027 ], [ -70.536, -14.6243 ], [ -70.5378, -14.631 ], [ -70.5375, -14.6435 ], [ -70.5387, -14.6495 ], [ -70.541, -14.6518 ], [ -70.5401, -14.6556 ], [ -70.5551, -14.646 ], [ -70.5652, -14.6458 ], [ -70.5717, -14.6391 ], [ -70.5773, -14.6377 ], [ -70.596, -14.6499 ], [ -70.6062, -14.6535 ], [ -70.614, -14.6718 ], [ -70.6263, -14.6799 ], [ -70.6314, -14.6729 ], [ -70.6404, -14.6669 ], [ -70.6518, -14.6708 ], [ -70.6594, -14.6479 ], [ -70.6578, -14.6344 ], [ -70.6707, -14.6292 ], [ -70.672, -14.6272 ], [ -70.6719, -14.6236 ], [ -70.6666, -14.6208 ], [ -70.6612, -14.6155 ], [ -70.6617, -14.6001 ], [ -70.6635, -14.5979 ], [ -70.6679, -14.5987 ], [ -70.6692, -14.5976 ], [ -70.6727, -14.5831 ], [ -70.6716, -14.5762 ], [ -70.6798, -14.5625 ], [ -70.6813, -14.5616 ], [ -70.6832, -14.5651 ], [ -70.6881, -14.5653 ], [ -70.6933, -14.5597 ], [ -70.6985, -14.5576 ], [ -70.6969, -14.5403 ], [ -70.7062, -14.5301 ], [ -70.7045, -14.5192 ], [ -70.7057, -14.5144 ], [ -70.7126, -14.5122 ], [ -70.7147, -14.5077 ], [ -70.7229, -14.5086 ], [ -70.7285, -14.4992 ], [ -70.7366, -14.5008 ], [ -70.7391, -14.4996 ], [ -70.7562, -14.4776 ], [ -70.7632, -14.473 ], [ -70.7641, -14.4696 ], [ -70.7677, -14.4657 ], [ -70.784, -14.4599 ], [ -70.7885, -14.4544 ], [ -70.7958, -14.4534 ], [ -70.8041, -14.4573 ], [ -70.8066, -14.4536 ], [ -70.8107, -14.4523 ], [ -70.8128, -14.4488 ], [ -70.8166, -14.4467 ], [ -70.8262, -14.4476 ], [ -70.8328, -14.4403 ], [ -70.8428, -14.4394 ], [ -70.856, -14.4341 ], [ -70.8612, -14.4342 ], [ -70.8646, -14.4325 ], [ -70.868, -14.4337 ], [ -70.8714, -14.4317 ], [ -70.8843, -14.4343 ], [ -70.8897, -14.4369 ], [ -70.9028, -14.4314 ], [ -70.9071, -14.4317 ], [ -70.9118, -14.422 ], [ -70.9152, -14.4189 ], [ -70.9218, -14.4151 ], [ -70.9246, -14.4166 ], [ -70.9322, -14.4142 ], [ -70.9376, -14.4109 ], [ -70.9536, -14.4092 ], [ -70.9588, -14.4135 ], [ -70.9609, -14.4199 ], [ -70.9734, -14.42 ] ] ] } },
{ "type": "Feature", "properties": { "depto": "Puno", "provincia": "Melgar", "distrito": "Orurillo" }, "geometry": { "type": "Polygon", "coordinates": [ [ [ -70.4302, -14.5782 ], [ -70.423, -14.5873 ], [ -70.4172, -14.5916 ], [ -70.4164, -14.5935 ], [ -70.418, -14.597 ], [ -70.4127, -14.601 ], [ -70.4182, -14.61 ], [ -70.417, -14.6145 ], [ -70.4052, -14.6216 ], [ -70.4028, -14.6247 ], [ -70.3934, -14.6269 ], [ -70.3965, -14.6319 ], [ -70.388, -14.6371 ], [ -70.3878, -14.6411 ], [ -70.386, -14.6433 ], [ -70.3878, -14.6478 ], [ -70.3862, -14.6605 ], [ -70.3812, -14.6666 ], [ -70.3966, -14.6976 ], [ -70.3992, -14.7083 ], [ -70.3989, -14.7158 ], [ -70.4175, -14.7319 ], [ -70.4277, -14.7615 ], [ -70.4264, -14.7705 ], [ -70.4377, -14.7796 ], [ -70.4457, -14.7887 ], [ -70.4482, -14.8093 ], [ -70.455, -14.8244 ], [ -70.4622, -14.8201 ], [ -70.4679, -14.8072 ], [ -70.4783, -14.8044 ], [ -70.4839, -14.7971 ], [ -70.4867, -14.7987 ], [ -70.4899, -14.7956 ], [ -70.4989, -14.7943 ], [ -70.5051, -14.7903 ], [ -70.5098, -14.7933 ], [ -70.5208, -14.7815 ], [ -70.5214, -14.7843 ], [ -70.5248, -14.7847 ], [ -70.5309, -14.7731 ], [ -70.5373, -14.7722 ], [ -70.5398, -14.7698 ], [ -70.5393, -14.7631 ], [ -70.545, -14.7577 ], [ -70.5447, -14.7528 ], [ -70.5482, -14.7521 ], [ -70.5461, -14.7481 ], [ -70.5531, -14.7411 ], [ -70.5565, -14.7323 ], [ -70.5648, -14.7317 ], [ -70.5811, -14.7217 ], [ -70.589, -14.715 ], [ -70.5891, -14.705 ], [ -70.5996, -14.7013 ], [ -70.6047, -14.6957 ], [ -70.6105, -14.6927 ], [ -70.6166, -14.6743 ], [ -70.614, -14.6718 ], [ -70.6062, -14.6535 ], [ -70.596, -14.6499 ], [ -70.5773, -14.6377 ], [ -70.5717, -14.6391 ], [ -70.5652, -14.6458 ], [ -70.5551, -14.646 ], [ -70.5401, -14.6556 ], [ -70.541, -14.6518 ], [ -70.5387, -14.6495 ], [ -70.5375, -14.6435 ], [ -70.5378, -14.631 ], [ -70.536, -14.6243 ], [ -70.5435, -14.6027 ], [ -70.5419, -14.5978 ], [ -70.5423, -14.5898 ], [ -70.5403, -14.5853 ], [ -70.5413, -14.5818 ], [ -70.5354, -14.5771 ], [ -70.5297, -14.5787 ], [ -70.5274, -14.5777 ], [ -70.516, -14.5819 ], [ -70.5115, -14.5816 ], [ -70.5094, -14.5842 ], [ -70.5061, -14.5846 ], [ -70.5057, -14.5899 ], [ -70.5016, -14.5938 ], [ -70.5007, -14.597 ], [ -70.4931, -14.6014 ], [ -70.4911, -14.6045 ], [ -70.4823, -14.6033 ], [ -70.4818, -14.6006 ], [ -70.486, -14.5911 ], [ -70.4837, -14.5862 ], [ -70.4782, -14.5857 ], [ -70.4772, -14.5839 ], [ -70.4713, -14.5817 ], [ -70.4653, -14.5869 ], [ -70.4614, -14.5868 ], [ -70.459, -14.5799 ], [ -70.4467, -14.5747 ], [ -70.4302, -14.5782 ] ] ] } }
]
}
