{
  "type": "FeatureCollection",
  "features": [
    {
      "type": "Feature",
      "properties": { "nombre": "IE Juan Santos Atahualpa", "local": "IE JUAN SANTOS ATAHUALPA", "fuente": "aproximado" },
      "geometry": { "type": "Point", "coordinates": [-73.005100, -11.387800] }
    },
    {
      "type": "Feature",
      "properties": { "nombre": "IE 64443 Camisea", "local": "IE 64443 CAMISEA", "fuente": "aproximado" },
      "geometry": { "type": "Point", "coordinates": [-73.003700, -11.386800] }
    },
    {
      "type": "Feature",
      "properties": { "nombre": "IEI 375 Camisea", "local": "IEI 375 CAMISEA", "fuente": "aproximado" },
      "geometry": { "type": "Point", "coordinates": [-73.026900, -11.301200] }
    },
    {
      "type": "Feature",
      "properties": { "nombre": "IE 64450 Puerto Huallana", "local": "IE 64450 PUERTO HUALLANA", "fuente": "osm" },
      "geometry": { "type": "Point", "coordinates": [-73.133800, -11.783000] }
    },
    {
      "type": "Feature",
      "properties": { "nombre": "IE 64446 Primaria", "local": "IE 64446 PRIMARIA", "fuente": "osm" },
      "geometry": { "type": "Point", "coordinates": [-72.996946, -11.301697] }
    },
    {
      "type": "Feature",
      "properties": { "nombre": "IE Carlos Ríos Ríos", "local": "IE CARLOS RIOS RIOS", "fuente": "osm" },
      "geometry": { "type": "Point", "coordinates": [-73.135400, -11.544100] }
    },
    {
      "type": "Feature",
      "properties": { "nombre": "IE 64553 Ticumpinia", "local": "IE 64553 TICUMPINIA", "fuente": "osm" },
      "geometry": { "type": "Point", "coordinates": [-72.933966, -11.936302] }
    },
    {
      "type": "Feature",
      "properties": { "nombre": "IE 64449 Nueva Luz", "local": "IE 64449 PRIMARIA NUEVA LUZ", "fuente": "osm" },
      "geometry": { "type": "Point", "coordinates": [-73.033114, -11.451947] }
    },
    {
      "type": "Feature",
      "properties": { "nombre": "IE 50294 Mons. Javier Ariz Huarte", "local": "IE 50294 MONSENOR JAVIER ARIZ HUARTE PRIMARIA", "fuente": "osm" },
      "geometry": { "type": "Point", "coordinates": [-73.130200, -11.573000] }
    },
    {
      "type": "Feature",
      "properties": { "nombre": "IEI 373 Shivankoreni", "local": "IEI 373 SHIVANKORENI", "fuente": "osm" },
      "geometry": { "type": "Point", "coordinates": [-72.930100, -11.713500] }
    },
    {
      "type": "Feature",
      "properties": { "nombre": "IEI 331 Tangoshiari", "local": "IEI 331 TANGOSHIARI", "fuente": "osm" },
      "geometry": { "type": "Point", "coordinates": [-73.326000, -11.766400] }
    },
    {
      "type": "Feature",
      "properties": { "nombre": "IE 64125 Fray Julián Macegoza", "local": "IE 64125 FRAY JULIAN MACEGOZA", "fuente": "osm" },
      "geometry": { "type": "Point", "coordinates": [-72.820297, -12.081231] }
    }
  ]
}
