{
"type": "FeatureCollection",
"name": "mapa_megantoni",
"crs": { "type": "name", "properties": { "name": "urn:ogc:def:crs:OGC:1.3:CRS84" } },
"features": [
{ "type": "Feature", "properties": { "ubigeo": "080914", "nombre": "MASECA", "categ": null, "poblacion": 48.0, "altitud": 405.0, "provincia": "LA CONVENCION", "distrito": "MEGANTONI", "reg_nat": "RUPA RUPA O SELVA ALTA", "lon_cp": -73.21984365, "lat_cp": -11.3738219, "codigo": "0809140007", "local_vot": "IEI 331 TANGOSHIARI", "tot_vot": 175, "electores": 277, "v_jxp_p": 15, "v_an_p": 60, "v_fp_p": 14, "v_obras_p": 12, "v_rp_p": 0, "v_jxp_d": 14, "v_jxp_dip": 14, "pref_huac": 0, "pref_marq": 0, "pref_mallq": 0, "pref_maman": 0, "pref_jancc": 0, "pref_veran": 0, "pct_jxp_p": 13.16, "pct_an_p": 52.63, "pct_fp_p": 12.28, "pct_obras_": 10.53, "pct_rp_p": 0.0, "pct_jxp_d": 11.97, "pct_jxp_di": 12.39, "particip": 63.18, "pct_huac": 0.0, "pct_marq": 0.0, "pct_mallq": 0.0, "pct_maman": 0.0, "pct_jancc": 0.0, "pct_veran": 0.0, "dist_m": 40744.645170554395, "pty_gan": "AhoraN", "area_km2": 132.158, "dens_hab": 0.4 }, "geometry": { "type": "Polygon", "coordinates": [ [ [ -73.110344334246989, -11.363455894126737 ], [ -73.110630942275904, -11.367847124000118 ], [ -73.135130880064651, -11.412658893123488 ], [ -73.249220319361683, -11.416475811415662 ], [ -73.249840415755003, -11.374262540696543 ], [ -73.249732112084558, -11.371237339346642 ], [ -73.24931949165564, -11.368238453341119 ], [ -73.248606755665335, -11.36529641658054 ], [ -73.24760116101163, -11.362441184140803 ], [ -73.246312946405553, -11.359701827278114 ], [ -73.24475522812314, -11.357106237432797 ], [ -73.242943866458873, -11.35468084224568 ], [ -73.240897304240121, -11.352450336478528 ], [ -73.238636379046994, -11.350437430578216 ], [ -73.236184111049241, -11.34866261944468 ], [ -73.233565468620839, -11.347143973757021 ], [ -73.230807114118193, -11.345896955982415 ], [ -73.13240551811819, -11.307264034482435 ], [ -73.110344334246989, -11.363455894126737 ] ] ] } },
{ "type": "Feature", "properties": { "ubigeo": "080914", "nombre": "POROTOBANGO", "categ": null, "poblacion": 26.0, "altitud": 360.0, "provincia": "LA CONVENCION", "distrito": "MEGANTONI", "reg_nat": "OMAGUA O SELVA BAJA", "lon_cp": -73.21705852, "lat_cp": -11.45707092, "codigo": "0809140010", "local_vot": "IEI 331 TANGOSHIARI", "tot_vot": 175, "electores": 277, "v_jxp_p": 15, "v_an_p": 60, "v_fp_p": 14, "v_obras_p": 12, "v_rp_p": 0, "v_jxp_d": 14, "v_jxp_dip": 14, "pref_huac": 0, "pref_marq": 0, "pref_mallq": 0, "pref_maman": 0, "pref_jancc": 0, "pref_veran": 0, "pct_jxp_p": 13.16, "pct_an_p": 52.63, "pct_fp_p": 12.28, "pct_obras_": 10.53, "pct_rp_p": 0.0, "pct_jxp_d": 11.97, "pct_jxp_di": 12.39, "particip": 63.18, "pct_huac": 0.0, "pct_marq": 0.0, "pct_mallq": 0.0, "pct_maman": 0.0, "pct_jancc": 0.0, "pct_veran": 0.0, "dist_m": 39772.396564404713, "pty_gan": "AhoraN", "area_km2": 111.673, "dens_hab": 0.2 }, "geometry": { "type": "Polygon", "coordinates": [ [ [ -73.135130880064651, -11.412658893123488 ], [ -73.136316447913899, -11.444666430822489 ], [ -73.247280733369237, -11.54851378077842 ], [ -73.249220319361683, -11.416475811415662 ], [ -73.135130880064651, -11.412658893123488 ] ] ] } },
{ "type": "Feature", "properties": { "ubigeo": "080914", "nombre": "NUEVA VIDA", "categ": null, "poblacion": 81.0, "altitud": 327.0, "provincia": "LA CONVENCION", "distrito": "MEGANTONI", "reg_nat": "OMAGUA O SELVA BAJA", "lon_cp": -73.0567133, "lat_cp": -11.46301015, "codigo": "0809140009", "local_vot": "IEI 331 TANGOSHIARI", "tot_vot": 175, "electores": 277, "v_jxp_p": 15, "v_an_p": 60, "v_fp_p": 14, "v_obras_p": 12, "v_rp_p": 0, "v_jxp_d": 14, "v_jxp_dip": 14, "pref_huac": 0, "pref_marq": 0, "pref_mallq": 0, "pref_maman": 0, "pref_jancc": 0, "pref_veran": 0, "pct_jxp_p": 13.16, "pct_an_p": 52.63, "pct_fp_p": 12.28, "pct_obras_": 10.53, "pct_rp_p": 0.0, "pct_jxp_d": 11.97, "pct_jxp_di": 12.39, "particip": 63.18, "pct_huac": 0.0, "pct_marq": 0.0, "pct_mallq": 0.0, "pct_maman": 0.0, "pct_jancc": 0.0, "pct_veran": 0.0, "dist_m": 25818.039903994773, "pty_gan": "AhoraN", "area_km2": 149.371, "dens_hab": 0.5 }, "geometry": { "type": "Polygon", "coordinates": [ [ [ -73.135130880064651, -11.412658893123488 ], [ -73.110630942275904, -11.367847124000118 ], [ -73.074969978496142, -11.393314326744292 ], [ -72.993297972647056, -11.567041403400605 ], [ -73.012723049947311, -11.572033088976239 ], [ -73.055305522593983, -11.543531881079126 ], [ -73.085979727103435, -11.513668263081867 ], [ -73.118993027132674, -11.471657359467182 ], [ -73.136316447913899, -11.444666430822489 ], [ -73.135130880064651, -11.412658893123488 ] ] ] } },
{ "type": "Feature", "properties": { "ubigeo": "080914", "nombre": "PAMENCHARONI", "categ": null, "poblacion": 121.0, "altitud": 376.0, "provincia": "LA CONVENCION", "distrito": "MEGANTONI", "reg_nat": "OMAGUA O SELVA BAJA", "lon_cp": -73.15403801, "lat_cp": -11.52441039, "codigo": "0809140013", "local_vot": "IEI 331 TANGOSHIARI", "tot_vot": 175, "electores": 277, "v_jxp_p": 15, "v_an_p": 60, "v_fp_p": 14, "v_obras_p": 12, "v_rp_p": 0, "v_jxp_d": 14, "v_jxp_dip": 14, "pref_huac": 0, "pref_marq": 0, "pref_mallq": 0, "pref_maman": 0, "pref_jancc": 0, "pref_veran": 0, "pct_jxp_p": 13.16, "pct_an_p": 52.63, "pct_fp_p": 12.28, "pct_obras_": 10.53, "pct_rp_p": 0.0, "pct_jxp_d": 11.97, "pct_jxp_di": 12.39, "particip": 63.18, "pct_huac": 0.0, "pct_marq": 0.0, "pct_mallq": 0.0, "pct_maman": 0.0, "pct_jancc": 0.0, "pct_veran": 0.0, "dist_m": 37372.63834820054, "pty_gan": "AhoraN", "area_km2": 89.556, "dens_hab": 1.4 }, "geometry": { "type": "Polygon", "coordinates": [ [ [ -73.136316447913899, -11.444666430822489 ], [ -73.129857614781969, -11.454904242259364 ], [ -73.161429813003991, -11.549453567433952 ], [ -73.181714974483739, -11.568035660992173 ], [ -73.235352379422878, -11.594297623291457 ], [ -73.239744716097192, -11.59447933204855 ], [ -73.246634320643864, -11.592518544661534 ], [ -73.247280733369237, -11.54851378077842 ], [ -73.136316447913899, -11.444666430822489 ] ] ] } },
{ "type": "Feature", "properties": { "ubigeo": "080914", "nombre": "MAYAPO", "categ": null, "poblacion": 145.0, "altitud": 428.0, "provincia": "LA CONVENCION", "distrito": "MEGANTONI", "reg_nat": "RUPA RUPA O SELVA ALTA", "lon_cp": -73.21191853000001, "lat_cp": -11.91332725, "codigo": "0809140021", "local_vot": "IE JUAN SANTOS ATAHUALPA", "tot_vot": 930, "electores": 2945, "v_jxp_p": 199, "v_an_p": 141, "v_fp_p": 74, "v_obras_p": 59, "v_rp_p": 10, "v_jxp_d": 168, "v_jxp_dip": 182, "pref_huac": 20, "pref_marq": 13, "pref_mallq": 13, "pref_maman": 1, "pref_jancc": 12, "pref_veran": 9, "pct_jxp_p": 32.46, "pct_an_p": 23.0, "pct_fp_p": 12.07, "pct_obras_": 9.62, "pct_rp_p": 1.63, "pct_jxp_d": 33.2, "pct_jxp_di": 33.7, "particip": 31.58, "pct_huac": 2.15, "pct_marq": 1.4, "pct_mallq": 1.4, "pct_maman": 0.11, "pct_jancc": 1.29, "pct_veran": 0.97, "dist_m": 15625.002501492574, "pty_gan": "JxP", "area_km2": 350.187, "dens_hab": 0.4 }, "geometry": { "type": "Polygon", "coordinates": [ [ [ -73.122623078256893, -11.809492279133547 ], [ -73.104893897506628, -11.818495295914952 ], [ -73.091142257988508, -11.840617007127229 ], [ -73.071441814889226, -11.909809756603661 ], [ -73.082770419685033, -12.048312820805863 ], [ -73.229983503956817, -11.937278379829953 ], [ -73.232308587952261, -11.935332827671974 ], [ -73.234425439867721, -11.933162545028335 ], [ -73.236312441496992, -11.930789695762916 ], [ -73.237950321964291, -11.928238512437451 ], [ -73.239322354526735, -11.925535048838128 ], [ -73.240414527395117, -11.922706913903076 ], [ -73.241215686828284, -11.919782989767958 ], [ -73.241717651040034, -11.916793136809131 ], [ -73.241915293754985, -11.913767888696578 ], [ -73.24351457768141, -11.804896097035284 ], [ -73.122623078256893, -11.809492279133547 ] ] ] } },
{ "type": "Feature", "properties": { "ubigeo": "080914", "nombre": "SARINGABENI", "categ": null, "poblacion": 33.0, "altitud": 502.0, "provincia": "LA CONVENCION", "distrito": "MEGANTONI", "reg_nat": "RUPA RUPA O SELVA ALTA", "lon_cp": -72.8458624, "lat_cp": -12.18942253, "codigo": "0809140047", "local_vot": "IE 64553 TICUMPINIA", "tot_vot": 282, "electores": 350, "v_jxp_p": 44, "v_an_p": 37, "v_fp_p": 14, "v_obras_p": 7, "v_rp_p": 2, "v_jxp_d": 33, "v_jxp_dip": 34, "pref_huac": 1, "pref_marq": 2, "pref_mallq": 1, "pref_maman": 1, "pref_jancc": 1, "pref_veran": 3, "pct_jxp_p": 29.93, "pct_an_p": 25.17, "pct_fp_p": 9.52, "pct_obras_": 4.76, "pct_rp_p": 1.36, "pct_jxp_d": 29.73, "pct_jxp_di": 30.36, "particip": 80.57, "pct_huac": 0.35, "pct_marq": 0.71, "pct_mallq": 0.35, "pct_maman": 0.35, "pct_jancc": 0.35, "pct_veran": 1.06, "dist_m": 16880.669580850066, "pty_gan": "JxP", "area_km2": 97.144, "dens_hab": 0.3 }, "geometry": { "type": "Polygon", "coordinates": [ [ [ -72.99496439472334, -12.099165957901464 ], [ -72.890189122707682, -12.122156811533392 ], [ -72.818444265855774, -12.205396106993652 ], [ -72.826276274855772, -12.212146600993641 ], [ -72.82856838967767, -12.213936136570563 ], [ -72.831022995742472, -12.215495346949082 ], [ -72.83361703004087, -12.216809582086571 ], [ -72.836326119522511, -12.21786649368093 ], [ -72.839124810100557, -12.218656151192882 ], [ -72.841986805813391, -12.219171135151409 ], [ -72.844885215896454, -12.219406606865695 ], [ -72.84779280744273, -12.219360353888529 ], [ -72.85068226127791, -12.219032810804039 ], [ -72.853526428646177, -12.21842705514443 ], [ -72.85629858629467, -12.21754877847407 ], [ -72.858972687560126, -12.216406232912647 ], [ -72.861523607098277, -12.21501015359982 ], [ -72.863927376956838, -12.21337365782991 ], [ -73.008942910382999, -12.103996704236099 ], [ -72.99496439472334, -12.099165957901464 ] ] ] } },
{ "type": "Feature", "properties": { "ubigeo": "080914", "nombre": "YOROATO", "categ": null, "poblacion": 44.0, "altitud": 399.0, "provincia": "LA CONVENCION", "distrito": "MEGANTONI", "reg_nat": "OMAGUA O SELVA BAJA", "lon_cp": -73.14854334, "lat_cp": -11.65722968, "codigo": "0809140056", "local_vot": "IE JUAN SANTOS ATAHUALPA", "tot_vot": 930, "electores": 2945, "v_jxp_p": 199, "v_an_p": 141, "v_fp_p": 74, "v_obras_p": 59, "v_rp_p": 10, "v_jxp_d": 168, "v_jxp_dip": 182, "pref_huac": 20, "pref_marq": 13, "pref_mallq": 13, "pref_maman": 1, "pref_jancc": 12, "pref_veran": 9, "pct_jxp_p": 32.46, "pct_an_p": 23.0, "pct_fp_p": 12.07, "pct_obras_": 9.62, "pct_rp_p": 1.63, "pct_jxp_d": 33.2, "pct_jxp_di": 33.7, "particip": 31.58, "pct_huac": 2.15, "pct_marq": 1.4, "pct_mallq": 1.4, "pct_maman": 0.11, "pct_jancc": 1.29, "pct_veran": 0.97, "dist_m": 29878.52632592653, "pty_gan": "JxP", "area_km2": 90.792, "dens_hab": 0.5 }, "geometry": { "type": "Polygon", "coordinates": [ [ [ -73.235352379422878, -11.594297623291457 ], [ -73.10535865710267, -11.622455047815274 ], [ -73.139715772262491, -11.726190684039874 ], [ -73.239744716097192, -11.59447933204855 ], [ -73.235352379422878, -11.594297623291457 ] ] ] } },
{ "type": "Feature", "properties": { "ubigeo": "080914", "nombre": "CAMPO VERDE", "categ": null, "poblacion": 134.0, "altitud": 382.0, "provincia": "LA CONVENCION", "distrito": "MEGANTONI", "reg_nat": "OMAGUA O SELVA BAJA", "lon_cp": -73.20377674, "lat_cp": -11.69917699, "codigo": "0809140019", "local_vot": "IE JUAN SANTOS ATAHUALPA", "tot_vot": 930, "electores": 2945, "v_jxp_p": 199, "v_an_p": 141, "v_fp_p": 74, "v_obras_p": 59, "v_rp_p": 10, "v_jxp_d": 168, "v_jxp_dip": 182, "pref_huac": 20, "pref_marq": 13, "pref_mallq": 13, "pref_maman": 1, "pref_jancc": 12, "pref_veran": 9, "pct_jxp_p": 32.46, "pct_an_p": 23.0, "pct_fp_p": 12.07, "pct_obras_": 9.62, "pct_rp_p": 1.63, "pct_jxp_d": 33.2, "pct_jxp_di": 33.7, "particip": 31.58, "pct_huac": 2.15, "pct_marq": 1.4, "pct_mallq": 1.4, "pct_maman": 0.11, "pct_jancc": 1.29, "pct_veran": 0.97, "dist_m": 25767.891551688041, "pty_gan": "JxP", "area_km2": 198.953, "dens_hab": 0.7 }, "geometry": { "type": "Polygon", "coordinates": [ [ [ -73.239744716097192, -11.59447933204855 ], [ -73.139715772262491, -11.726190684039874 ], [ -73.122623078256893, -11.809492279133547 ], [ -73.24351457768141, -11.804896097035284 ], [ -73.246634320643864, -11.592518544661534 ], [ -73.239744716097192, -11.59447933204855 ] ] ] } },
{ "type": "Feature", "properties": { "ubigeo": "080914", "nombre": "TAINI", "categ": null, "poblacion": 62.0, "altitud": 373.0, "provincia": "LA CONVENCION", "distrito": "MEGANTONI", "reg_nat": "OMAGUA O SELVA BAJA", "lon_cp": -73.15229138, "lat_cp": -11.52499363, "codigo": "0809140011", "local_vot": "IEI 331 TANGOSHIARI", "tot_vot": 175, "electores": 277, "v_jxp_p": 15, "v_an_p": 60, "v_fp_p": 14, "v_obras_p": 12, "v_rp_p": 0, "v_jxp_d": 14, "v_jxp_dip": 14, "pref_huac": 0, "pref_marq": 0, "pref_mallq": 0, "pref_maman": 0, "pref_jancc": 0, "pref_veran": 0, "pct_jxp_p": 13.16, "pct_an_p": 52.63, "pct_fp_p": 12.28, "pct_obras_": 10.53, "pct_rp_p": 0.0, "pct_jxp_d": 11.97, "pct_jxp_di": 12.39, "particip": 63.18, "pct_huac": 0.0, "pct_marq": 0.0, "pct_mallq": 0.0, "pct_maman": 0.0, "pct_jancc": 0.0, "pct_veran": 0.0, "dist_m": 32004.580994050026, "pty_gan": "AhoraN", "area_km2": 10.791, "dens_hab": 5.7 }, "geometry": { "type": "Polygon", "coordinates": [ [ [ -73.118993027132674, -11.471657359467182 ], [ -73.155855815547184, -11.544697917727742 ], [ -73.161429813003991, -11.549453567433952 ], [ -73.129857614781969, -11.454904242259364 ], [ -73.118993027132674, -11.471657359467182 ] ] ] } },
{ "type": "Feature", "properties": { "ubigeo": "080914", "nombre": "NUEVO MUNDO", "categ": null, "poblacion": 1558.0, "altitud": 357.0, "provincia": "LA CONVENCION", "distrito": "MEGANTONI", "reg_nat": "OMAGUA O SELVA BAJA", "lon_cp": -73.13583608, "lat_cp": -11.54428055, "codigo": "0809140017", "local_vot": "IEI 331 TANGOSHIARI", "tot_vot": 175, "electores": 277, "v_jxp_p": 15, "v_an_p": 60, "v_fp_p": 14, "v_obras_p": 12, "v_rp_p": 0, "v_jxp_d": 14, "v_jxp_dip": 14, "pref_huac": 0, "pref_marq": 0, "pref_mallq": 0, "pref_maman": 0, "pref_jancc": 0, "pref_veran": 0, "pct_jxp_p": 13.16, "pct_an_p": 52.63, "pct_fp_p": 12.28, "pct_obras_": 10.53, "pct_rp_p": 0.0, "pct_jxp_d": 11.97, "pct_jxp_di": 12.39, "particip": 63.18, "pct_huac": 0.0, "pct_marq": 0.0, "pct_mallq": 0.0, "pct_maman": 0.0, "pct_jancc": 0.0, "pct_veran": 0.0, "dist_m": 28905.14535008169, "pty_gan": "AhoraN", "area_km2": 32.365, "dens_hab": 48.1 }, "geometry": { "type": "Polygon", "coordinates": [ [ [ -73.161429813003991, -11.549453567433952 ], [ -73.155855815547184, -11.544697917727742 ], [ -73.085979727103435, -11.513668263081867 ], [ -73.055305522593983, -11.543531881079126 ], [ -73.181714974483739, -11.568035660992173 ], [ -73.161429813003991, -11.549453567433952 ] ] ] } },
{ "type": "Feature", "properties": { "ubigeo": "080914", "nombre": "IROMANI", "categ": null, "poblacion": 50.0, "altitud": 366.0, "provincia": "LA CONVENCION", "distrito": "MEGANTONI", "reg_nat": "OMAGUA O SELVA BAJA", "lon_cp": -73.09146921, "lat_cp": -11.67613256, "codigo": "0809140050", "local_vot": "IE JUAN SANTOS ATAHUALPA", "tot_vot": 930, "electores": 2945, "v_jxp_p": 199, "v_an_p": 141, "v_fp_p": 74, "v_obras_p": 59, "v_rp_p": 10, "v_jxp_d": 168, "v_jxp_dip": 182, "pref_huac": 20, "pref_marq": 13, "pref_mallq": 13, "pref_maman": 1, "pref_jancc": 12, "pref_veran": 9, "pct_jxp_p": 32.46, "pct_an_p": 23.0, "pct_fp_p": 12.07, "pct_obras_": 9.62, "pct_rp_p": 1.63, "pct_jxp_d": 33.2, "pct_jxp_di": 33.7, "particip": 31.58, "pct_huac": 2.15, "pct_marq": 1.4, "pct_mallq": 1.4, "pct_maman": 0.11, "pct_jancc": 1.29, "pct_veran": 0.97, "dist_m": 20544.289215290701, "pty_gan": "JxP", "area_km2": 172.885, "dens_hab": 0.3 }, "geometry": { "type": "Polygon", "coordinates": [ [ [ -73.122623078256893, -11.809492279133547 ], [ -73.139715772262491, -11.726190684039874 ], [ -73.10535865710267, -11.622455047815274 ], [ -73.033230031685775, -11.595328585884083 ], [ -73.054336397085081, -11.750416210199653 ], [ -73.104893897506628, -11.818495295914952 ], [ -73.122623078256893, -11.809492279133547 ] ] ] } },
{ "type": "Feature", "properties": { "ubigeo": "080914", "nombre": "SELVA VERDE", "categ": null, "poblacion": 1.0, "altitud": 358.0, "provincia": "LA CONVENCION", "distrito": "MEGANTONI", "reg_nat": "OMAGUA O SELVA BAJA", "lon_cp": -73.14212154000001, "lat_cp": -11.53012624, "codigo": "0809140016", "local_vot": "IEI 331 TANGOSHIARI", "tot_vot": 175, "electores": 277, "v_jxp_p": 15, "v_an_p": 60, "v_fp_p": 14, "v_obras_p": 12, "v_rp_p": 0, "v_jxp_d": 14, "v_jxp_dip": 14, "pref_huac": 0, "pref_marq": 0, "pref_mallq": 0, "pref_maman": 0, "pref_jancc": 0, "pref_veran": 0, "pct_jxp_p": 13.16, "pct_an_p": 52.63, "pct_fp_p": 12.28, "pct_obras_": 10.53, "pct_rp_p": 0.0, "pct_jxp_d": 11.97, "pct_jxp_di": 12.39, "particip": 63.18, "pct_huac": 0.0, "pct_marq": 0.0, "pct_mallq": 0.0, "pct_maman": 0.0, "pct_jancc": 0.0, "pct_veran": 0.0, "dist_m": 29893.161977553224, "pty_gan": "AhoraN", "area_km2": 23.9, "dens_hab": 0.0 }, "geometry": { "type": "Polygon", "coordinates": [ [ [ -73.118993027132674, -11.471657359467182 ], [ -73.085979727103435, -11.513668263081867 ], [ -73.155855815547184, -11.544697917727742 ], [ -73.118993027132674, -11.471657359467182 ] ] ] } },
{ "type": "Feature", "properties": { "ubigeo": "080914", "nombre": "KIRIGUETI", "categ": null, "poblacion": 594.0, "altitud": 364.0, "provincia": "LA CONVENCION", "distrito": "MEGANTONI", "reg_nat": "OMAGUA O SELVA BAJA", "lon_cp": -73.130283, "lat_cp": -11.57292759, "codigo": "0809140018", "local_vot": "IE 64449 PRIMARIA NUEVA LUZ", "tot_vot": 423, "electores": 587, "v_jxp_p": 78, "v_an_p": 81, "v_fp_p": 34, "v_obras_p": 19, "v_rp_p": 0, "v_jxp_d": 75, "v_jxp_dip": 72, "pref_huac": 4, "pref_marq": 4, "pref_mallq": 2, "pref_maman": 2, "pref_jancc": 1, "pref_veran": 0, "pct_jxp_p": 28.68, "pct_an_p": 29.78, "pct_fp_p": 12.5, "pct_obras_": 6.99, "pct_rp_p": 0.0, "pct_jxp_d": 28.41, "pct_jxp_di": 26.57, "particip": 72.06, "pct_huac": 0.95, "pct_marq": 0.95, "pct_mallq": 0.47, "pct_maman": 0.47, "pct_jancc": 0.24, "pct_veran": 0.0, "dist_m": 28877.348996951681, "pty_gan": "AhoraN", "area_km2": 118.18, "dens_hab": 5.0 }, "geometry": { "type": "Polygon", "coordinates": [ [ [ -73.181714974483739, -11.568035660992173 ], [ -73.055305522593983, -11.543531881079126 ], [ -73.012723049947311, -11.572033088976239 ], [ -73.033230031685775, -11.595328585884083 ], [ -73.10535865710267, -11.622455047815274 ], [ -73.235352379422878, -11.594297623291457 ], [ -73.181714974483739, -11.568035660992173 ] ] ] } },
{ "type": "Feature", "properties": { "ubigeo": "080914", "nombre": "MASHOPO", "categ": null, "poblacion": 27.0, "altitud": 531.0, "provincia": "LA CONVENCION", "distrito": "MEGANTONI", "reg_nat": "RUPA RUPA O SELVA ALTA", "lon_cp": -72.97248998000001, "lat_cp": -11.76448998, "codigo": "0809140027", "local_vot": "IE JUAN SANTOS ATAHUALPA", "tot_vot": 930, "electores": 2945, "v_jxp_p": 199, "v_an_p": 141, "v_fp_p": 74, "v_obras_p": 59, "v_rp_p": 10, "v_jxp_d": 168, "v_jxp_dip": 182, "pref_huac": 20, "pref_marq": 13, "pref_mallq": 13, "pref_maman": 1, "pref_jancc": 12, "pref_veran": 9, "pct_jxp_p": 32.46, "pct_an_p": 23.0, "pct_fp_p": 12.07, "pct_obras_": 9.62, "pct_rp_p": 1.63, "pct_jxp_d": 33.2, "pct_jxp_di": 33.7, "particip": 31.58, "pct_huac": 2.15, "pct_marq": 1.4, "pct_mallq": 1.4, "pct_maman": 0.11, "pct_jancc": 1.29, "pct_veran": 0.97, "dist_m": 10108.875373135234, "pty_gan": "JxP", "area_km2": 137.898, "dens_hab": 0.2 }, "geometry": { "type": "Polygon", "coordinates": [ [ [ -73.054336397085081, -11.750416210199653 ], [ -72.985789849455287, -11.726690678559676 ], [ -72.94464468869127, -11.751035371008069 ], [ -72.910288607349955, -11.786323170305222 ], [ -73.091142257988508, -11.840617007127229 ], [ -73.104893897506628, -11.818495295914952 ], [ -73.054336397085081, -11.750416210199653 ] ] ] } },
{ "type": "Feature", "properties": { "ubigeo": "080914", "nombre": "SENSA", "categ": null, "poblacion": 165.0, "altitud": 295.0, "provincia": "LA CONVENCION", "distrito": "MEGANTONI", "reg_nat": "OMAGUA O SELVA BAJA", "lon_cp": -73.00312139, "lat_cp": -11.38796699, "codigo": "0809140006", "local_vot": "IEI 331 TANGOSHIARI", "tot_vot": 175, "electores": 277, "v_jxp_p": 15, "v_an_p": 60, "v_fp_p": 14, "v_obras_p": 12, "v_rp_p": 0, "v_jxp_d": 14, "v_jxp_dip": 14, "pref_huac": 0, "pref_marq": 0, "pref_mallq": 0, "pref_maman": 0, "pref_jancc": 0, "pref_veran": 0, "pct_jxp_p": 13.16, "pct_an_p": 52.63, "pct_fp_p": 12.28, "pct_obras_": 10.53, "pct_rp_p": 0.0, "pct_jxp_d": 11.97, "pct_jxp_di": 12.39, "particip": 63.18, "pct_huac": 0.0, "pct_marq": 0.0, "pct_mallq": 0.0, "pct_maman": 0.0, "pct_jancc": 0.0, "pct_veran": 0.0, "dist_m": 18715.578382583491, "pty_gan": "AhoraN", "area_km2": 235.241, "dens_hab": 0.7 }, "geometry": { "type": "Polygon", "coordinates": [ [ [ -73.110344334246989, -11.363455894126737 ], [ -73.015132728111084, -11.342708626144157 ], [ -72.969213503005676, -11.346290581003231 ], [ -72.874377578972286, -11.396531351435346 ], [ -72.821900682333222, -11.511495419623236 ], [ -73.074969978496142, -11.393314326744292 ], [ -73.110630942275904, -11.367847124000118 ], [ -73.110344334246989, -11.363455894126737 ] ] ] } },
{ "type": "Feature", "properties": { "ubigeo": "080914", "nombre": "SHINTORONI", "categ": null, "poblacion": 16.0, "altitud": 365.0, "provincia": "LA CONVENCION", "distrito": "MEGANTONI", "reg_nat": "OMAGUA O SELVA BAJA", "lon_cp": -72.99870275000001, "lat_cp": -11.68875744, "codigo": "0809140053", "local_vot": "IE 64449 PRIMARIA NUEVA LUZ", "tot_vot": 423, "electores": 587, "v_jxp_p": 78, "v_an_p": 81, "v_fp_p": 34, "v_obras_p": 19, "v_rp_p": 0, "v_jxp_d": 75, "v_jxp_dip": 72, "pref_huac": 4, "pref_marq": 4, "pref_mallq": 2, "pref_maman": 2, "pref_jancc": 1, "pref_veran": 0, "pct_jxp_p": 28.68, "pct_an_p": 29.78, "pct_fp_p": 12.5, "pct_obras_": 6.99, "pct_rp_p": 0.0, "pct_jxp_d": 28.41, "pct_jxp_di": 26.57, "particip": 72.06, "pct_huac": 0.95, "pct_marq": 0.95, "pct_mallq": 0.47, "pct_maman": 0.47, "pct_jancc": 0.24, "pct_veran": 0.0, "dist_m": 13674.405296799221, "pty_gan": "AhoraN", "area_km2": 210.829, "dens_hab": 0.1 }, "geometry": { "type": "Polygon", "coordinates": [ [ [ -73.012723049947311, -11.572033088976239 ], [ -72.993297972647056, -11.567041403400605 ], [ -72.88570973364601, -11.551489939033109 ], [ -72.91327519045916, -11.605549750620897 ], [ -72.985789849455287, -11.726690678559676 ], [ -73.054336397085081, -11.750416210199653 ], [ -73.033230031685775, -11.595328585884083 ], [ -73.012723049947311, -11.572033088976239 ] ] ] } },
{ "type": "Feature", "properties": { "ubigeo": "080914", "nombre": "PUERTO RICO", "categ": null, "poblacion": 221.0, "altitud": 335.0, "provincia": "LA CONVENCION", "distrito": "MEGANTONI", "reg_nat": "OMAGUA O SELVA BAJA", "lon_cp": -73.02304046, "lat_cp": -11.29655606, "codigo": "0809140005", "local_vot": "IEI 331 TANGOSHIARI", "tot_vot": 175, "electores": 277, "v_jxp_p": 15, "v_an_p": 60, "v_fp_p": 14, "v_obras_p": 12, "v_rp_p": 0, "v_jxp_d": 14, "v_jxp_dip": 14, "pref_huac": 0, "pref_marq": 0, "pref_mallq": 0, "pref_maman": 0, "pref_jancc": 0, "pref_veran": 0, "pct_jxp_p": 13.16, "pct_an_p": 52.63, "pct_fp_p": 12.28, "pct_obras_": 10.53, "pct_rp_p": 0.0, "pct_jxp_d": 11.97, "pct_jxp_di": 12.39, "particip": 63.18, "pct_huac": 0.0, "pct_marq": 0.0, "pct_mallq": 0.0, "pct_maman": 0.0, "pct_jancc": 0.0, "pct_veran": 0.0, "dist_m": 34227.232503095249, "pty_gan": "AhoraN", "area_km2": 96.699, "dens_hab": 2.3 }, "geometry": { "type": "Polygon", "coordinates": [ [ [ -73.015132728111084, -11.342708626144157 ], [ -73.110344334246989, -11.363455894126737 ], [ -73.13240551811819, -11.307264034482435 ], [ -73.034003922118188, -11.268631112982451 ], [ -73.031527689622649, -11.267781642438921 ], [ -73.028986828499541, -11.267151283549616 ], [ -73.02640068691953, -11.266744836376711 ], [ -73.023788957855274, -11.266565395937562 ], [ -73.005686313159487, -11.266113595602041 ], [ -73.015132728111084, -11.342708626144157 ] ] ] } },
{ "type": "Feature", "properties": { "ubigeo": "080914", "nombre": "NUEVA LUZ", "categ": null, "poblacion": 460.0, "altitud": 338.0, "provincia": "LA CONVENCION", "distrito": "MEGANTONI", "reg_nat": "OMAGUA O SELVA BAJA", "lon_cp": -73.03294855, "lat_cp": -11.45183794, "codigo": "0809140008", "local_vot": "IEI 331 TANGOSHIARI", "tot_vot": 175, "electores": 277, "v_jxp_p": 15, "v_an_p": 60, "v_fp_p": 14, "v_obras_p": 12, "v_rp_p": 0, "v_jxp_d": 14, "v_jxp_dip": 14, "pref_huac": 0, "pref_marq": 0, "pref_mallq": 0, "pref_maman": 0, "pref_jancc": 0, "pref_veran": 0, "pct_jxp_p": 13.16, "pct_an_p": 52.63, "pct_fp_p": 12.28, "pct_obras_": 10.53, "pct_rp_p": 0.0, "pct_jxp_d": 11.97, "pct_jxp_di": 12.39, "particip": 63.18, "pct_huac": 0.0, "pct_marq": 0.0, "pct_mallq": 0.0, "pct_maman": 0.0, "pct_jancc": 0.0, "pct_veran": 0.0, "dist_m": 12587.478793418059, "pty_gan": "AhoraN", "area_km2": 233.802, "dens_hab": 2.0 }, "geometry": { "type": "Polygon", "coordinates": [ [ [ -73.074969978496142, -11.393314326744292 ], [ -72.821900682333222, -11.511495419623236 ], [ -72.815699464525636, -11.525080773798852 ], [ -72.88570973364601, -11.551489939033109 ], [ -72.993297972647056, -11.567041403400605 ], [ -73.074969978496142, -11.393314326744292 ] ] ] } },
{ "type": "Feature", "properties": { "ubigeo": "080914", "nombre": "MIARIA", "categ": null, "poblacion": 707.0, "altitud": 323.0, "provincia": "LA CONVENCION", "distrito": "MEGANTONI", "reg_nat": "OMAGUA O SELVA BAJA", "lon_cp": -72.99624857000001, "lat_cp": -11.29986028, "codigo": "0809140003", "local_vot": "IEI 331 TANGOSHIARI", "tot_vot": 175, "electores": 277, "v_jxp_p": 15, "v_an_p": 60, "v_fp_p": 14, "v_obras_p": 12, "v_rp_p": 0, "v_jxp_d": 14, "v_jxp_dip": 14, "pref_huac": 0, "pref_marq": 0, "pref_mallq": 0, "pref_maman": 0, "pref_jancc": 0, "pref_veran": 0, "pct_jxp_p": 13.16, "pct_an_p": 52.63, "pct_fp_p": 12.28, "pct_obras_": 10.53, "pct_rp_p": 0.0, "pct_jxp_d": 11.97, "pct_jxp_di": 12.39, "particip": 63.18, "pct_huac": 0.0, "pct_marq": 0.0, "pct_mallq": 0.0, "pct_maman": 0.0, "pct_jancc": 0.0, "pct_veran": 0.0, "dist_m": 30049.496710988133, "pty_gan": "AhoraN", "area_km2": 34.621, "dens_hab": 20.4 }, "geometry": { "type": "Polygon", "coordinates": [ [ [ -73.015132728111084, -11.342708626144157 ], [ -73.005686313159487, -11.266113595602041 ], [ -72.978794420811482, -11.265442435879814 ], [ -72.969213503005676, -11.346290581003231 ], [ -73.015132728111084, -11.342708626144157 ] ] ] } },
{ "type": "Feature", "properties": { "ubigeo": "080914", "nombre": "TOSHIMA", "categ": null, "poblacion": 24.0, "altitud": 412.0, "provincia": "LA CONVENCION", "distrito": "MEGANTONI", "reg_nat": "RUPA RUPA O SELVA ALTA", "lon_cp": -72.93044998000001, "lat_cp": -11.72355998, "codigo": "0809140029", "local_vot": "IE 64449 PRIMARIA NUEVA LUZ", "tot_vot": 423, "electores": 587, "v_jxp_p": 78, "v_an_p": 81, "v_fp_p": 34, "v_obras_p": 19, "v_rp_p": 0, "v_jxp_d": 75, "v_jxp_dip": 72, "pref_huac": 4, "pref_marq": 4, "pref_mallq": 2, "pref_maman": 2, "pref_jancc": 1, "pref_veran": 0, "pct_jxp_p": 28.68, "pct_an_p": 29.78, "pct_fp_p": 12.5, "pct_obras_": 6.99, "pct_rp_p": 0.0, "pct_jxp_d": 28.41, "pct_jxp_di": 26.57, "particip": 72.06, "pct_huac": 0.95, "pct_marq": 0.95, "pct_mallq": 0.47, "pct_maman": 0.47, "pct_jancc": 0.24, "pct_veran": 0.0, "dist_m": 3999.9500640450351, "pty_gan": "AhoraN", "area_km2": 339.91, "dens_hab": 0.1 }, "geometry": { "type": "Polygon", "coordinates": [ [ [ -72.815699464525636, -11.525080773798852 ], [ -72.76100485004747, -11.644903320311576 ], [ -72.888342188259955, -11.790080364095109 ], [ -72.910288607349955, -11.786323170305222 ], [ -72.94464468869127, -11.751035371008069 ], [ -72.91327519045916, -11.605549750620897 ], [ -72.88570973364601, -11.551489939033109 ], [ -72.815699464525636, -11.525080773798852 ] ] ] } },
{ "type": "Feature", "properties": { "ubigeo": "080914", "nombre": "VISTA ALEGRE", "categ": null, "poblacion": 126.0, "altitud": 331.0, "provincia": "LA CONVENCION", "distrito": "MEGANTONI", "reg_nat": "OMAGUA O SELVA BAJA", "lon_cp": -72.9537793, "lat_cp": -11.29482746, "codigo": "0809140004", "local_vot": "IE 64450 PUERTO HUALLANA", "tot_vot": 403, "electores": 614, "v_jxp_p": 133, "v_an_p": 22, "v_fp_p": 16, "v_obras_p": 12, "v_rp_p": 10, "v_jxp_d": 116, "v_jxp_dip": 114, "pref_huac": 1, "pref_marq": 3, "pref_mallq": 5, "pref_maman": 4, "pref_jancc": 6, "pref_veran": 2, "pct_jxp_p": 44.04, "pct_an_p": 7.28, "pct_fp_p": 5.3, "pct_obras_": 3.97, "pct_rp_p": 3.31, "pct_jxp_d": 40.99, "pct_jxp_di": 41.16, "particip": 65.64, "pct_huac": 0.25, "pct_marq": 0.74, "pct_mallq": 1.24, "pct_maman": 0.99, "pct_jancc": 1.49, "pct_veran": 0.5, "dist_m": 25304.850829388975, "pty_gan": "JxP", "area_km2": 78.158, "dens_hab": 1.6 }, "geometry": { "type": "Polygon", "coordinates": [ [ [ -72.969213503005676, -11.346290581003231 ], [ -72.978794420811482, -11.265442435879814 ], [ -72.954527801855292, -11.264836796937516 ], [ -72.951610939694078, -11.264905924011229 ], [ -72.94871458752084, -11.265258071009562 ], [ -72.945866141169446, -11.265889907066624 ], [ -72.943092543345145, -11.266795455811241 ], [ -72.940420028780679, -11.267966151895878 ], [ -72.937873876088815, -11.269390922014006 ], [ -72.935478168658548, -11.271056289639603 ], [ -72.933255566856715, -11.272946502498066 ], [ -72.9312270936895, -11.275043681562845 ], [ -72.929411935951393, -11.277327990168443 ], [ -72.927827262742284, -11.279777821640227 ], [ -72.926488063069485, -11.282370003666287 ], [ -72.874377578972286, -11.396531351435346 ], [ -72.969213503005676, -11.346290581003231 ] ] ] } },
{ "type": "Feature", "properties": { "ubigeo": "080914", "nombre": "CAMISEA", "categ": null, "poblacion": 440.0, "altitud": 513.0, "provincia": "LA CONVENCION", "distrito": "MEGANTONI", "reg_nat": "RUPA RUPA O SELVA ALTA", "lon_cp": -72.9462561, "lat_cp": -11.72015188, "codigo": "0809140001", "local_vot": "IE 64449 PRIMARIA NUEVA LUZ", "tot_vot": 423, "electores": 587, "v_jxp_p": 78, "v_an_p": 81, "v_fp_p": 34, "v_obras_p": 19, "v_rp_p": 0, "v_jxp_d": 75, "v_jxp_dip": 72, "pref_huac": 4, "pref_marq": 4, "pref_mallq": 2, "pref_maman": 2, "pref_jancc": 1, "pref_veran": 0, "pct_jxp_p": 28.68, "pct_an_p": 29.78, "pct_fp_p": 12.5, "pct_obras_": 6.99, "pct_rp_p": 0.0, "pct_jxp_d": 28.41, "pct_jxp_di": 26.57, "particip": 72.06, "pct_huac": 0.95, "pct_marq": 0.95, "pct_mallq": 0.47, "pct_maman": 0.47, "pct_jancc": 0.24, "pct_veran": 0.0, "dist_m": 8509.5347191621804, "pty_gan": "AhoraN", "area_km2": 40.715, "dens_hab": 10.8 }, "geometry": { "type": "Polygon", "coordinates": [ [ [ -72.91327519045916, -11.605549750620897 ], [ -72.94464468869127, -11.751035371008069 ], [ -72.985789849455287, -11.726690678559676 ], [ -72.91327519045916, -11.605549750620897 ] ] ] } },
{ "type": "Feature", "properties": { "ubigeo": "080914", "nombre": "KOVANTIARI", "categ": null, "poblacion": 18.0, "altitud": 414.0, "provincia": "LA CONVENCION", "distrito": "MEGANTONI", "reg_nat": "RUPA RUPA O SELVA ALTA", "lon_cp": -72.70860359, "lat_cp": -11.83194758, "codigo": "0809140057", "local_vot": "IEI 373 SHIVANKORENI", "tot_vot": 180, "electores": 202, "v_jxp_p": 16, "v_an_p": 55, "v_fp_p": 11, "v_obras_p": 0, "v_rp_p": 0, "v_jxp_d": 13, "v_jxp_dip": 16, "pref_huac": 0, "pref_marq": 1, "pref_mallq": 0, "pref_maman": 0, "pref_jancc": 0, "pref_veran": 2, "pct_jxp_p": 15.69, "pct_an_p": 53.92, "pct_fp_p": 10.78, "pct_obras_": 0.0, "pct_rp_p": 0.0, "pct_jxp_d": 14.13, "pct_jxp_di": 17.58, "particip": 89.11, "pct_huac": 0.0, "pct_marq": 0.56, "pct_mallq": 0.0, "pct_maman": 0.0, "pct_jancc": 0.0, "pct_veran": 1.11, "dist_m": 6199.5768448265117, "pty_gan": "AhoraN", "area_km2": 183.462, "dens_hab": 0.1 }, "geometry": { "type": "Polygon", "coordinates": [ [ [ -72.771593008686864, -11.936468114754184 ], [ -72.749900141592633, -11.669231025297451 ], [ -72.681312350069504, -11.819490130666324 ], [ -72.680254961980239, -11.822131514874888 ], [ -72.679452553433194, -11.824861188963903 ], [ -72.678912341629783, -11.827654601091753 ], [ -72.678639185463084, -11.830486626129987 ], [ -72.678635541815026, -11.833331791649321 ], [ -72.678901443458145, -11.836164507029443 ], [ -72.679434498760742, -11.838959293631845 ], [ -72.680229913198289, -11.841691013965466 ], [ -72.718980231198273, -11.954535171965469 ], [ -72.771593008686864, -11.936468114754184 ] ] ] } },
{ "type": "Feature", "properties": { "ubigeo": "080914", "nombre": "MALVINAS", "categ": null, "poblacion": 841.0, "altitud": 396.0, "provincia": "LA CONVENCION", "distrito": "MEGANTONI", "reg_nat": "OMAGUA O SELVA BAJA", "lon_cp": -72.95017983, "lat_cp": -11.83880545, "codigo": "0809140041", "local_vot": "IE JUAN SANTOS ATAHUALPA", "tot_vot": 930, "electores": 2945, "v_jxp_p": 199, "v_an_p": 141, "v_fp_p": 74, "v_obras_p": 59, "v_rp_p": 10, "v_jxp_d": 168, "v_jxp_dip": 182, "pref_huac": 20, "pref_marq": 13, "pref_mallq": 13, "pref_maman": 1, "pref_jancc": 12, "pref_veran": 9, "pct_jxp_p": 32.46, "pct_an_p": 23.0, "pct_fp_p": 12.07, "pct_obras_": 9.62, "pct_rp_p": 1.63, "pct_jxp_d": 33.2, "pct_jxp_di": 33.7, "particip": 31.58, "pct_huac": 2.15, "pct_marq": 1.4, "pct_mallq": 1.4, "pct_maman": 0.11, "pct_jancc": 1.29, "pct_veran": 0.97, "dist_m": 4577.7550517158734, "pty_gan": "JxP", "area_km2": 204.607, "dens_hab": 4.1 }, "geometry": { "type": "Polygon", "coordinates": [ [ [ -72.888342188259955, -11.790080364095109 ], [ -72.878196332636563, -11.876492075213301 ], [ -73.071441814889226, -11.909809756603661 ], [ -73.091142257988508, -11.840617007127229 ], [ -72.910288607349955, -11.786323170305222 ], [ -72.888342188259955, -11.790080364095109 ] ] ] } },
{ "type": "Feature", "properties": { "ubigeo": "080914", "nombre": "TIMPIA (MISION)", "categ": null, "poblacion": 476.0, "altitud": 458.0, "provincia": "LA CONVENCION", "distrito": "MEGANTONI", "reg_nat": "RUPA RUPA O SELVA ALTA", "lon_cp": -72.82177078, "lat_cp": -12.07963076, "codigo": "0809140046", "local_vot": "IE 64553 TICUMPINIA", "tot_vot": 282, "electores": 350, "v_jxp_p": 44, "v_an_p": 37, "v_fp_p": 14, "v_obras_p": 7, "v_rp_p": 2, "v_jxp_d": 33, "v_jxp_dip": 34, "pref_huac": 1, "pref_marq": 2, "pref_mallq": 1, "pref_maman": 1, "pref_jancc": 1, "pref_veran": 3, "pct_jxp_p": 29.93, "pct_an_p": 25.17, "pct_fp_p": 9.52, "pct_obras_": 4.76, "pct_rp_p": 1.36, "pct_jxp_d": 29.73, "pct_jxp_di": 30.36, "particip": 80.57, "pct_huac": 0.35, "pct_marq": 0.71, "pct_mallq": 0.35, "pct_maman": 0.35, "pct_jancc": 0.35, "pct_veran": 1.06, "dist_m": 11757.802893062868, "pty_gan": "JxP", "area_km2": 191.14, "dens_hab": 2.5 }, "geometry": { "type": "Polygon", "coordinates": [ [ [ -72.99496439472334, -12.099165957901464 ], [ -72.853137175802402, -11.988851848499001 ], [ -72.77542355018744, -12.114871150044047 ], [ -72.781679742150658, -12.131653818885658 ], [ -72.890189122707682, -12.122156811533392 ], [ -72.99496439472334, -12.099165957901464 ] ] ] } },
{ "type": "Feature", "properties": { "ubigeo": "080914", "nombre": "TICUMPINIA CHOCORIARI", "categ": null, "poblacion": 292.0, "altitud": 428.0, "provincia": "LA CONVENCION", "distrito": "MEGANTONI", "reg_nat": "RUPA RUPA O SELVA ALTA", "lon_cp": -72.93340381, "lat_cp": -11.93610785, "codigo": "0809140042", "local_vot": "IE JUAN SANTOS ATAHUALPA", "tot_vot": 930, "electores": 2945, "v_jxp_p": 199, "v_an_p": 141, "v_fp_p": 74, "v_obras_p": 59, "v_rp_p": 10, "v_jxp_d": 168, "v_jxp_dip": 182, "pref_huac": 20, "pref_marq": 13, "pref_mallq": 13, "pref_maman": 1, "pref_jancc": 12, "pref_veran": 9, "pct_jxp_p": 32.46, "pct_an_p": 23.0, "pct_fp_p": 12.07, "pct_obras_": 9.62, "pct_rp_p": 1.63, "pct_jxp_d": 33.2, "pct_jxp_di": 33.7, "particip": 31.58, "pct_huac": 2.15, "pct_marq": 1.4, "pct_mallq": 1.4, "pct_maman": 0.11, "pct_jancc": 1.29, "pct_veran": 0.97, "dist_m": 12536.54654002902, "pty_gan": "JxP", "area_km2": 465.343, "dens_hab": 0.6 }, "geometry": { "type": "Polygon", "coordinates": [ [ [ -72.878196332636563, -11.876492075213301 ], [ -72.814576065471527, -11.942113375664334 ], [ -72.853137175802402, -11.988851848499001 ], [ -72.99496439472334, -12.099165957901464 ], [ -73.008942910382999, -12.103996704236099 ], [ -73.082770419685033, -12.048312820805863 ], [ -73.071441814889226, -11.909809756603661 ], [ -72.878196332636563, -11.876492075213301 ] ] ] } },
{ "type": "Feature", "properties": { "ubigeo": "080914", "nombre": "CASHIRIARI", "categ": null, "poblacion": 103.0, "altitud": 405.0, "provincia": "LA CONVENCION", "distrito": "MEGANTONI", "reg_nat": "RUPA RUPA O SELVA ALTA", "lon_cp": -72.8169, "lat_cp": -11.82315667, "codigo": "0809140033", "local_vot": "IEI 373 SHIVANKORENI", "tot_vot": 180, "electores": 202, "v_jxp_p": 16, "v_an_p": 55, "v_fp_p": 11, "v_obras_p": 0, "v_rp_p": 0, "v_jxp_d": 13, "v_jxp_dip": 16, "pref_huac": 0, "pref_marq": 1, "pref_mallq": 0, "pref_maman": 0, "pref_jancc": 0, "pref_veran": 2, "pct_jxp_p": 15.69, "pct_an_p": 53.92, "pct_fp_p": 10.78, "pct_obras_": 0.0, "pct_rp_p": 0.0, "pct_jxp_d": 14.13, "pct_jxp_di": 17.58, "particip": 89.11, "pct_huac": 0.0, "pct_marq": 0.56, "pct_mallq": 0.0, "pct_maman": 0.0, "pct_jancc": 0.0, "pct_veran": 1.11, "dist_m": 3795.4489733309815, "pty_gan": "AhoraN", "area_km2": 306.782, "dens_hab": 0.3 }, "geometry": { "type": "Polygon", "coordinates": [ [ [ -72.878196332636563, -11.876492075213301 ], [ -72.888342188259955, -11.790080364095109 ], [ -72.76100485004747, -11.644903320311576 ], [ -72.749900141592633, -11.669231025297451 ], [ -72.771593008686864, -11.936468114754184 ], [ -72.814576065471527, -11.942113375664334 ], [ -72.878196332636563, -11.876492075213301 ] ] ] } },
{ "type": "Feature", "properties": { "ubigeo": "080914", "nombre": "KITAPARAY", "categ": null, "poblacion": 33.0, "altitud": 477.0, "provincia": "LA CONVENCION", "distrito": "MEGANTONI", "reg_nat": "RUPA RUPA O SELVA ALTA", "lon_cp": -72.83019839000001, "lat_cp": -12.17592154, "codigo": "0809140048", "local_vot": "IE 64553 TICUMPINIA", "tot_vot": 282, "electores": 350, "v_jxp_p": 44, "v_an_p": 37, "v_fp_p": 14, "v_obras_p": 7, "v_rp_p": 2, "v_jxp_d": 33, "v_jxp_dip": 34, "pref_huac": 1, "pref_marq": 2, "pref_mallq": 1, "pref_maman": 1, "pref_jancc": 1, "pref_veran": 3, "pct_jxp_p": 29.93, "pct_an_p": 25.17, "pct_fp_p": 9.52, "pct_obras_": 4.76, "pct_rp_p": 1.36, "pct_jxp_d": 29.73, "pct_jxp_di": 30.36, "particip": 80.57, "pct_huac": 0.35, "pct_marq": 0.71, "pct_mallq": 0.35, "pct_maman": 0.35, "pct_jancc": 0.35, "pct_veran": 1.06, "dist_m": 10168.162660698576, "pty_gan": "JxP", "area_km2": 53.703, "dens_hab": 0.6 }, "geometry": { "type": "Polygon", "coordinates": [ [ [ -72.890189122707682, -12.122156811533392 ], [ -72.781679742150658, -12.131653818885658 ], [ -72.802088018119179, -12.186400434593963 ], [ -72.803281501839976, -12.189168477305 ], [ -72.804746740322514, -12.191802777977136 ], [ -72.80646894041513, -12.194276740523918 ], [ -72.808430714663544, -12.196565387643984 ], [ -72.810612256855777, -12.198645612993666 ], [ -72.818444265855774, -12.205396106993652 ], [ -72.890189122707682, -12.122156811533392 ] ] ] } },
{ "type": "Feature", "properties": { "ubigeo": "080914", "nombre": "ALTO TIMPIA", "categ": null, "poblacion": 123.0, "altitud": 504.0, "provincia": "LA CONVENCION", "distrito": "MEGANTONI", "reg_nat": "RUPA RUPA O SELVA ALTA", "lon_cp": -72.78610423000001, "lat_cp": -12.0576359, "codigo": "0809140045", "local_vot": "IE 64553 TICUMPINIA", "tot_vot": 282, "electores": 350, "v_jxp_p": 44, "v_an_p": 37, "v_fp_p": 14, "v_obras_p": 7, "v_rp_p": 2, "v_jxp_d": 33, "v_jxp_dip": 34, "pref_huac": 1, "pref_marq": 2, "pref_mallq": 1, "pref_maman": 1, "pref_jancc": 1, "pref_veran": 3, "pct_jxp_p": 29.93, "pct_an_p": 25.17, "pct_fp_p": 9.52, "pct_obras_": 4.76, "pct_rp_p": 1.36, "pct_jxp_d": 29.73, "pct_jxp_di": 30.36, "particip": 80.57, "pct_huac": 0.35, "pct_marq": 0.71, "pct_mallq": 0.35, "pct_maman": 0.35, "pct_jancc": 0.35, "pct_veran": 1.06, "dist_m": 9271.0322234028699, "pty_gan": "JxP", "area_km2": 155.22, "dens_hab": 0.8 }, "geometry": { "type": "Polygon", "coordinates": [ [ [ -72.853137175802402, -11.988851848499001 ], [ -72.814576065471527, -11.942113375664334 ], [ -72.771593008686864, -11.936468114754184 ], [ -72.718980231198273, -11.954535171965469 ], [ -72.757730549198257, -12.067379329965469 ], [ -72.77542355018744, -12.114871150044047 ], [ -72.853137175802402, -11.988851848499001 ] ] ] } }
]
}
