{
"type": "FeatureCollection",
"name": "distritos_megantoni",
"crs": { "type": "name", "properties": { "name": "urn:ogc:def:crs:OGC:1.3:CRS84" } },
"features": [
{ "type": "Feature", "properties": { "depto": "Cusco", "provincia": "La Convencion", "distrito": "Megantoni" }, "geometry": { "type": "Polygon", "coordinates": [ [ [ -72.826276274855772, -12.212146600993641 ], [ -72.82856838967767, -12.213936136570563 ], [ -72.831022995742472, -12.215495346949082 ], [ -72.83361703004087, -12.216809582086571 ], [ -72.836326119522511, -12.21786649368093 ], [ -72.839124810100557, -12.218656151192882 ], [ -72.841986805813391, -12.219171135151409 ], [ -72.844885215896454, -12.219406606865695 ], [ -72.84779280744273, -12.219360353888529 ], [ -72.85068226127791, -12.219032810804039 ], [ -72.853526428646177, -12.21842705514443 ], [ -72.85629858629467, -12.21754877847407 ], [ -72.858972687560126, -12.216406232912647 ], [ -72.861523607098277, -12.21501015359982 ], [ -72.863927376956838, -12.21337365782991 ], [ -73.229983503956817, -11.937278379829953 ], [ -73.232308587952261, -11.935332827671974 ], [ -73.234425439867721, -11.933162545028335 ], [ -73.236312441496992, -11.930789695762916 ], [ -73.237950321964291, -11.928238512437451 ], [ -73.239322354526735, -11.925535048838128 ], [ -73.240414527395117, -11.922706913903076 ], [ -73.241215686828284, -11.919782989767958 ], [ -73.241717651040034, -11.916793136809131 ], [ -73.241915293754985, -11.913767888696578 ], [ -73.249840415755003, -11.374262540696543 ], [ -73.249732112084558, -11.371237339346642 ], [ -73.24931949165564, -11.368238453341119 ], [ -73.248606755665335, -11.36529641658054 ], [ -73.24760116101163, -11.362441184140803 ], [ -73.246312946405553, -11.359701827278114 ], [ -73.24475522812314, -11.357106237432797 ], [ -73.242943866458873, -11.35468084224568 ], [ -73.240897304240121, -11.352450336478528 ], [ -73.238636379046994, -11.350437430578216 ], [ -73.236184111049241, -11.34866261944468 ], [ -73.233565468620839, -11.347143973757021 ], [ -73.230807114118193, -11.345896955982415 ], [ -73.034003922118188, -11.268631112982451 ], [ -73.031527689622649, -11.267781642438921 ], [ -73.028986828499541, -11.267151283549616 ], [ -73.02640068691953, -11.266744836376711 ], [ -73.023788957855274, -11.266565395937562 ], [ -72.954527801855292, -11.264836796937516 ], [ -72.951610939694078, -11.264905924011229 ], [ -72.94871458752084, -11.265258071009562 ], [ -72.945866141169446, -11.265889907066624 ], [ -72.943092543345145, -11.266795455811241 ], [ -72.940420028780679, -11.267966151895878 ], [ -72.937873876088815, -11.269390922014006 ], [ -72.935478168658548, -11.271056289639603 ], [ -72.933255566856715, -11.272946502498066 ], [ -72.9312270936895, -11.275043681562845 ], [ -72.929411935951393, -11.277327990168443 ], [ -72.927827262742284, -11.279777821640227 ], [ -72.926488063069485, -11.282370003666287 ], [ -72.681312350069504, -11.819490130666324 ], [ -72.680254961980239, -11.822131514874888 ], [ -72.679452553433194, -11.824861188963903 ], [ -72.678912341629783, -11.827654601091753 ], [ -72.678639185463084, -11.830486626129987 ], [ -72.678635541815026, -11.833331791649321 ], [ -72.678901443458145, -11.836164507029443 ], [ -72.679434498760742, -11.838959293631845 ], [ -72.680229913198289, -11.841691013965466 ], [ -72.757730549198257, -12.067379329965469 ], [ -72.757993860119171, -12.068114797593978 ], [ -72.802088018119179, -12.186400434593963 ], [ -72.803281501839976, -12.189168477305 ], [ -72.804746740322514, -12.191802777977136 ], [ -72.80646894041513, -12.194276740523918 ], [ -72.808430714663544, -12.196565387643984 ], [ -72.810612256855777, -12.198645612993666 ], [ -72.826276274855772, -12.212146600993641 ] ] ] } }
]
}
