{
"type": "FeatureCollection",
"name": "distritos_santaana",
"crs": { "type": "name", "properties": { "name": "urn:ogc:def:crs:OGC:1.3:CRS84" } },
"features": [
{ "type": "Feature", "properties": { "depto": "Cusco", "provincia": "LaConvención", "distrito": "SantaAna" }, "geometry": { "type": "MultiPolygon", "coordinates": [ [ [ [ -72.8354, -12.9645 ], [ -72.8375, -12.9574 ], [ -72.8412, -12.952 ], [ -72.8428, -12.9396 ], [ -72.8477, -12.9352 ], [ -72.8619, -12.9275 ], [ -72.8644, -12.9203 ], [ -72.8632, -12.9147 ], [ -72.8608, -12.912 ], [ -72.8505, -12.9123 ], [ -72.847, -12.9098 ], [ -72.8468, -12.9058 ], [ -72.8511, -12.9004 ], [ -72.8511, -12.8923 ], [ -72.8476, -12.8822 ], [ -72.8394, -12.8678 ], [ -72.8439, -12.8595 ], [ -72.8343, -12.8609 ], [ -72.828, -12.8647 ], [ -72.8209, -12.8614 ], [ -72.8188, -12.8581 ], [ -72.8185, -12.8537 ], [ -72.822, -12.8442 ], [ -72.8217, -12.8333 ], [ -72.8146, -12.8237 ], [ -72.8063, -12.8187 ], [ -72.7951, -12.815 ], [ -72.7813, -12.8164 ], [ -72.767, -12.8156 ], [ -72.7523, -12.8128 ], [ -72.7449, -12.809 ], [ -72.7391, -12.8111 ], [ -72.7309, -12.8184 ], [ -72.7253, -12.8163 ], [ -72.7174, -12.8028 ], [ -72.7024, -12.7861 ], [ -72.7014, -12.7832 ], [ -72.7028, -12.7772 ], [ -72.6984, -12.7661 ], [ -72.6901, -12.7641 ], [ -72.6865, -12.7567 ], [ -72.6869, -12.7471 ], [ -72.6821, -12.7264 ], [ -72.6761, -12.7267 ], [ -72.6681, -12.7338 ], [ -72.6632, -12.733 ], [ -72.6597, -12.7467 ], [ -72.6549, -12.7555 ], [ -72.6555, -12.7646 ], [ -72.6531, -12.77 ], [ -72.6533, -12.7803 ], [ -72.6503, -12.7823 ], [ -72.6426, -12.7818 ], [ -72.6406, -12.7869 ], [ -72.6207, -12.7965 ], [ -72.6143, -12.8152 ], [ -72.6195, -12.8222 ], [ -72.6346, -12.831 ], [ -72.6365, -12.8337 ], [ -72.6354, -12.8406 ], [ -72.6258, -12.851 ], [ -72.6256, -12.8604 ], [ -72.6446, -12.8606 ], [ -72.6506, -12.8594 ], [ -72.6563, -12.8557 ], [ -72.6821, -12.8648 ], [ -72.6883, -12.8716 ], [ -72.6888, -12.882 ], [ -72.6858, -12.8856 ], [ -72.6823, -12.8996 ], [ -72.6757, -12.9097 ], [ -72.671, -12.912 ], [ -72.6683, -12.9161 ], [ -72.6686, -12.9395 ], [ -72.6708, -12.9452 ], [ -72.6692, -12.9494 ], [ -72.674, -12.9465 ], [ -72.6781, -12.9386 ], [ -72.6875, -12.9268 ], [ -72.704, -12.9181 ], [ -72.7106, -12.9161 ], [ -72.7124, -12.9165 ], [ -72.7142, -12.9229 ], [ -72.714, -12.9583 ], [ -72.7167, -12.9655 ], [ -72.7241, -12.9729 ], [ -72.727, -12.9795 ], [ -72.7301, -12.979 ], [ -72.7457, -12.9844 ], [ -72.7582, -12.9842 ], [ -72.7703, -12.9926 ], [ -72.7854, -12.9797 ], [ -72.8086, -12.979 ], [ -72.8253, -12.9637 ], [ -72.8298, -12.9627 ], [ -72.8354, -12.9645 ] ] ] ] } }
]
}
