{
"type": "FeatureCollection",
"name": "mapa_megantoni",
"crs": { "type": "name", "properties": { "name": "urn:ogc:def:crs:OGC:1.3:CRS84" } },
"features": [
{ "type": "Feature", "properties": { "ubigeo": "080914", "nombre": "MASECA", "categ": null, "poblacion": 48.0, "altitud": 405.0, "provincia": "LA CONVENCION", "distrito": "MEGANTONI", "reg_nat": "RUPA RUPA O SELVA ALTA", "lon_cp": -73.21984365, "lat_cp": -11.3738219, "codigo": "0809140007", "local_vot": "IEI 331 TANGOSHIARI", "tot_vot": 175, "electores": 277, "v_jxp_p": 15, "v_an_p": 60, "v_fp_p": 14, "v_obras_p": 12, "v_rp_p": 0, "v_jxp_d": 14, "v_jxp_dip": 14, "pref_marq": 0, "pref_juli": 0, "pref_holg": 3, "pref_lopez": 0, "pref_edwin": 0, "pref_jancc": 0, "pref_veran": 0, "pct_jxp_p": 13.16, "pct_an_p": 52.63, "pct_fp_p": 12.28, "pct_obras_": 10.53, "pct_rp_p": 0.0, "pct_jxp_d": 11.97, "pct_jxp_di": 12.39, "particip": 63.18, "pct_marq": 0.0, "pct_julian": 0.0, "pct_holg": 1.71, "pct_lopez": 0.0, "pct_edwin": 0.0, "pct_jancc": 0.0, "pct_veran": 0.0, "dist_m": 40744.645170554395, "pty_gan": "AhoraN", "area_km2": 132.158, "dens_hab": 0.4 }, "geometry": { "type": "Polygon", "coordinates": [ [ [ -73.110344335488421, -11.363455890728011 ], [ -73.110630944026738, -11.367847128264117 ], [ -73.135130881463454, -11.412658898525676 ], [ -73.449705124219292, -11.423183108429031 ], [ -73.4458617, -11.4206207 ], [ -73.4451707, -11.4178955 ], [ -73.4460536, -11.4149784 ], [ -73.4433024, -11.4096789 ], [ -73.4368529, -11.4049439 ], [ -73.4353018, -11.4024947 ], [ -73.4301047, -11.3999231 ], [ -73.4253411, -11.3940394 ], [ -73.4250397, -11.3900511 ], [ -73.4197489, -11.3839382 ], [ -73.4139107, -11.3872295 ], [ -73.410134, -11.3866102 ], [ -73.3893539, -11.37394 ], [ -73.3850446, -11.3693499 ], [ -73.380876, -11.3593262 ], [ -73.3786605, -11.3507407 ], [ -73.3733396, -11.3463566 ], [ -73.3681311, -11.3449326 ], [ -73.3555782, -11.336689 ], [ -73.3516812, -11.3323424 ], [ -73.3484961, -11.3258972 ], [ -73.3453899, -11.3235555 ], [ -73.3398141, -11.3171702 ], [ -73.3313306, -11.3112647 ], [ -73.3167169, -11.3073647 ], [ -73.3080595, -11.3094272 ], [ -73.2968841, -11.308372 ], [ -73.2940542, -11.3092354 ], [ -73.2910086, -11.312065 ], [ -73.2885385, -11.3127366 ], [ -73.2828549, -11.3121851 ], [ -73.2793056, -11.3104344 ], [ -73.2755165, -11.3108901 ], [ -73.2711621, -11.3092944 ], [ -73.2621336, -11.3121302 ], [ -73.2559989, -11.3125352 ], [ -73.2500379, -11.310857 ], [ -73.2451764, -11.3081369 ], [ -73.24072, -11.3024072 ], [ -73.2371317, -11.2995135 ], [ -73.2285664, -11.2996292 ], [ -73.2142135, -11.2980667 ], [ -73.2127087, -11.2970827 ], [ -73.2100465, -11.2928001 ], [ -73.2059952, -11.2901957 ], [ -73.2033007, -11.2899904 ], [ -73.196739, -11.2930782 ], [ -73.1895596, -11.2920747 ], [ -73.1796784, -11.2925379 ], [ -73.1753554, -11.2887552 ], [ -73.1720359, -11.2891412 ], [ -73.1696429, -11.2905307 ], [ -73.1602247, -11.2905307 ], [ -73.137721448961742, -11.293723868600994 ], [ -73.110344335488421, -11.363455890728011 ] ] ] } },
{ "type": "Feature", "properties": { "ubigeo": "080914", "nombre": "POROTOBANGO", "categ": null, "poblacion": 26.0, "altitud": 360.0, "provincia": "LA CONVENCION", "distrito": "MEGANTONI", "reg_nat": "OMAGUA O SELVA BAJA", "lon_cp": -73.21705852, "lat_cp": -11.45707092, "codigo": "0809140010", "local_vot": "IEI 331 TANGOSHIARI", "tot_vot": 175, "electores": 277, "v_jxp_p": 15, "v_an_p": 60, "v_fp_p": 14, "v_obras_p": 12, "v_rp_p": 0, "v_jxp_d": 14, "v_jxp_dip": 14, "pref_marq": 0, "pref_juli": 0, "pref_holg": 3, "pref_lopez": 0, "pref_edwin": 0, "pref_jancc": 0, "pref_veran": 0, "pct_jxp_p": 13.16, "pct_an_p": 52.63, "pct_fp_p": 12.28, "pct_obras_": 10.53, "pct_rp_p": 0.0, "pct_jxp_d": 11.97, "pct_jxp_di": 12.39, "particip": 63.18, "pct_marq": 0.0, "pct_julian": 0.0, "pct_holg": 1.71, "pct_lopez": 0.0, "pct_edwin": 0.0, "pct_jancc": 0.0, "pct_veran": 0.0, "dist_m": 39772.396564404713, "pty_gan": "AhoraN", "area_km2": 111.673, "dens_hab": 0.2 }, "geometry": { "type": "Polygon", "coordinates": [ [ [ -73.135130881463454, -11.412658898525676 ], [ -73.136316448875448, -11.444666426016685 ], [ -73.283185765717022, -11.582115967135852 ], [ -73.435002186459258, -11.590444516274195 ], [ -73.4361148, -11.5861875 ], [ -73.4357715, -11.5835336 ], [ -73.4344411, -11.5813738 ], [ -73.4345806, -11.5794503 ], [ -73.4386307, -11.5702745 ], [ -73.4421873, -11.5653817 ], [ -73.4498209, -11.5589699 ], [ -73.4627062, -11.5517276 ], [ -73.4724265, -11.5473022 ], [ -73.4760368, -11.5415838 ], [ -73.4792087, -11.5389607 ], [ -73.4685442, -11.5377156 ], [ -73.4651707, -11.5359914 ], [ -73.4537756, -11.5353166 ], [ -73.4519013, -11.534642 ], [ -73.4497273, -11.5319431 ], [ -73.4524261, -11.5215225 ], [ -73.4538131, -11.5053271 ], [ -73.4565969, -11.5008062 ], [ -73.4604522, -11.4969226 ], [ -73.4690416, -11.4822701 ], [ -73.4743663, -11.4791701 ], [ -73.4797159, -11.4713639 ], [ -73.4786412, -11.4671417 ], [ -73.4745342, -11.4621519 ], [ -73.4762311, -11.4601977 ], [ -73.4765684, -11.4583519 ], [ -73.473132, -11.4530724 ], [ -73.4714416, -11.4523598 ], [ -73.4710451, -11.4504987 ], [ -73.4696978, -11.4494085 ], [ -73.4694676, -11.4461459 ], [ -73.4677403, -11.4441499 ], [ -73.4632119, -11.4416764 ], [ -73.4590244, -11.4430426 ], [ -73.4567626, -11.4421156 ], [ -73.4551888, -11.4347844 ], [ -73.4536151, -11.4331339 ], [ -73.4544633, -11.4303021 ], [ -73.4530009, -11.4253804 ], [ -73.449705124219292, -11.423183108429031 ], [ -73.135130881463454, -11.412658898525676 ] ] ] } },
{ "type": "Feature", "properties": { "ubigeo": "080914", "nombre": "NUEVA VIDA", "categ": null, "poblacion": 81.0, "altitud": 327.0, "provincia": "LA CONVENCION", "distrito": "MEGANTONI", "reg_nat": "OMAGUA O SELVA BAJA", "lon_cp": -73.0567133, "lat_cp": -11.46301015, "codigo": "0809140009", "local_vot": "IEI 331 TANGOSHIARI", "tot_vot": 175, "electores": 277, "v_jxp_p": 15, "v_an_p": 60, "v_fp_p": 14, "v_obras_p": 12, "v_rp_p": 0, "v_jxp_d": 14, "v_jxp_dip": 14, "pref_marq": 0, "pref_juli": 0, "pref_holg": 3, "pref_lopez": 0, "pref_edwin": 0, "pref_jancc": 0, "pref_veran": 0, "pct_jxp_p": 13.16, "pct_an_p": 52.63, "pct_fp_p": 12.28, "pct_obras_": 10.53, "pct_rp_p": 0.0, "pct_jxp_d": 11.97, "pct_jxp_di": 12.39, "particip": 63.18, "pct_marq": 0.0, "pct_julian": 0.0, "pct_holg": 1.71, "pct_lopez": 0.0, "pct_edwin": 0.0, "pct_jancc": 0.0, "pct_veran": 0.0, "dist_m": 25818.039903994773, "pty_gan": "AhoraN", "area_km2": 149.371, "dens_hab": 0.5 }, "geometry": { "type": "Polygon", "coordinates": [ [ [ -73.135130881463454, -11.412658898525676 ], [ -73.110630944026738, -11.367847128264117 ], [ -73.074969986941014, -11.393314323444223 ], [ -72.993297957170171, -11.56704139888377 ], [ -73.012723044328027, -11.572033086668039 ], [ -73.055305543814953, -11.543531861452969 ], [ -73.08597972960348, -11.513668259774814 ], [ -73.1189930246816, -11.471657358525601 ], [ -73.136316448875448, -11.444666426016685 ], [ -73.135130881463454, -11.412658898525676 ] ] ] } },
{ "type": "Feature", "properties": { "ubigeo": "080914", "nombre": "PAMENCHARONI", "categ": null, "poblacion": 121.0, "altitud": 376.0, "provincia": "LA CONVENCION", "distrito": "MEGANTONI", "reg_nat": "OMAGUA O SELVA BAJA", "lon_cp": -73.15403801, "lat_cp": -11.52441039, "codigo": "0809140013", "local_vot": "IEI 331 TANGOSHIARI", "tot_vot": 175, "electores": 277, "v_jxp_p": 15, "v_an_p": 60, "v_fp_p": 14, "v_obras_p": 12, "v_rp_p": 0, "v_jxp_d": 14, "v_jxp_dip": 14, "pref_marq": 0, "pref_juli": 0, "pref_holg": 3, "pref_lopez": 0, "pref_edwin": 0, "pref_jancc": 0, "pref_veran": 0, "pct_jxp_p": 13.16, "pct_an_p": 52.63, "pct_fp_p": 12.28, "pct_obras_": 10.53, "pct_rp_p": 0.0, "pct_jxp_d": 11.97, "pct_jxp_di": 12.39, "particip": 63.18, "pct_marq": 0.0, "pct_julian": 0.0, "pct_holg": 1.71, "pct_lopez": 0.0, "pct_edwin": 0.0, "pct_jancc": 0.0, "pct_veran": 0.0, "dist_m": 37372.63834820054, "pty_gan": "AhoraN", "area_km2": 89.556, "dens_hab": 1.4 }, "geometry": { "type": "Polygon", "coordinates": [ [ [ -73.136316448875448, -11.444666426016685 ], [ -73.129857612303994, -11.454904242615678 ], [ -73.161429806593659, -11.549453556297967 ], [ -73.181715004738535, -11.568035679273775 ], [ -73.235352370566318, -11.594297626822518 ], [ -73.239744693103518, -11.594479335088504 ], [ -73.283185765717022, -11.582115967135852 ], [ -73.136316448875448, -11.444666426016685 ] ] ] } },
{ "type": "Feature", "properties": { "ubigeo": "080914", "nombre": "MAYAPO", "categ": null, "poblacion": 145.0, "altitud": 428.0, "provincia": "LA CONVENCION", "distrito": "MEGANTONI", "reg_nat": "RUPA RUPA O SELVA ALTA", "lon_cp": -73.21191853000001, "lat_cp": -11.91332725, "codigo": "0809140021", "local_vot": "IE JUAN SANTOS ATAHUALPA", "tot_vot": 930, "electores": 2945, "v_jxp_p": 199, "v_an_p": 141, "v_fp_p": 74, "v_obras_p": 59, "v_rp_p": 10, "v_jxp_d": 168, "v_jxp_dip": 182, "pref_marq": 13, "pref_juli": 13, "pref_holg": 11, "pref_lopez": 3, "pref_edwin": 1, "pref_jancc": 12, "pref_veran": 9, "pct_jxp_p": 32.46, "pct_an_p": 23.0, "pct_fp_p": 12.07, "pct_obras_": 9.62, "pct_rp_p": 1.63, "pct_jxp_d": 33.2, "pct_jxp_di": 33.7, "particip": 31.58, "pct_marq": 1.4, "pct_julian": 1.4, "pct_holg": 1.18, "pct_lopez": 0.32, "pct_edwin": 0.11, "pct_jancc": 1.29, "pct_veran": 0.97, "dist_m": 15625.002501492574, "pty_gan": "JxP", "area_km2": 350.187, "dens_hab": 0.4 }, "geometry": { "type": "Polygon", "coordinates": [ [ [ -73.122623086059249, -11.809492276609294 ], [ -73.104893896106077, -11.818495298026043 ], [ -73.09114225612656, -11.840617010016736 ], [ -73.071441814401339, -11.909809756388704 ], [ -73.089605004761765, -12.131872207664843 ], [ -73.149297672074795, -12.211014693497942 ], [ -73.1576961, -12.2078403 ], [ -73.1728935, -12.2102102 ], [ -73.1860524, -12.2094605 ], [ -73.1922376, -12.211306 ], [ -73.1962609, -12.2114266 ], [ -73.2004881, -12.2102731 ], [ -73.2042432, -12.2101787 ], [ -73.2056167, -12.2109233 ], [ -73.2068396, -12.2069543 ], [ -73.2071185, -12.2021725 ], [ -73.206405, -12.199792 ], [ -73.2072687, -12.1975217 ], [ -73.2097203, -12.1950311 ], [ -73.2113618, -12.1851105 ], [ -73.2122254, -12.1835689 ], [ -73.2115334, -12.1784091 ], [ -73.2123971, -12.1765057 ], [ -73.2163024, -12.1746179 ], [ -73.2175309, -12.1730605 ], [ -73.2182765, -12.1694894 ], [ -73.2162434, -12.1638365 ], [ -73.2142747, -12.149368 ], [ -73.2094306, -12.146835 ], [ -73.2098597, -12.138339 ], [ -73.2143819, -12.1345472 ], [ -73.2177025, -12.1285789 ], [ -73.2245421, -12.1225264 ], [ -73.2284474, -12.1212362 ], [ -73.2290697, -12.1173026 ], [ -73.2304215, -12.1158655 ], [ -73.2362795, -12.1135157 ], [ -73.2391924, -12.1131801 ], [ -73.2411397, -12.112236 ], [ -73.2423681, -12.110568 ], [ -73.2499212, -12.1065503 ], [ -73.2508063, -12.1024853 ], [ -73.2507956, -12.0939513 ], [ -73.2519651, -12.0897654 ], [ -73.251788, -12.0790803 ], [ -73.2505971, -12.0754555 ], [ -73.253274, -12.072691 ], [ -73.2563424, -12.0719986 ], [ -73.2579356, -12.0704825 ], [ -73.2585579, -12.0686884 ], [ -73.258, -12.0611553 ], [ -73.2593465, -12.0587631 ], [ -73.2642227, -12.0572522 ], [ -73.2717329, -12.0567014 ], [ -73.2738304, -12.0553846 ], [ -73.2739699, -12.0514553 ], [ -73.2731599, -12.0494407 ], [ -73.2677364, -12.0408892 ], [ -73.26639, -12.0399291 ], [ -73.2660627, -12.0363248 ], [ -73.2703221, -12.0328989 ], [ -73.2716739, -12.030753 ], [ -73.2756972, -12.028859 ], [ -73.2766843, -12.026818 ], [ -73.276459, -12.0250289 ], [ -73.2778108, -12.0219386 ], [ -73.276481, -12.0140696 ], [ -73.2811958, -12.013255 ], [ -73.2894141, -12.0092201 ], [ -73.2881963, -12.0038786 ], [ -73.2905084, -11.9958609 ], [ -73.2899451, -11.9940716 ], [ -73.2874721, -11.9926233 ], [ -73.2859486, -11.9902253 ], [ -73.2847363, -11.9851405 ], [ -73.2852942, -11.9809058 ], [ -73.2890332, -11.9767182 ], [ -73.2884109, -11.9725095 ], [ -73.2871771, -11.9705206 ], [ -73.287853, -11.9662279 ], [ -73.2989413, -11.9657084 ], [ -73.3007544, -11.9649422 ], [ -73.302294, -11.9631054 ], [ -73.3041608, -11.9567711 ], [ -73.3055341, -11.9559944 ], [ -73.3094126, -11.9562306 ], [ -73.3195138, -11.9610377 ], [ -73.327834, -11.9605864 ], [ -73.3331662, -11.958524 ], [ -73.3338904, -11.9574061 ], [ -73.3346093, -11.9486261 ], [ -73.3366102, -11.9433568 ], [ -73.3363903, -11.9418348 ], [ -73.3292824, -11.9367019 ], [ -73.3274049, -11.9338782 ], [ -73.3220887, -11.9202791 ], [ -73.3220351, -11.9182006 ], [ -73.3256668, -11.9091253 ], [ -73.3259082, -11.9046532 ], [ -73.3288586, -11.8987322 ], [ -73.3210695, -11.8833202 ], [ -73.3197355, -11.8766291 ], [ -73.3258438, -11.8693931 ], [ -73.3308435, -11.8679756 ], [ -73.335371, -11.8655292 ], [ -73.3386058, -11.8618071 ], [ -73.3400703, -11.8572397 ], [ -73.3488733, -11.8517324 ], [ -73.3546239, -11.8461253 ], [ -73.3555359, -11.8397305 ], [ -73.353433, -11.8363703 ], [ -73.3466524, -11.8308574 ], [ -73.3466792, -11.8267672 ], [ -73.3448499, -11.8238689 ], [ -73.3449626, -11.8217634 ], [ -73.3470172, -11.8188966 ], [ -73.3473229, -11.8166283 ], [ -73.3448499, -11.8081849 ], [ -73.3468144, -11.8029409 ], [ -73.346655320680284, -11.80097478329634 ], [ -73.122623086059249, -11.809492276609294 ] ] ] } },
{ "type": "Feature", "properties": { "ubigeo": "080914", "nombre": "SARINGABENI", "categ": null, "poblacion": 33.0, "altitud": 502.0, "provincia": "LA CONVENCION", "distrito": "MEGANTONI", "reg_nat": "RUPA RUPA O SELVA ALTA", "lon_cp": -72.8458624, "lat_cp": -12.18942253, "codigo": "0809140047", "local_vot": "IE 64553 TICUMPINIA", "tot_vot": 282, "electores": 350, "v_jxp_p": 44, "v_an_p": 37, "v_fp_p": 14, "v_obras_p": 7, "v_rp_p": 2, "v_jxp_d": 33, "v_jxp_dip": 34, "pref_marq": 2, "pref_juli": 1, "pref_holg": 0, "pref_lopez": 0, "pref_edwin": 0, "pref_jancc": 1, "pref_veran": 3, "pct_jxp_p": 29.93, "pct_an_p": 25.17, "pct_fp_p": 9.52, "pct_obras_": 4.76, "pct_rp_p": 1.36, "pct_jxp_d": 29.73, "pct_jxp_di": 30.36, "particip": 80.57, "pct_marq": 0.71, "pct_julian": 0.35, "pct_holg": 0.0, "pct_lopez": 0.0, "pct_edwin": 0.0, "pct_jancc": 0.35, "pct_veran": 1.06, "dist_m": 16880.669580850066, "pty_gan": "JxP", "area_km2": 97.144, "dens_hab": 0.3 }, "geometry": { "type": "Polygon", "coordinates": [ [ [ -73.089605004761765, -12.131872207664843 ], [ -72.99496440159156, -12.099165963223063 ], [ -72.890189166853602, -12.122156804346387 ], [ -72.787565850595257, -12.241221602713262 ], [ -72.7891338, -12.2413207 ], [ -72.7952331, -12.2387205 ], [ -72.8012037, -12.2391451 ], [ -72.8046101, -12.2373679 ], [ -72.8071636, -12.2375252 ], [ -72.8107095, -12.2350402 ], [ -72.8130376, -12.232183 ], [ -72.8170395, -12.2310191 ], [ -72.8264433, -12.2304896 ], [ -72.8308797, -12.2309824 ], [ -72.8338623, -12.2336667 ], [ -72.835815, -12.2372893 ], [ -72.8371829, -12.2371687 ], [ -72.8398007, -12.2346313 ], [ -72.8457177, -12.2340861 ], [ -72.846356, -12.2314071 ], [ -72.8450096, -12.2279679 ], [ -72.8456041, -12.2260185 ], [ -72.8480619, -12.226783 ], [ -72.8503472, -12.2257555 ], [ -72.8576535, -12.2252154 ], [ -72.8621918, -12.2260019 ], [ -72.8652549, -12.2237737 ], [ -72.8686076, -12.2227513 ], [ -72.8732801, -12.2277162 ], [ -72.8763109, -12.229698 ], [ -72.8772014, -12.2313494 ], [ -72.8870291, -12.2347047 ], [ -72.890237, -12.2341385 ], [ -72.8919214, -12.2327964 ], [ -72.8949684, -12.2319313 ], [ -72.896508, -12.2304424 ], [ -72.8965348, -12.2267044 ], [ -72.8976184, -12.224623 ], [ -72.9051554, -12.2278158 ], [ -72.9074782, -12.22769 ], [ -72.9140443, -12.2232546 ], [ -72.9161686, -12.2226727 ], [ -72.9245639, -12.2285865 ], [ -72.935636, -12.2304634 ], [ -72.9405659, -12.235035 ], [ -72.9430604, -12.2418712 ], [ -72.9451257, -12.2434439 ], [ -72.9456997, -12.2466785 ], [ -72.9575765, -12.2509562 ], [ -72.9616374, -12.2447545 ], [ -72.9779559, -12.2411844 ], [ -72.9795599, -12.2373627 ], [ -72.9815233, -12.236052 ], [ -72.9834974, -12.231297 ], [ -72.9894776, -12.2294681 ], [ -72.9965426, -12.2304689 ], [ -72.9995037, -12.2318514 ], [ -73.0048961, -12.2368709 ], [ -73.0090168, -12.2391519 ], [ -73.011387, -12.2397533 ], [ -73.0121327, -12.2391556 ], [ -73.0122775, -12.2352027 ], [ -73.01121, -12.2319838 ], [ -73.0115962, -12.2289797 ], [ -73.0162901, -12.2255824 ], [ -73.0184627, -12.218599 ], [ -73.0206674, -12.2163393 ], [ -73.0205387, -12.2143522 ], [ -73.0187845, -12.2121659 ], [ -73.0207855, -12.2033784 ], [ -73.0225852, -12.2031661 ], [ -73.0229956, -12.2005733 ], [ -73.025482, -12.197367 ], [ -73.0304602, -12.1952618 ], [ -73.0314204, -12.1940113 ], [ -73.0316189, -12.1923255 ], [ -73.0295429, -12.1891873 ], [ -73.0310825, -12.1872341 ], [ -73.031179, -12.1847749 ], [ -73.0332068, -12.1825175 ], [ -73.0352587, -12.1830707 ], [ -73.0366427, -12.1814111 ], [ -73.0385363, -12.1824009 ], [ -73.040033, -12.1818595 ], [ -73.0407625, -12.1806298 ], [ -73.0404823, -12.1772857 ], [ -73.041531, -12.1758987 ], [ -73.0451332, -12.1758699 ], [ -73.0482714, -12.1745812 ], [ -73.044975, -12.1665201 ], [ -73.044873, -12.1609339 ], [ -73.0438109, -12.156327 ], [ -73.0404688, -12.1544352 ], [ -73.0372193, -12.1501074 ], [ -73.0371952, -12.1485669 ], [ -73.0419588, -12.1512965 ], [ -73.0433227, -12.1534571 ], [ -73.0455691, -12.1548324 ], [ -73.0519165, -12.1549504 ], [ -73.0560847, -12.1515496 ], [ -73.0569899, -12.1491057 ], [ -73.0564159, -12.1472965 ], [ -73.0575264, -12.1460903 ], [ -73.059774, -12.1469661 ], [ -73.0641353, -12.1507472 ], [ -73.0675417, -12.1516964 ], [ -73.0703366, -12.1512087 ], [ -73.0737591, -12.1518642 ], [ -73.0751324, -12.150228 ], [ -73.0760121, -12.1503014 ], [ -73.0815965, -12.1545807 ], [ -73.0845469, -12.1609261 ], [ -73.0867249, -12.1722582 ], [ -73.0866981, -12.1756247 ], [ -73.0851585, -12.1774233 ], [ -73.0848581, -12.1805643 ], [ -73.0866337, -12.1878528 ], [ -73.0873954, -12.1996924 ], [ -73.0881143, -12.2014961 ], [ -73.0911398, -12.2037979 ], [ -73.0933178, -12.2046473 ], [ -73.0969656, -12.2035934 ], [ -73.1071955, -12.2049881 ], [ -73.1167549, -12.2081497 ], [ -73.1215024, -12.2081916 ], [ -73.1262124, -12.2095391 ], [ -73.1347472, -12.209235 ], [ -73.1404227, -12.2114214 ], [ -73.1459051, -12.212297 ], [ -73.149297672074795, -12.211014693497942 ], [ -73.089605004761765, -12.131872207664843 ] ] ] } },
{ "type": "Feature", "properties": { "ubigeo": "080914", "nombre": "YOROATO", "categ": null, "poblacion": 44.0, "altitud": 399.0, "provincia": "LA CONVENCION", "distrito": "MEGANTONI", "reg_nat": "OMAGUA O SELVA BAJA", "lon_cp": -73.14854334, "lat_cp": -11.65722968, "codigo": "0809140056", "local_vot": "IE JUAN SANTOS ATAHUALPA", "tot_vot": 930, "electores": 2945, "v_jxp_p": 199, "v_an_p": 141, "v_fp_p": 74, "v_obras_p": 59, "v_rp_p": 10, "v_jxp_d": 168, "v_jxp_dip": 182, "pref_marq": 13, "pref_juli": 13, "pref_holg": 11, "pref_lopez": 3, "pref_edwin": 1, "pref_jancc": 12, "pref_veran": 9, "pct_jxp_p": 32.46, "pct_an_p": 23.0, "pct_fp_p": 12.07, "pct_obras_": 9.62, "pct_rp_p": 1.63, "pct_jxp_d": 33.2, "pct_jxp_di": 33.7, "particip": 31.58, "pct_marq": 1.4, "pct_julian": 1.4, "pct_holg": 1.18, "pct_lopez": 0.32, "pct_edwin": 0.11, "pct_jancc": 1.29, "pct_veran": 0.97, "dist_m": 29878.52632592653, "pty_gan": "JxP", "area_km2": 90.792, "dens_hab": 0.5 }, "geometry": { "type": "Polygon", "coordinates": [ [ [ -73.235352370566318, -11.594297626822518 ], [ -73.105358655554269, -11.622455047759329 ], [ -73.139715772438436, -11.726190698383604 ], [ -73.239744693103518, -11.594479335088504 ], [ -73.235352370566318, -11.594297626822518 ] ] ] } },
{ "type": "Feature", "properties": { "ubigeo": "080914", "nombre": "CAMPO VERDE", "categ": null, "poblacion": 134.0, "altitud": 382.0, "provincia": "LA CONVENCION", "distrito": "MEGANTONI", "reg_nat": "OMAGUA O SELVA BAJA", "lon_cp": -73.20377674, "lat_cp": -11.69917699, "codigo": "0809140019", "local_vot": "IE JUAN SANTOS ATAHUALPA", "tot_vot": 930, "electores": 2945, "v_jxp_p": 199, "v_an_p": 141, "v_fp_p": 74, "v_obras_p": 59, "v_rp_p": 10, "v_jxp_d": 168, "v_jxp_dip": 182, "pref_marq": 13, "pref_juli": 13, "pref_holg": 11, "pref_lopez": 3, "pref_edwin": 1, "pref_jancc": 12, "pref_veran": 9, "pct_jxp_p": 32.46, "pct_an_p": 23.0, "pct_fp_p": 12.07, "pct_obras_": 9.62, "pct_rp_p": 1.63, "pct_jxp_d": 33.2, "pct_jxp_di": 33.7, "particip": 31.58, "pct_marq": 1.4, "pct_julian": 1.4, "pct_holg": 1.18, "pct_lopez": 0.32, "pct_edwin": 0.11, "pct_jancc": 1.29, "pct_veran": 0.97, "dist_m": 25767.891551688041, "pty_gan": "JxP", "area_km2": 198.953, "dens_hab": 0.7 }, "geometry": { "type": "Polygon", "coordinates": [ [ [ -73.283185765717022, -11.582115967135852 ], [ -73.239744693103518, -11.594479335088504 ], [ -73.139715772438436, -11.726190698383604 ], [ -73.122623086059249, -11.809492276609294 ], [ -73.346655320680284, -11.80097478329634 ], [ -73.3464646, -11.7986176 ], [ -73.3455634, -11.7967693 ], [ -73.3463788, -11.7952727 ], [ -73.3510619, -11.7925263 ], [ -73.3560562, -11.7853741 ], [ -73.3547795, -11.7778173 ], [ -73.3586204, -11.7700608 ], [ -73.3561474, -11.7650507 ], [ -73.3567321, -11.7598094 ], [ -73.3557826, -11.7574513 ], [ -73.3581322, -11.7482867 ], [ -73.3645696, -11.7465325 ], [ -73.3683461, -11.7471417 ], [ -73.3693278, -11.746543 ], [ -73.3742148, -11.7405661 ], [ -73.3743542, -11.7357025 ], [ -73.3786243, -11.7332077 ], [ -73.3820361, -11.729636 ], [ -73.3869016, -11.7283545 ], [ -73.3945727, -11.7240947 ], [ -73.3937198, -11.7198191 ], [ -73.3907318, -11.7154437 ], [ -73.3901525, -11.7109001 ], [ -73.3903027, -11.7076749 ], [ -73.3919066, -11.7044234 ], [ -73.3914453, -11.6985926 ], [ -73.3886719, -11.6949786 ], [ -73.3871269, -11.6892474 ], [ -73.3848363, -11.6874351 ], [ -73.3822238, -11.6766553 ], [ -73.3821434, -11.6703144 ], [ -73.3809686, -11.6656387 ], [ -73.3832538, -11.6660275 ], [ -73.385464, -11.6643515 ], [ -73.3871752, -11.6583886 ], [ -73.3947229, -11.6567547 ], [ -73.3987463, -11.6530718 ], [ -73.4002161, -11.6503292 ], [ -73.3999801, -11.6481804 ], [ -73.4045827, -11.6459369 ], [ -73.4098452, -11.6420122 ], [ -73.4110844, -11.6377038 ], [ -73.4133965, -11.6338998 ], [ -73.4202254, -11.6298698 ], [ -73.4273064, -11.6216572 ], [ -73.4291303, -11.6210687 ], [ -73.4297633, -11.616986 ], [ -73.429302, -11.612094 ], [ -73.4326226, -11.6045955 ], [ -73.4318018, -11.5984789 ], [ -73.4337813, -11.5951158 ], [ -73.435002186459258, -11.590444516274195 ], [ -73.283185765717022, -11.582115967135852 ] ] ] } },
{ "type": "Feature", "properties": { "ubigeo": "080914", "nombre": "TAINI", "categ": null, "poblacion": 62.0, "altitud": 373.0, "provincia": "LA CONVENCION", "distrito": "MEGANTONI", "reg_nat": "OMAGUA O SELVA BAJA", "lon_cp": -73.15229138, "lat_cp": -11.52499363, "codigo": "0809140011", "local_vot": "IEI 331 TANGOSHIARI", "tot_vot": 175, "electores": 277, "v_jxp_p": 15, "v_an_p": 60, "v_fp_p": 14, "v_obras_p": 12, "v_rp_p": 0, "v_jxp_d": 14, "v_jxp_dip": 14, "pref_marq": 0, "pref_juli": 0, "pref_holg": 3, "pref_lopez": 0, "pref_edwin": 0, "pref_jancc": 0, "pref_veran": 0, "pct_jxp_p": 13.16, "pct_an_p": 52.63, "pct_fp_p": 12.28, "pct_obras_": 10.53, "pct_rp_p": 0.0, "pct_jxp_d": 11.97, "pct_jxp_di": 12.39, "particip": 63.18, "pct_marq": 0.0, "pct_julian": 0.0, "pct_holg": 1.71, "pct_lopez": 0.0, "pct_edwin": 0.0, "pct_jancc": 0.0, "pct_veran": 0.0, "dist_m": 32004.580994050026, "pty_gan": "AhoraN", "area_km2": 10.791, "dens_hab": 5.7 }, "geometry": { "type": "Polygon", "coordinates": [ [ [ -73.1189930246816, -11.471657358525601 ], [ -73.155855815505831, -11.544697913844553 ], [ -73.161429806593659, -11.549453556297967 ], [ -73.129857612303994, -11.454904242615678 ], [ -73.1189930246816, -11.471657358525601 ] ] ] } },
{ "type": "Feature", "properties": { "ubigeo": "080914", "nombre": "NUEVO MUNDO", "categ": null, "poblacion": 1558.0, "altitud": 357.0, "provincia": "LA CONVENCION", "distrito": "MEGANTONI", "reg_nat": "OMAGUA O SELVA BAJA", "lon_cp": -73.13583608, "lat_cp": -11.54428055, "codigo": "0809140017", "local_vot": "IEI 331 TANGOSHIARI", "tot_vot": 175, "electores": 277, "v_jxp_p": 15, "v_an_p": 60, "v_fp_p": 14, "v_obras_p": 12, "v_rp_p": 0, "v_jxp_d": 14, "v_jxp_dip": 14, "pref_marq": 0, "pref_juli": 0, "pref_holg": 3, "pref_lopez": 0, "pref_edwin": 0, "pref_jancc": 0, "pref_veran": 0, "pct_jxp_p": 13.16, "pct_an_p": 52.63, "pct_fp_p": 12.28, "pct_obras_": 10.53, "pct_rp_p": 0.0, "pct_jxp_d": 11.97, "pct_jxp_di": 12.39, "particip": 63.18, "pct_marq": 0.0, "pct_julian": 0.0, "pct_holg": 1.71, "pct_lopez": 0.0, "pct_edwin": 0.0, "pct_jancc": 0.0, "pct_veran": 0.0, "dist_m": 28905.14535008169, "pty_gan": "AhoraN", "area_km2": 32.365, "dens_hab": 48.1 }, "geometry": { "type": "Polygon", "coordinates": [ [ [ -73.161429806593659, -11.549453556297967 ], [ -73.155855815505831, -11.544697913844553 ], [ -73.08597972960348, -11.513668259774814 ], [ -73.055305543814953, -11.543531861452969 ], [ -73.181715004738535, -11.568035679273775 ], [ -73.161429806593659, -11.549453556297967 ] ] ] } },
{ "type": "Feature", "properties": { "ubigeo": "080914", "nombre": "IROMANI", "categ": null, "poblacion": 50.0, "altitud": 366.0, "provincia": "LA CONVENCION", "distrito": "MEGANTONI", "reg_nat": "OMAGUA O SELVA BAJA", "lon_cp": -73.09146921, "lat_cp": -11.67613256, "codigo": "0809140050", "local_vot": "IE JUAN SANTOS ATAHUALPA", "tot_vot": 930, "electores": 2945, "v_jxp_p": 199, "v_an_p": 141, "v_fp_p": 74, "v_obras_p": 59, "v_rp_p": 10, "v_jxp_d": 168, "v_jxp_dip": 182, "pref_marq": 13, "pref_juli": 13, "pref_holg": 11, "pref_lopez": 3, "pref_edwin": 1, "pref_jancc": 12, "pref_veran": 9, "pct_jxp_p": 32.46, "pct_an_p": 23.0, "pct_fp_p": 12.07, "pct_obras_": 9.62, "pct_rp_p": 1.63, "pct_jxp_d": 33.2, "pct_jxp_di": 33.7, "particip": 31.58, "pct_marq": 1.4, "pct_julian": 1.4, "pct_holg": 1.18, "pct_lopez": 0.32, "pct_edwin": 0.11, "pct_jancc": 1.29, "pct_veran": 0.97, "dist_m": 20544.289215290701, "pty_gan": "JxP", "area_km2": 172.885, "dens_hab": 0.3 }, "geometry": { "type": "Polygon", "coordinates": [ [ [ -73.122623086059249, -11.809492276609294 ], [ -73.139715772438436, -11.726190698383604 ], [ -73.105358655554269, -11.622455047759329 ], [ -73.033230033193462, -11.595328590561561 ], [ -73.054336396580013, -11.750416212372158 ], [ -73.104893896106077, -11.818495298026043 ], [ -73.122623086059249, -11.809492276609294 ] ] ] } },
{ "type": "Feature", "properties": { "ubigeo": "080914", "nombre": "SELVA VERDE", "categ": null, "poblacion": 1.0, "altitud": 358.0, "provincia": "LA CONVENCION", "distrito": "MEGANTONI", "reg_nat": "OMAGUA O SELVA BAJA", "lon_cp": -73.14212154000001, "lat_cp": -11.53012624, "codigo": "0809140016", "local_vot": "IEI 331 TANGOSHIARI", "tot_vot": 175, "electores": 277, "v_jxp_p": 15, "v_an_p": 60, "v_fp_p": 14, "v_obras_p": 12, "v_rp_p": 0, "v_jxp_d": 14, "v_jxp_dip": 14, "pref_marq": 0, "pref_juli": 0, "pref_holg": 3, "pref_lopez": 0, "pref_edwin": 0, "pref_jancc": 0, "pref_veran": 0, "pct_jxp_p": 13.16, "pct_an_p": 52.63, "pct_fp_p": 12.28, "pct_obras_": 10.53, "pct_rp_p": 0.0, "pct_jxp_d": 11.97, "pct_jxp_di": 12.39, "particip": 63.18, "pct_marq": 0.0, "pct_julian": 0.0, "pct_holg": 1.71, "pct_lopez": 0.0, "pct_edwin": 0.0, "pct_jancc": 0.0, "pct_veran": 0.0, "dist_m": 29893.161977553224, "pty_gan": "AhoraN", "area_km2": 23.9, "dens_hab": 0.0 }, "geometry": { "type": "Polygon", "coordinates": [ [ [ -73.1189930246816, -11.471657358525601 ], [ -73.08597972960348, -11.513668259774814 ], [ -73.155855815505831, -11.544697913844553 ], [ -73.1189930246816, -11.471657358525601 ] ] ] } },
{ "type": "Feature", "properties": { "ubigeo": "080914", "nombre": "KIRIGUETI", "categ": null, "poblacion": 594.0, "altitud": 364.0, "provincia": "LA CONVENCION", "distrito": "MEGANTONI", "reg_nat": "OMAGUA O SELVA BAJA", "lon_cp": -73.130283, "lat_cp": -11.57292759, "codigo": "0809140018", "local_vot": "IE 64449 PRIMARIA NUEVA LUZ", "tot_vot": 423, "electores": 587, "v_jxp_p": 78, "v_an_p": 81, "v_fp_p": 34, "v_obras_p": 19, "v_rp_p": 0, "v_jxp_d": 75, "v_jxp_dip": 72, "pref_marq": 4, "pref_juli": 2, "pref_holg": 5, "pref_lopez": 1, "pref_edwin": 0, "pref_jancc": 1, "pref_veran": 0, "pct_jxp_p": 28.68, "pct_an_p": 29.78, "pct_fp_p": 12.5, "pct_obras_": 6.99, "pct_rp_p": 0.0, "pct_jxp_d": 28.41, "pct_jxp_di": 26.57, "particip": 72.06, "pct_marq": 0.95, "pct_julian": 0.47, "pct_holg": 1.18, "pct_lopez": 0.24, "pct_edwin": 0.0, "pct_jancc": 0.24, "pct_veran": 0.0, "dist_m": 28877.348996951681, "pty_gan": "AhoraN", "area_km2": 118.18, "dens_hab": 5.0 }, "geometry": { "type": "Polygon", "coordinates": [ [ [ -73.181715004738535, -11.568035679273775 ], [ -73.055305543814953, -11.543531861452969 ], [ -73.012723044328027, -11.572033086668039 ], [ -73.033230033193462, -11.595328590561561 ], [ -73.105358655554269, -11.622455047759329 ], [ -73.235352370566318, -11.594297626822518 ], [ -73.181715004738535, -11.568035679273775 ] ] ] } },
{ "type": "Feature", "properties": { "ubigeo": "080914", "nombre": "MASHOPO", "categ": null, "poblacion": 27.0, "altitud": 531.0, "provincia": "LA CONVENCION", "distrito": "MEGANTONI", "reg_nat": "RUPA RUPA O SELVA ALTA", "lon_cp": -72.97248998000001, "lat_cp": -11.76448998, "codigo": "0809140027", "local_vot": "IE JUAN SANTOS ATAHUALPA", "tot_vot": 930, "electores": 2945, "v_jxp_p": 199, "v_an_p": 141, "v_fp_p": 74, "v_obras_p": 59, "v_rp_p": 10, "v_jxp_d": 168, "v_jxp_dip": 182, "pref_marq": 13, "pref_juli": 13, "pref_holg": 11, "pref_lopez": 3, "pref_edwin": 1, "pref_jancc": 12, "pref_veran": 9, "pct_jxp_p": 32.46, "pct_an_p": 23.0, "pct_fp_p": 12.07, "pct_obras_": 9.62, "pct_rp_p": 1.63, "pct_jxp_d": 33.2, "pct_jxp_di": 33.7, "particip": 31.58, "pct_marq": 1.4, "pct_julian": 1.4, "pct_holg": 1.18, "pct_lopez": 0.32, "pct_edwin": 0.11, "pct_jancc": 1.29, "pct_veran": 0.97, "dist_m": 10108.875373135234, "pty_gan": "JxP", "area_km2": 137.898, "dens_hab": 0.2 }, "geometry": { "type": "Polygon", "coordinates": [ [ [ -73.054336396580013, -11.750416212372158 ], [ -72.985789854372271, -11.726690681111924 ], [ -72.944644683196429, -11.751035375250975 ], [ -72.910288605061425, -11.78632317209426 ], [ -73.09114225612656, -11.840617010016736 ], [ -73.104893896106077, -11.818495298026043 ], [ -73.054336396580013, -11.750416212372158 ] ] ] } },
{ "type": "Feature", "properties": { "ubigeo": "080914", "nombre": "SENSA", "categ": null, "poblacion": 165.0, "altitud": 295.0, "provincia": "LA CONVENCION", "distrito": "MEGANTONI", "reg_nat": "OMAGUA O SELVA BAJA", "lon_cp": -73.00312139, "lat_cp": -11.38796699, "codigo": "0809140006", "local_vot": "IEI 331 TANGOSHIARI", "tot_vot": 175, "electores": 277, "v_jxp_p": 15, "v_an_p": 60, "v_fp_p": 14, "v_obras_p": 12, "v_rp_p": 0, "v_jxp_d": 14, "v_jxp_dip": 14, "pref_marq": 0, "pref_juli": 0, "pref_holg": 3, "pref_lopez": 0, "pref_edwin": 0, "pref_jancc": 0, "pref_veran": 0, "pct_jxp_p": 13.16, "pct_an_p": 52.63, "pct_fp_p": 12.28, "pct_obras_": 10.53, "pct_rp_p": 0.0, "pct_jxp_d": 11.97, "pct_jxp_di": 12.39, "particip": 63.18, "pct_marq": 0.0, "pct_julian": 0.0, "pct_holg": 1.71, "pct_lopez": 0.0, "pct_edwin": 0.0, "pct_jancc": 0.0, "pct_veran": 0.0, "dist_m": 18715.578382583491, "pty_gan": "AhoraN", "area_km2": 235.241, "dens_hab": 0.7 }, "geometry": { "type": "Polygon", "coordinates": [ [ [ -73.110344335488421, -11.363455890728011 ], [ -73.01513271653026, -11.342708624478329 ], [ -72.969213505895539, -11.34629058173487 ], [ -72.687831505897279, -11.495356998199465 ], [ -72.803037391865374, -11.520304403011467 ], [ -73.074969986941014, -11.393314323444223 ], [ -73.110630944026738, -11.367847128264117 ], [ -73.110344335488421, -11.363455890728011 ] ] ] } },
{ "type": "Feature", "properties": { "ubigeo": "080914", "nombre": "SHINTORONI", "categ": null, "poblacion": 16.0, "altitud": 365.0, "provincia": "LA CONVENCION", "distrito": "MEGANTONI", "reg_nat": "OMAGUA O SELVA BAJA", "lon_cp": -72.99870275000001, "lat_cp": -11.68875744, "codigo": "0809140053", "local_vot": "IE 64449 PRIMARIA NUEVA LUZ", "tot_vot": 423, "electores": 587, "v_jxp_p": 78, "v_an_p": 81, "v_fp_p": 34, "v_obras_p": 19, "v_rp_p": 0, "v_jxp_d": 75, "v_jxp_dip": 72, "pref_marq": 4, "pref_juli": 2, "pref_holg": 5, "pref_lopez": 1, "pref_edwin": 0, "pref_jancc": 1, "pref_veran": 0, "pct_jxp_p": 28.68, "pct_an_p": 29.78, "pct_fp_p": 12.5, "pct_obras_": 6.99, "pct_rp_p": 0.0, "pct_jxp_d": 28.41, "pct_jxp_di": 26.57, "particip": 72.06, "pct_marq": 0.95, "pct_julian": 0.47, "pct_holg": 1.18, "pct_lopez": 0.24, "pct_edwin": 0.0, "pct_jancc": 0.24, "pct_veran": 0.0, "dist_m": 13674.405296799221, "pty_gan": "AhoraN", "area_km2": 210.829, "dens_hab": 0.1 }, "geometry": { "type": "Polygon", "coordinates": [ [ [ -73.012723044328027, -11.572033086668039 ], [ -72.993297957170171, -11.56704139888377 ], [ -72.885709731437032, -11.551489935788451 ], [ -72.91327523603438, -11.605549841910726 ], [ -72.985789854372271, -11.726690681111924 ], [ -73.054336396580013, -11.750416212372158 ], [ -73.033230033193462, -11.595328590561561 ], [ -73.012723044328027, -11.572033086668039 ] ] ] } },
{ "type": "Feature", "properties": { "ubigeo": "080914", "nombre": "PUERTO RICO", "categ": null, "poblacion": 221.0, "altitud": 335.0, "provincia": "LA CONVENCION", "distrito": "MEGANTONI", "reg_nat": "OMAGUA O SELVA BAJA", "lon_cp": -73.02304046, "lat_cp": -11.29655606, "codigo": "0809140005", "local_vot": "IEI 331 TANGOSHIARI", "tot_vot": 175, "electores": 277, "v_jxp_p": 15, "v_an_p": 60, "v_fp_p": 14, "v_obras_p": 12, "v_rp_p": 0, "v_jxp_d": 14, "v_jxp_dip": 14, "pref_marq": 0, "pref_juli": 0, "pref_holg": 3, "pref_lopez": 0, "pref_edwin": 0, "pref_jancc": 0, "pref_veran": 0, "pct_jxp_p": 13.16, "pct_an_p": 52.63, "pct_fp_p": 12.28, "pct_obras_": 10.53, "pct_rp_p": 0.0, "pct_jxp_d": 11.97, "pct_jxp_di": 12.39, "particip": 63.18, "pct_marq": 0.0, "pct_julian": 0.0, "pct_holg": 1.71, "pct_lopez": 0.0, "pct_edwin": 0.0, "pct_jancc": 0.0, "pct_veran": 0.0, "dist_m": 34227.232503095249, "pty_gan": "AhoraN", "area_km2": 96.699, "dens_hab": 2.3 }, "geometry": { "type": "Polygon", "coordinates": [ [ [ -73.01513271653026, -11.342708624478329 ], [ -73.110344335488421, -11.363455890728011 ], [ -73.137721448961742, -11.293723868600994 ], [ -73.131662, -11.2939275 ], [ -73.1240195, -11.2918431 ], [ -73.1116679, -11.2852814 ], [ -73.0834137, -11.2773301 ], [ -73.0790909, -11.2769441 ], [ -73.077624, -11.2774845 ], [ -73.0729922, -11.280032 ], [ -73.0677429, -11.2845866 ], [ -73.0611811, -11.2828884 ], [ -73.0506824, -11.2773301 ], [ -73.0426539, -11.276095 ], [ -73.0413145, -11.275582 ], [ -73.0390256, -11.2713087 ], [ -73.0265089, -11.2640846 ], [ -73.0256196, -11.2621085 ], [ -73.0253726, -11.2569207 ], [ -73.0221089, -11.2478232 ], [ -73.0199304, -11.2448279 ], [ -73.0115796, -11.2385647 ], [ -73.0073134, -11.233754 ], [ -73.000312879234571, -11.222543668560201 ], [ -73.01513271653026, -11.342708624478329 ] ] ] } },
{ "type": "Feature", "properties": { "ubigeo": "080914", "nombre": "NUEVA LUZ", "categ": null, "poblacion": 460.0, "altitud": 338.0, "provincia": "LA CONVENCION", "distrito": "MEGANTONI", "reg_nat": "OMAGUA O SELVA BAJA", "lon_cp": -73.03294855, "lat_cp": -11.45183794, "codigo": "0809140008", "local_vot": "IEI 331 TANGOSHIARI", "tot_vot": 175, "electores": 277, "v_jxp_p": 15, "v_an_p": 60, "v_fp_p": 14, "v_obras_p": 12, "v_rp_p": 0, "v_jxp_d": 14, "v_jxp_dip": 14, "pref_marq": 0, "pref_juli": 0, "pref_holg": 3, "pref_lopez": 0, "pref_edwin": 0, "pref_jancc": 0, "pref_veran": 0, "pct_jxp_p": 13.16, "pct_an_p": 52.63, "pct_fp_p": 12.28, "pct_obras_": 10.53, "pct_rp_p": 0.0, "pct_jxp_d": 11.97, "pct_jxp_di": 12.39, "particip": 63.18, "pct_marq": 0.0, "pct_julian": 0.0, "pct_holg": 1.71, "pct_lopez": 0.0, "pct_edwin": 0.0, "pct_jancc": 0.0, "pct_veran": 0.0, "dist_m": 12587.478793418059, "pty_gan": "AhoraN", "area_km2": 233.802, "dens_hab": 2.0 }, "geometry": { "type": "Polygon", "coordinates": [ [ [ -73.074969986941014, -11.393314323444223 ], [ -72.803037391865374, -11.520304403011467 ], [ -72.885709731437032, -11.551489935788451 ], [ -72.993297957170171, -11.56704139888377 ], [ -73.074969986941014, -11.393314323444223 ] ] ] } },
{ "type": "Feature", "properties": { "ubigeo": "080914", "nombre": "MIARIA", "categ": null, "poblacion": 707.0, "altitud": 323.0, "provincia": "LA CONVENCION", "distrito": "MEGANTONI", "reg_nat": "OMAGUA O SELVA BAJA", "lon_cp": -72.99624857000001, "lat_cp": -11.29986028, "codigo": "0809140003", "local_vot": "IEI 331 TANGOSHIARI", "tot_vot": 175, "electores": 277, "v_jxp_p": 15, "v_an_p": 60, "v_fp_p": 14, "v_obras_p": 12, "v_rp_p": 0, "v_jxp_d": 14, "v_jxp_dip": 14, "pref_marq": 0, "pref_juli": 0, "pref_holg": 3, "pref_lopez": 0, "pref_edwin": 0, "pref_jancc": 0, "pref_veran": 0, "pct_jxp_p": 13.16, "pct_an_p": 52.63, "pct_fp_p": 12.28, "pct_obras_": 10.53, "pct_rp_p": 0.0, "pct_jxp_d": 11.97, "pct_jxp_di": 12.39, "particip": 63.18, "pct_marq": 0.0, "pct_julian": 0.0, "pct_holg": 1.71, "pct_lopez": 0.0, "pct_edwin": 0.0, "pct_jancc": 0.0, "pct_veran": 0.0, "dist_m": 30049.496710988133, "pty_gan": "AhoraN", "area_km2": 34.621, "dens_hab": 20.4 }, "geometry": { "type": "Polygon", "coordinates": [ [ [ -73.01513271653026, -11.342708624478329 ], [ -73.000312879234571, -11.222543668560201 ], [ -72.9989849, -11.2204171 ], [ -72.9896646, -11.1987969 ], [ -72.9889487, -11.185787 ], [ -72.988365660224702, -11.184675818384001 ], [ -72.969213505895539, -11.34629058173487 ], [ -73.01513271653026, -11.342708624478329 ] ] ] } },
{ "type": "Feature", "properties": { "ubigeo": "080914", "nombre": "TOSHIMA", "categ": null, "poblacion": 24.0, "altitud": 412.0, "provincia": "LA CONVENCION", "distrito": "MEGANTONI", "reg_nat": "RUPA RUPA O SELVA ALTA", "lon_cp": -72.93044998000001, "lat_cp": -11.72355998, "codigo": "0809140029", "local_vot": "IE 64449 PRIMARIA NUEVA LUZ", "tot_vot": 423, "electores": 587, "v_jxp_p": 78, "v_an_p": 81, "v_fp_p": 34, "v_obras_p": 19, "v_rp_p": 0, "v_jxp_d": 75, "v_jxp_dip": 72, "pref_marq": 4, "pref_juli": 2, "pref_holg": 5, "pref_lopez": 1, "pref_edwin": 0, "pref_jancc": 1, "pref_veran": 0, "pct_jxp_p": 28.68, "pct_an_p": 29.78, "pct_fp_p": 12.5, "pct_obras_": 6.99, "pct_rp_p": 0.0, "pct_jxp_d": 28.41, "pct_jxp_di": 26.57, "particip": 72.06, "pct_marq": 0.95, "pct_julian": 0.47, "pct_holg": 1.18, "pct_lopez": 0.24, "pct_edwin": 0.0, "pct_jancc": 0.24, "pct_veran": 0.0, "dist_m": 3999.9500640450351, "pty_gan": "AhoraN", "area_km2": 339.91, "dens_hab": 0.1 }, "geometry": { "type": "Polygon", "coordinates": [ [ [ -72.803037391865374, -11.520304403011467 ], [ -72.687831505897279, -11.495356998199465 ], [ -72.681384658365445, -11.49500619539808 ], [ -72.74659144967282, -11.628470643868409 ], [ -72.888342186786133, -11.79008036567947 ], [ -72.910288605061425, -11.78632317209426 ], [ -72.944644683196429, -11.751035375250975 ], [ -72.91327523603438, -11.605549841910726 ], [ -72.885709731437032, -11.551489935788451 ], [ -72.803037391865374, -11.520304403011467 ] ] ] } },
{ "type": "Feature", "properties": { "ubigeo": "080914", "nombre": "VISTA ALEGRE", "categ": null, "poblacion": 126.0, "altitud": 331.0, "provincia": "LA CONVENCION", "distrito": "MEGANTONI", "reg_nat": "OMAGUA O SELVA BAJA", "lon_cp": -72.9537793, "lat_cp": -11.29482746, "codigo": "0809140004", "local_vot": "IE 64450 PUERTO HUALLANA", "tot_vot": 403, "electores": 614, "v_jxp_p": 133, "v_an_p": 22, "v_fp_p": 16, "v_obras_p": 12, "v_rp_p": 10, "v_jxp_d": 116, "v_jxp_dip": 114, "pref_marq": 3, "pref_juli": 5, "pref_holg": 1, "pref_lopez": 0, "pref_edwin": 0, "pref_jancc": 6, "pref_veran": 2, "pct_jxp_p": 44.04, "pct_an_p": 7.28, "pct_fp_p": 5.3, "pct_obras_": 3.97, "pct_rp_p": 3.31, "pct_jxp_d": 40.99, "pct_jxp_di": 41.16, "particip": 65.64, "pct_marq": 0.74, "pct_julian": 1.24, "pct_holg": 0.25, "pct_lopez": 0.0, "pct_edwin": 0.0, "pct_jancc": 1.49, "pct_veran": 0.5, "dist_m": 25304.850829388975, "pty_gan": "JxP", "area_km2": 78.158, "dens_hab": 1.6 }, "geometry": { "type": "MultiPolygon", "coordinates": [ [ [ [ -72.289491048481977, -11.316121081119279 ], [ -72.2894607, -11.3158756 ], [ -72.2904528, -11.3159381 ], [ -72.2905076, -11.3152701 ], [ -72.2868376, -11.3139988 ], [ -72.286798244354117, -11.314891914422008 ], [ -72.289491048481977, -11.316121081119279 ] ] ], [ [ [ -72.508943511433387, -11.416293112312903 ], [ -72.5091688, -11.4158903 ], [ -72.5085533, -11.4140825 ], [ -72.5098132, -11.4133131 ], [ -72.5100151, -11.4115725 ], [ -72.5068223, -11.4088028 ], [ -72.5068801, -11.4066198 ], [ -72.5036296, -11.4092163 ], [ -72.5014081, -11.4090817 ], [ -72.5009561, -11.4071391 ], [ -72.4978675, -11.403021 ], [ -72.5011282, -11.4005717 ], [ -72.5037728, -11.4008271 ], [ -72.5039832, -11.4000758 ], [ -72.4991447, -11.3950871 ], [ -72.4983333, -11.3953425 ], [ -72.4968157, -11.3993246 ], [ -72.4955986, -11.3993397 ], [ -72.4948172, -11.3977318 ], [ -72.4940057, -11.3978821 ], [ -72.4936902, -11.3995651 ], [ -72.4952078, -11.4020743 ], [ -72.4932545, -11.4040728 ], [ -72.4919321, -11.4000007 ], [ -72.4897983, -11.3998805 ], [ -72.489092, -11.4022998 ], [ -72.4880553, -11.402946 ], [ -72.4880402, -11.3989339 ], [ -72.4824053, -11.3981826 ], [ -72.4877097, -11.3934041 ], [ -72.4853506, -11.3928782 ], [ -72.4861168, -11.3899931 ], [ -72.4832318, -11.3893621 ], [ -72.4813085, -11.387619 ], [ -72.4800612, -11.3874837 ], [ -72.4775068, -11.3897227 ], [ -72.4764098, -11.3918413 ], [ -72.4745316, -11.3924123 ], [ -72.4715862, -11.3913756 ], [ -72.4710905, -11.3873035 ], [ -72.4695578, -11.3853201 ], [ -72.4667178, -11.3863718 ], [ -72.4674241, -11.388776 ], [ -72.46505, -11.3906693 ], [ -72.4639831, -11.3897076 ], [ -72.4640131, -11.387634 ], [ -72.4613835, -11.3879045 ], [ -72.4620446, -11.3898578 ], [ -72.4602716, -11.3899781 ], [ -72.4575517, -11.3837872 ], [ -72.4537201, -11.3857407 ], [ -72.4492271, -11.3858308 ], [ -72.4476193, -11.3845836 ], [ -72.4478597, -11.3794747 ], [ -72.4515562, -11.3768901 ], [ -72.4509402, -11.3754026 ], [ -72.4490768, -11.3741703 ], [ -72.4500386, -11.3715407 ], [ -72.4491671, -11.3707745 ], [ -72.4475292, -11.3729382 ], [ -72.4453653, -11.3729983 ], [ -72.4417591, -11.3751621 ], [ -72.4393097, -11.373359 ], [ -72.4356733, -11.3725175 ], [ -72.4345463, -11.3696323 ], [ -72.4368455, -11.3674085 ], [ -72.4362293, -11.3661613 ], [ -72.4258763, -11.3686707 ], [ -72.4253512, -11.3672477 ], [ -72.4275954, -11.3620351 ], [ -72.4270347, -11.3580155 ], [ -72.4242461, -11.3538735 ], [ -72.422581, -11.3536039 ], [ -72.4185316, -11.3564686 ], [ -72.4138337, -11.3506021 ], [ -72.4111354, -11.3508335 ], [ -72.4079329, -11.3561929 ], [ -72.4062216, -11.3570975 ], [ -72.4042275, -11.356785 ], [ -72.4028675, -11.3554843 ], [ -72.4048627, -11.3539268 ], [ -72.4054226, -11.3518336 ], [ -72.403534, -11.3477094 ], [ -72.401689, -11.3470447 ], [ -72.4011005, -11.3435406 ], [ -72.4001692, -11.3426323 ], [ -72.3984915, -11.3426707 ], [ -72.3996858, -11.3444624 ], [ -72.3998594, -11.3464997 ], [ -72.3989314, -11.348351 ], [ -72.3971866, -11.3493468 ], [ -72.3950593, -11.3490185 ], [ -72.395702, -11.3470519 ], [ -72.3944521, -11.3450112 ], [ -72.3968222, -11.3427351 ], [ -72.3944521, -11.3415188 ], [ -72.3886408, -11.3438321 ], [ -72.3884605, -11.3448088 ], [ -72.3902036, -11.34547 ], [ -72.3905191, -11.3464016 ], [ -72.3872885, -11.3477238 ], [ -72.386371, -11.3467897 ], [ -72.3865153, -11.3443425 ], [ -72.3845622, -11.3397623 ], [ -72.3823337, -11.338026 ], [ -72.3805407, -11.3392936 ], [ -72.3796267, -11.3388073 ], [ -72.3824725, -11.335442 ], [ -72.3813572, -11.3340866 ], [ -72.3772146, -11.3324772 ], [ -72.375826, -11.3330982 ], [ -72.3737047, -11.3360612 ], [ -72.3731951, -11.3349987 ], [ -72.3741931, -11.3331295 ], [ -72.3731482, -11.331276 ], [ -72.3721423, -11.3318638 ], [ -72.3717438, -11.3342915 ], [ -72.3691813, -11.3334732 ], [ -72.3687771, -11.3362153 ], [ -72.3673357, -11.3346315 ], [ -72.3612166, -11.3339263 ], [ -72.3583396, -11.3320651 ], [ -72.3577438, -11.3298112 ], [ -72.3558747, -11.3302916 ], [ -72.3540818, -11.3296881 ], [ -72.3505037, -11.326114 ], [ -72.3501385, -11.3236805 ], [ -72.3490622, -11.3225963 ], [ -72.3453766, -11.3237818 ], [ -72.3438357, -11.3235143 ], [ -72.3433396, -11.32511 ], [ -72.3421951, -11.3236002 ], [ -72.3390525, -11.3236805 ], [ -72.3369861, -11.3193697 ], [ -72.3372225, -11.3182252 ], [ -72.3389528, -11.317735 ], [ -72.3384881, -11.3171432 ], [ -72.334742, -11.3167565 ], [ -72.3341618, -11.3158756 ], [ -72.3291524, -11.317577 ], [ -72.329366, -11.3165286 ], [ -72.3286198, -11.3165246 ], [ -72.3265247, -11.3180155 ], [ -72.3228545, -11.316316 ], [ -72.3223476, -11.3173917 ], [ -72.3242527, -11.3193813 ], [ -72.3236217, -11.3210355 ], [ -72.3243736, -11.3221028 ], [ -72.3229282, -11.3222051 ], [ -72.3242089, -11.3241224 ], [ -72.3236212, -11.3248697 ], [ -72.319871, -11.3213485 ], [ -72.3181166, -11.3218033 ], [ -72.317166, -11.3210146 ], [ -72.3151951, -11.3218383 ], [ -72.3140583, -11.3202545 ], [ -72.3174997, -11.3196726 ], [ -72.314699, -11.3161432 ], [ -72.3148747, -11.3141101 ], [ -72.3130603, -11.3126863 ], [ -72.3128298, -11.3135769 ], [ -72.3120368, -11.3131277 ], [ -72.3116716, -11.3120847 ], [ -72.31241, -11.3108093 ], [ -72.3092302, -11.3089538 ], [ -72.3079021, -11.3070632 ], [ -72.3056365, -11.3075397 ], [ -72.3039646, -11.3098816 ], [ -72.3012947, -11.3093523 ], [ -72.3012947, -11.3120261 ], [ -72.2982887, -11.3136082 ], [ -72.2965193, -11.3135281 ], [ -72.2945741, -11.3171863 ], [ -72.2919177, -11.3164126 ], [ -72.291299084764177, -11.316946383621806 ], [ -72.508943511433387, -11.416293112312903 ] ] ], [ [ [ -72.519076172083686, -11.42091830168232 ], [ -72.5179491, -11.4177466 ], [ -72.5154583, -11.4170157 ], [ -72.5136022, -11.4179485 ], [ -72.513450465622668, -11.418350372229535 ], [ -72.519076172083686, -11.42091830168232 ] ] ], [ [ [ -72.537079830677044, -11.429136314029773 ], [ -72.5356441, -11.425767 ], [ -72.5338842, -11.4249015 ], [ -72.5318551, -11.4262863 ], [ -72.531816045916401, -11.426733588609659 ], [ -72.537079830677044, -11.429136314029773 ] ] ], [ [ [ -72.546738111984098, -11.433544966561417 ], [ -72.5454535, -11.4328355 ], [ -72.545273370991993, -11.432876365815822 ], [ -72.546738111984098, -11.433544966561417 ] ] ], [ [ [ -72.681384658365445, -11.49500619539808 ], [ -72.687831505897279, -11.495356998199465 ], [ -72.969213505895539, -11.34629058173487 ], [ -72.988365660224702, -11.184675818384001 ], [ -72.98767, -11.18335 ], [ -72.9848109, -11.1844799 ], [ -72.9793377, -11.193562 ], [ -72.9770616, -11.2122935 ], [ -72.9734927, -11.2143989 ], [ -72.9678866, -11.2158207 ], [ -72.9661805, -11.2173237 ], [ -72.9667492, -11.2186237 ], [ -72.9703241, -11.2191519 ], [ -72.972924, -11.2204517 ], [ -72.9754832, -11.2243516 ], [ -72.9742241, -11.2506757 ], [ -72.9736146, -11.2516101 ], [ -72.9696766, -11.251228 ], [ -72.9684446, -11.2526437 ], [ -72.9673107, -11.2584981 ], [ -72.9685836, -11.2641212 ], [ -72.9679355, -11.266227 ], [ -72.9655056, -11.2684252 ], [ -72.9632381, -11.2689806 ], [ -72.9619422, -11.2680781 ], [ -72.9614331, -11.2651625 ], [ -72.9601374, -11.2639824 ], [ -72.9579852, -11.2630105 ], [ -72.9558795, -11.2633807 ], [ -72.9552779, -11.2650005 ], [ -72.9570597, -11.2709706 ], [ -72.9562729, -11.2728681 ], [ -72.9535655, -11.2747194 ], [ -72.9455137, -11.2746857 ], [ -72.9447491, -11.2767557 ], [ -72.9452582, -11.2790002 ], [ -72.9409079, -11.2805737 ], [ -72.9391261, -11.2820779 ], [ -72.9396815, -11.2858497 ], [ -72.935632, -11.2908249 ], [ -72.9370899, -11.2927455 ], [ -72.9445177, -11.2953602 ], [ -72.9506267, -11.2929306 ], [ -72.952825, -11.2932777 ], [ -72.9518189, -11.2986061 ], [ -72.9555293, -11.3024557 ], [ -72.9557825, -11.3041367 ], [ -72.9551854, -11.3050791 ], [ -72.9493487, -11.3039662 ], [ -72.9452814, -11.3054494 ], [ -72.9407922, -11.3055882 ], [ -72.9377873, -11.3049716 ], [ -72.9365588, -11.3034275 ], [ -72.9354304, -11.3033098 ], [ -72.9334569, -11.3044796 ], [ -72.9327773, -11.3065518 ], [ -72.933332, -11.3117795 ], [ -72.9374987, -11.3142583 ], [ -72.9378803, -11.3151821 ], [ -72.9365112, -11.3190326 ], [ -72.9370665, -11.3208375 ], [ -72.9404451, -11.3226887 ], [ -72.9425046, -11.3219945 ], [ -72.9459525, -11.3158624 ], [ -72.9455822, -11.3146822 ], [ -72.9421806, -11.313317 ], [ -72.9422269, -11.3120442 ], [ -72.9438236, -11.31017 ], [ -72.950973, -11.3107752 ], [ -72.9552844, -11.3134013 ], [ -72.9595978, -11.3130629 ], [ -72.9607852, -11.3170656 ], [ -72.9598827, -11.3193102 ], [ -72.9584712, -11.3199602 ], [ -72.9533231, -11.3195163 ], [ -72.9514728, -11.321414 ], [ -72.9512658, -11.3239509 ], [ -72.9530838, -11.3280529 ], [ -72.959496, -11.3264794 ], [ -72.9649001, -11.3294985 ], [ -72.9649732, -11.3316117 ], [ -72.9624345, -11.334373 ], [ -72.9590617, -11.3347251 ], [ -72.9519086, -11.3306296 ], [ -72.9495181, -11.3304999 ], [ -72.948258, -11.332316 ], [ -72.9495922, -11.3369489 ], [ -72.9490362, -11.3386537 ], [ -72.944737, -11.3399139 ], [ -72.9396595, -11.3378939 ], [ -72.9377542, -11.3318785 ], [ -72.9318184, -11.3308171 ], [ -72.9258536, -11.3273125 ], [ -72.9243526, -11.3274052 ], [ -72.9212209, -11.3306481 ], [ -72.920739, -11.3328534 ], [ -72.921332, -11.3352254 ], [ -72.9238926, -11.3375409 ], [ -72.9342542, -11.3434361 ], [ -72.9350945, -11.3459508 ], [ -72.9338516, -11.3500519 ], [ -72.9288357, -11.3511167 ], [ -72.9231368, -11.3550569 ], [ -72.9211968, -11.3553397 ], [ -72.9205407, -11.353289 ], [ -72.9260115, -11.3497455 ], [ -72.9268109, -11.3465024 ], [ -72.9251693, -11.3444865 ], [ -72.9215188, -11.3428131 ], [ -72.9146031, -11.3461348 ], [ -72.9109399, -11.3514274 ], [ -72.9044262, -11.3515719 ], [ -72.9013737, -11.3532564 ], [ -72.897019, -11.3579261 ], [ -72.8946839, -11.3582599 ], [ -72.8916447, -11.3540902 ], [ -72.8950665, -11.3484668 ], [ -72.8951472, -11.3459921 ], [ -72.8934052, -11.3435645 ], [ -72.8903661, -11.3431754 ], [ -72.8885315, -11.345566 ], [ -72.8903476, -11.35094 ], [ -72.8892191, -11.3549638 ], [ -72.8850106, -11.3576112 ], [ -72.8822015, -11.3560046 ], [ -72.8822104, -11.352232 ], [ -72.8803834, -11.3520603 ], [ -72.8788129, -11.3530986 ], [ -72.8767807, -11.3559468 ], [ -72.8773207, -11.3584637 ], [ -72.8791112, -11.3613529 ], [ -72.8789536, -11.3627289 ], [ -72.8776, -11.3642105 ], [ -72.876163, -11.3648575 ], [ -72.8742871, -11.3642493 ], [ -72.8707811, -11.3572293 ], [ -72.8686078, -11.3557824 ], [ -72.8616925, -11.3547571 ], [ -72.8593606, -11.3554947 ], [ -72.856767, -11.3578266 ], [ -72.85434, -11.3639656 ], [ -72.8530551, -11.3653457 ], [ -72.8481057, -11.3625142 ], [ -72.846107, -11.3623476 ], [ -72.8446317, -11.363347 ], [ -72.8442511, -11.3667733 ], [ -72.8457501, -11.3714847 ], [ -72.8451076, -11.3730313 ], [ -72.8438941, -11.373555 ], [ -72.8415385, -11.3710087 ], [ -72.8389686, -11.3704853 ], [ -72.8358909, -11.3726231 ], [ -72.8338961, -11.3760209 ], [ -72.8336862, -11.3787182 ], [ -72.8351853, -11.3804075 ], [ -72.8401583, -11.380146 ], [ -72.8422761, -11.380836 ], [ -72.8440131, -11.385 ], [ -72.8426568, -11.3869036 ], [ -72.8394587, -11.387578 ], [ -72.8346391, -11.3862151 ], [ -72.8310495, -11.3880598 ], [ -72.8264458, -11.3880598 ], [ -72.8228727, -11.389672 ], [ -72.8210778, -11.3892897 ], [ -72.8200142, -11.387578 ], [ -72.8205793, -11.3861155 ], [ -72.8236206, -11.3837222 ], [ -72.823471, -11.3802322 ], [ -72.8217592, -11.3779887 ], [ -72.8163912, -11.3751467 ], [ -72.8145133, -11.3760941 ], [ -72.814613, -11.3789692 ], [ -72.8139482, -11.3800328 ], [ -72.8072673, -11.376493 ], [ -72.8055057, -11.376709 ], [ -72.8040931, -11.3837887 ], [ -72.8020822, -11.3856501 ], [ -72.801035, -11.3855 ], [ -72.7982345, -11.3762024 ], [ -72.7957622, -11.3730873 ], [ -72.796865, -11.3700401 ], [ -72.8013687, -11.3675201 ], [ -72.8005915, -11.3654895 ], [ -72.7985576, -11.3644921 ], [ -72.7946487, -11.3635055 ], [ -72.7926202, -11.3640329 ], [ -72.7907108, -11.3657909 ], [ -72.7901209, -11.368742 ], [ -72.7905333, -11.3733656 ], [ -72.7934624, -11.3766786 ], [ -72.7972617, -11.3787164 ], [ -72.7978999, -11.3801348 ], [ -72.7980881, -11.3833868 ], [ -72.7965389, -11.3845259 ], [ -72.7949906, -11.3837396 ], [ -72.787985, -11.3755495 ], [ -72.7858186, -11.3747003 ], [ -72.777436, -11.3757783 ], [ -72.7710708, -11.3746482 ], [ -72.7635423, -11.3716733 ], [ -72.7576092, -11.3628153 ], [ -72.749765, -11.3590761 ], [ -72.7440813, -11.3540903 ], [ -72.7384307, -11.3474925 ], [ -72.7338272, -11.3521625 ], [ -72.728559, -11.3512816 ], [ -72.7268971, -11.349786 ], [ -72.7234568, -11.3508162 ], [ -72.7219113, -11.3549545 ], [ -72.7228918, -11.3602627 ], [ -72.720964, -11.3619745 ], [ -72.7178728, -11.3621738 ], [ -72.716643, -11.3605785 ], [ -72.7164602, -11.356889 ], [ -72.7184877, -11.3503742 ], [ -72.7143663, -11.3474658 ], [ -72.7125713, -11.3474161 ], [ -72.7092641, -11.3496097 ], [ -72.7074526, -11.3522688 ], [ -72.7077351, -11.3544792 ], [ -72.7095632, -11.35654 ], [ -72.7139841, -11.3580357 ], [ -72.7148481, -11.3593153 ], [ -72.7129868, -11.3671596 ], [ -72.7099787, -11.3721786 ], [ -72.7099287, -11.3788761 ], [ -72.7067545, -11.3815685 ], [ -72.7004393, -11.3797902 ], [ -72.6988106, -11.3804716 ], [ -72.696002, -11.3850086 ], [ -72.6925287, -11.388316 ], [ -72.6924953, -11.3957612 ], [ -72.688806, -11.3968914 ], [ -72.6845182, -11.3940992 ], [ -72.6810447, -11.389712 ], [ -72.6791835, -11.3885152 ], [ -72.6743971, -11.3872855 ], [ -72.671306, -11.388964 ], [ -72.6681151, -11.3861221 ], [ -72.6658881, -11.3859725 ], [ -72.6641597, -11.3883491 ], [ -72.6647413, -11.3938832 ], [ -72.6642097, -11.3950467 ], [ -72.6587751, -11.3969744 ], [ -72.6526093, -11.396077 ], [ -72.6505153, -11.3983704 ], [ -72.6505153, -11.3994009 ], [ -72.6528088, -11.4017108 ], [ -72.6527756, -11.4027412 ], [ -72.6521108, -11.4042868 ], [ -72.6487537, -11.4052341 ], [ -72.6485211, -11.4083585 ], [ -72.6469588, -11.4094553 ], [ -72.6457622, -11.412829 ], [ -72.6432527, -11.4130785 ], [ -72.6400287, -11.406331 ], [ -72.6344113, -11.4051178 ], [ -72.6323173, -11.406464 ], [ -72.6315695, -11.4084748 ], [ -72.6317357, -11.411001 ], [ -72.6331483, -11.4142916 ], [ -72.6320847, -11.4157375 ], [ -72.6278635, -11.4166016 ], [ -72.6233097, -11.412879 ], [ -72.6220467, -11.4134938 ], [ -72.6199527, -11.416718 ], [ -72.6173601, -11.4178481 ], [ -72.6184736, -11.4201248 ], [ -72.6242237, -11.4228837 ], [ -72.624523, -11.4256757 ], [ -72.6162466, -11.4283182 ], [ -72.6101806, -11.4283015 ], [ -72.6077043, -11.4293153 ], [ -72.6077875, -11.4307943 ], [ -72.610081, -11.4332042 ], [ -72.6110282, -11.4377911 ], [ -72.61038, -11.4395361 ], [ -72.6088843, -11.4402008 ], [ -72.6034001, -11.4326723 ], [ -72.603317, -11.428983 ], [ -72.6049788, -11.4230997 ], [ -72.6038653, -11.4207398 ], [ -72.6013392, -11.4184962 ], [ -72.595855, -11.4206235 ], [ -72.5946085, -11.42767 ], [ -72.5912348, -11.4321572 ], [ -72.5937436, -11.4340159 ], [ -72.596311, -11.4343272 ], [ -72.5974745, -11.4361737 ], [ -72.5968853, -11.4394031 ], [ -72.5943093, -11.4408988 ], [ -72.5914841, -11.4393865 ], [ -72.5913006, -11.4343408 ], [ -72.5903576, -11.4328585 ], [ -72.5814757, -11.430392 ], [ -72.5798354, -11.4304591 ], [ -72.5787856, -11.4327059 ], [ -72.5799214, -11.434819 ], [ -72.5835268, -11.4370226 ], [ -72.5829722, -11.4385642 ], [ -72.5762803, -11.4385067 ], [ -72.5714756, -11.4345779 ], [ -72.5685178, -11.4335877 ], [ -72.5674206, -11.4313224 ], [ -72.5658988, -11.4314256 ], [ -72.5603595, -11.4355762 ], [ -72.5582822, -11.434932 ], [ -72.5567436, -11.4326912 ], [ -72.5538585, -11.432143 ], [ -72.5518965, -11.4337201 ], [ -72.552013573837584, -11.435953022147769 ], [ -72.681384658365445, -11.49500619539808 ] ] ] ] } },
{ "type": "Feature", "properties": { "ubigeo": "080914", "nombre": "CAMISEA", "categ": null, "poblacion": 440.0, "altitud": 513.0, "provincia": "LA CONVENCION", "distrito": "MEGANTONI", "reg_nat": "RUPA RUPA O SELVA ALTA", "lon_cp": -72.9462561, "lat_cp": -11.72015188, "codigo": "0809140001", "local_vot": "IE 64449 PRIMARIA NUEVA LUZ", "tot_vot": 423, "electores": 587, "v_jxp_p": 78, "v_an_p": 81, "v_fp_p": 34, "v_obras_p": 19, "v_rp_p": 0, "v_jxp_d": 75, "v_jxp_dip": 72, "pref_marq": 4, "pref_juli": 2, "pref_holg": 5, "pref_lopez": 1, "pref_edwin": 0, "pref_jancc": 1, "pref_veran": 0, "pct_jxp_p": 28.68, "pct_an_p": 29.78, "pct_fp_p": 12.5, "pct_obras_": 6.99, "pct_rp_p": 0.0, "pct_jxp_d": 28.41, "pct_jxp_di": 26.57, "particip": 72.06, "pct_marq": 0.95, "pct_julian": 0.47, "pct_holg": 1.18, "pct_lopez": 0.24, "pct_edwin": 0.0, "pct_jancc": 0.24, "pct_veran": 0.0, "dist_m": 8509.5347191621804, "pty_gan": "AhoraN", "area_km2": 40.715, "dens_hab": 10.8 }, "geometry": { "type": "Polygon", "coordinates": [ [ [ -72.91327523603438, -11.605549841910726 ], [ -72.944644683196429, -11.751035375250975 ], [ -72.985789854372271, -11.726690681111924 ], [ -72.91327523603438, -11.605549841910726 ] ] ] } },
{ "type": "Feature", "properties": { "ubigeo": "080914", "nombre": "KOVANTIARI", "categ": null, "poblacion": 18.0, "altitud": 414.0, "provincia": "LA CONVENCION", "distrito": "MEGANTONI", "reg_nat": "RUPA RUPA O SELVA ALTA", "lon_cp": -72.70860359, "lat_cp": -11.83194758, "codigo": "0809140057", "local_vot": "IEI 373 SHIVANKORENI", "tot_vot": 180, "electores": 202, "v_jxp_p": 16, "v_an_p": 55, "v_fp_p": 11, "v_obras_p": 0, "v_rp_p": 0, "v_jxp_d": 13, "v_jxp_dip": 16, "pref_marq": 1, "pref_juli": 0, "pref_holg": 2, "pref_lopez": 0, "pref_edwin": 0, "pref_jancc": 0, "pref_veran": 2, "pct_jxp_p": 15.69, "pct_an_p": 53.92, "pct_fp_p": 10.78, "pct_obras_": 0.0, "pct_rp_p": 0.0, "pct_jxp_d": 14.13, "pct_jxp_di": 17.58, "particip": 89.11, "pct_marq": 0.56, "pct_julian": 0.0, "pct_holg": 1.11, "pct_lopez": 0.0, "pct_edwin": 0.0, "pct_jancc": 0.0, "pct_veran": 1.11, "dist_m": 6199.5768448265117, "pty_gan": "AhoraN", "area_km2": 183.462, "dens_hab": 0.1 }, "geometry": { "type": "Polygon", "coordinates": [ [ [ -72.771592999122362, -11.936468115099958 ], [ -72.74659144967282, -11.628470643868409 ], [ -72.681384658365445, -11.49500619539808 ], [ -72.552013573837584, -11.435953022147769 ], [ -72.5523871, -11.4430772 ], [ -72.5498867, -11.4472031 ], [ -72.5473191, -11.4483763 ], [ -72.5463188, -11.4469722 ], [ -72.5461651, -11.4441352 ], [ -72.548425, -11.4408558 ], [ -72.5490405, -11.4369515 ], [ -72.546738111984098, -11.433544966561417 ], [ -72.545273370991993, -11.432876365815822 ], [ -72.5365096, -11.4348646 ], [ -72.537079830677044, -11.429136314029773 ], [ -72.531816045916401, -11.426733588609659 ], [ -72.5315377, -11.4299215 ], [ -72.5328552, -11.4336432 ], [ -72.5352787, -11.4351436 ], [ -72.534394, -11.4385767 ], [ -72.5325571, -11.4394903 ], [ -72.5302875, -11.4376533 ], [ -72.5278256, -11.4391826 ], [ -72.525508, -11.4393076 ], [ -72.524854, -11.4376342 ], [ -72.5264216, -11.434278 ], [ -72.5242192, -11.4311043 ], [ -72.5186607, -11.4327681 ], [ -72.517324, -11.4324123 ], [ -72.51617, -11.4307871 ], [ -72.5191896, -11.4212375 ], [ -72.519076172083686, -11.42091830168232 ], [ -72.513450465622668, -11.418350372229535 ], [ -72.5125347, -11.4207758 ], [ -72.5131887, -11.4240745 ], [ -72.5120347, -11.4250938 ], [ -72.5103035, -11.4243148 ], [ -72.5073801, -11.4207758 ], [ -72.5072647, -11.4192948 ], [ -72.508943511433387, -11.416293112312903 ], [ -72.291299084764177, -11.316946383621806 ], [ -72.2909646, -11.317235 ], [ -72.2895993, -11.3169967 ], [ -72.289491048481977, -11.316121081119279 ], [ -72.286798244354117, -11.314891914422008 ], [ -72.2866931, -11.317278 ], [ -72.2839451, -11.3169537 ], [ -72.2835193, -11.3180065 ], [ -72.2842361, -11.3206882 ], [ -72.2829157, -11.3234402 ], [ -72.2807028, -11.323737 ], [ -72.280283, -11.325692 ], [ -72.2831521, -11.3305338 ], [ -72.2818318, -11.3311725 ], [ -72.2818865, -11.3324557 ], [ -72.2807556, -11.3340357 ], [ -72.2828396, -11.3363405 ], [ -72.2802907, -11.337067 ], [ -72.2802537, -11.3396686 ], [ -72.2780173, -11.3382838 ], [ -72.2735857, -11.3379262 ], [ -72.2737301, -11.3394107 ], [ -72.2722107, -11.3392155 ], [ -72.2713181, -11.3399478 ], [ -72.2704568, -11.3382135 ], [ -72.2688475, -11.3382076 ], [ -72.2685115, -11.3370026 ], [ -72.2670153, -11.3373697 ], [ -72.2650172, -11.3361588 ], [ -72.2614763, -11.337237 ], [ -72.2614685, -11.3343737 ], [ -72.2590818, -11.3347467 ], [ -72.2591951, -11.3334576 ], [ -72.2577693, -11.3322975 ], [ -72.257365, -11.329944 ], [ -72.2526267, -11.3303697 ], [ -72.2489275, -11.3335513 ], [ -72.250406, -11.3406471 ], [ -72.2480183, -11.3449028 ], [ -72.2462142, -11.3462237 ], [ -72.2412862, -11.3447008 ], [ -72.2394515, -11.3451241 ], [ -72.2392055, -11.3459532 ], [ -72.2456239, -11.3780967 ], [ -72.2478945, -11.3850059 ], [ -72.2511817, -11.3892324 ], [ -72.2573149, -11.3935049 ], [ -72.2619319, -11.3943317 ], [ -72.2666866, -11.396468 ], [ -72.2708214, -11.4001891 ], [ -72.2785584, -11.4124774 ], [ -72.2814085, -11.4210279 ], [ -72.2858339, -11.422528 ], [ -72.2874089, -11.4242531 ], [ -72.2883329, -11.4300476 ], [ -72.2925507, -11.4332731 ], [ -72.2931462, -11.4419569 ], [ -72.2896727, -11.4440905 ], [ -72.2913599, -11.4460257 ], [ -72.2923522, -11.4509382 ], [ -72.2874567, -11.466648 ], [ -72.2896277, -11.4828525 ], [ -72.2905581, -11.4843256 ], [ -72.2944347, -11.4859539 ], [ -72.2959386, -11.4901479 ], [ -72.3016634, -11.4936794 ], [ -72.3041735, -11.4971142 ], [ -72.2994175, -11.50154 ], [ -72.2980304, -11.5041161 ], [ -72.3037771, -11.509797 ], [ -72.3052964, -11.5130997 ], [ -72.3050322, -11.5256502 ], [ -72.303579, -11.5306044 ], [ -72.3081367, -11.5406449 ], [ -72.3093919, -11.5510816 ], [ -72.3130249, -11.5615184 ], [ -72.3126286, -11.5654156 ], [ -72.3062212, -11.5724176 ], [ -72.3062487, -11.5753166 ], [ -72.3082806, -11.5777257 ], [ -72.3090644, -11.580193 ], [ -72.3078945, -11.5875371 ], [ -72.3115315, -11.5880591 ], [ -72.3134472, -11.5893652 ], [ -72.3151599, -11.5925291 ], [ -72.3160886, -11.5965057 ], [ -72.3190202, -11.5977539 ], [ -72.3232001, -11.6027172 ], [ -72.3254931, -11.603443 ], [ -72.3287622, -11.6083665 ], [ -72.3354337, -11.611691 ], [ -72.3431891, -11.6143667 ], [ -72.3454569, -11.6166799 ], [ -72.348042, -11.617859 ], [ -72.3509446, -11.6218049 ], [ -72.3526226, -11.6286531 ], [ -72.3556231, -11.6350254 ], [ -72.3591535, -11.6346397 ], [ -72.3626912, -11.6324629 ], [ -72.3666822, -11.631737 ], [ -72.3696302, -11.6302859 ], [ -72.3756424, -11.6331737 ], [ -72.3742241, -11.637399 ], [ -72.3742832, -11.642038 ], [ -72.3753174, -11.6441655 ], [ -72.3810681, -11.6492809 ], [ -72.3903017, -11.6506842 ], [ -72.3895261, -11.6553012 ], [ -72.3874399, -11.659287 ], [ -72.3877102, -11.6604592 ], [ -72.3955554, -11.6700176 ], [ -72.3970882, -11.6711897 ], [ -72.4017772, -11.6724521 ], [ -72.4052939, -11.6747966 ], [ -72.4064661, -11.6775019 ], [ -72.4080892, -11.6876011 ], [ -72.410073, -11.6930114 ], [ -72.4148521, -11.6988726 ], [ -72.4169261, -11.7002252 ], [ -72.4266647, -11.7037419 ], [ -72.4281976, -11.7051846 ], [ -72.4287387, -11.7089719 ], [ -72.4270254, -11.7213255 ], [ -72.4245907, -11.7270965 ], [ -72.4250645, -11.7331692 ], [ -72.4235617, -11.7352354 ], [ -72.4233269, -11.7378184 ], [ -72.4131362, -11.7460366 ], [ -72.3974512, -11.7548184 ], [ -72.3912992, -11.7609234 ], [ -72.3850065, -11.7617215 ], [ -72.3856346, -11.766682 ], [ -72.3827582, -11.770615 ], [ -72.3821856, -11.7749101 ], [ -72.376696, -11.777451 ], [ -72.370768, -11.7849674 ], [ -72.3704761, -11.7874192 ], [ -72.3745322, -11.794684 ], [ -72.3797386, -11.7992245 ], [ -72.3875482, -11.8018276 ], [ -72.390999, -11.8066102 ], [ -72.391786, -11.8095161 ], [ -72.3901515, -11.8145409 ], [ -72.3930574, -11.8181127 ], [ -72.3907569, -11.8275569 ], [ -72.3748955, -11.83464 ], [ -72.3688416, -11.8356691 ], [ -72.365633, -11.8378485 ], [ -72.3652697, -11.8413599 ], [ -72.3597001, -11.8465057 ], [ -72.3529197, -11.847777 ], [ -72.344081, -11.8528622 ], [ -72.3387544, -11.8545846 ], [ -72.3332716, -11.8551782 ], [ -72.3318397, -11.8560862 ], [ -72.3348305, -11.8657749 ], [ -72.3356746, -11.8666792 ], [ -72.3402565, -11.8680056 ], [ -72.3412211, -11.8692115 ], [ -72.3419447, -11.8708995 ], [ -72.3421256, -11.8792797 ], [ -72.3462182, -11.8862884 ], [ -72.3475142, -11.8912675 ], [ -72.3446495, -11.9032039 ], [ -72.3473096, -11.9093425 ], [ -72.3469004, -11.915686 ], [ -72.3382665, -11.9242127 ], [ -72.3368215, -11.9373366 ], [ -72.3384209, -11.948978 ], [ -72.3376215, -11.9529721 ], [ -72.3408876, -11.96163 ], [ -72.3404897, -11.9657677 ], [ -72.337466, -11.9680752 ], [ -72.329111, -11.9703032 ], [ -72.3213925, -11.9710195 ], [ -72.3118439, -11.974441 ], [ -72.2862217, -11.9753164 ], [ -72.282368, -11.9794757 ], [ -72.2828172, -11.9832941 ], [ -72.2813947, -11.9883851 ], [ -72.2824427, -11.9933265 ], [ -72.2815445, -11.9957972 ], [ -72.2667869, -12.0023781 ], [ -72.2636769, -12.0047364 ], [ -72.2590332, -12.0059257 ], [ -72.2650961, -12.0121712 ], [ -72.2696002, -12.0228365 ], [ -72.2708946, -12.0299544 ], [ -72.2691236, -12.0334766 ], [ -72.2690056, -12.0354836 ], [ -72.2724854, -12.047382 ], [ -72.2701009, -12.0532907 ], [ -72.2769244, -12.0561047 ], [ -72.2801363, -12.0561374 ], [ -72.2811314, -12.0579736 ], [ -72.2802329, -12.0631225 ], [ -72.2868204, -12.0806592 ], [ -72.2879255, -12.0889734 ], [ -72.2872281, -12.0906414 ], [ -72.2905715, -12.0988249 ], [ -72.2945881, -12.0973555 ], [ -72.3003388, -12.097088 ], [ -72.3064381, -12.0951367 ], [ -72.308242686775259, -12.095581115502927 ], [ -72.771592999122362, -11.936468115099958 ] ] ] } },
{ "type": "Feature", "properties": { "ubigeo": "080914", "nombre": "MALVINAS", "categ": null, "poblacion": 841.0, "altitud": 396.0, "provincia": "LA CONVENCION", "distrito": "MEGANTONI", "reg_nat": "OMAGUA O SELVA BAJA", "lon_cp": -72.95017983, "lat_cp": -11.83880545, "codigo": "0809140041", "local_vot": "IE JUAN SANTOS ATAHUALPA", "tot_vot": 930, "electores": 2945, "v_jxp_p": 199, "v_an_p": 141, "v_fp_p": 74, "v_obras_p": 59, "v_rp_p": 10, "v_jxp_d": 168, "v_jxp_dip": 182, "pref_marq": 13, "pref_juli": 13, "pref_holg": 11, "pref_lopez": 3, "pref_edwin": 1, "pref_jancc": 12, "pref_veran": 9, "pct_jxp_p": 32.46, "pct_an_p": 23.0, "pct_fp_p": 12.07, "pct_obras_": 9.62, "pct_rp_p": 1.63, "pct_jxp_d": 33.2, "pct_jxp_di": 33.7, "particip": 31.58, "pct_marq": 1.4, "pct_julian": 1.4, "pct_holg": 1.18, "pct_lopez": 0.32, "pct_edwin": 0.11, "pct_jancc": 1.29, "pct_veran": 0.97, "dist_m": 4577.7550517158734, "pty_gan": "JxP", "area_km2": 204.607, "dens_hab": 4.1 }, "geometry": { "type": "Polygon", "coordinates": [ [ [ -72.888342186786133, -11.79008036567947 ], [ -72.878196331462149, -11.876492077824798 ], [ -73.071441814401339, -11.909809756388704 ], [ -73.09114225612656, -11.840617010016736 ], [ -72.910288605061425, -11.78632317209426 ], [ -72.888342186786133, -11.79008036567947 ] ] ] } },
{ "type": "Feature", "properties": { "ubigeo": "080914", "nombre": "TIMPIA (MISION)", "categ": null, "poblacion": 476.0, "altitud": 458.0, "provincia": "LA CONVENCION", "distrito": "MEGANTONI", "reg_nat": "RUPA RUPA O SELVA ALTA", "lon_cp": -72.82177078, "lat_cp": -12.07963076, "codigo": "0809140046", "local_vot": "IE 64553 TICUMPINIA", "tot_vot": 282, "electores": 350, "v_jxp_p": 44, "v_an_p": 37, "v_fp_p": 14, "v_obras_p": 7, "v_rp_p": 2, "v_jxp_d": 33, "v_jxp_dip": 34, "pref_marq": 2, "pref_juli": 1, "pref_holg": 0, "pref_lopez": 0, "pref_edwin": 0, "pref_jancc": 1, "pref_veran": 3, "pct_jxp_p": 29.93, "pct_an_p": 25.17, "pct_fp_p": 9.52, "pct_obras_": 4.76, "pct_rp_p": 1.36, "pct_jxp_d": 29.73, "pct_jxp_di": 30.36, "particip": 80.57, "pct_marq": 0.71, "pct_julian": 0.35, "pct_holg": 0.0, "pct_lopez": 0.0, "pct_edwin": 0.0, "pct_jancc": 0.35, "pct_veran": 1.06, "dist_m": 11757.802893062868, "pty_gan": "JxP", "area_km2": 191.14, "dens_hab": 2.5 }, "geometry": { "type": "Polygon", "coordinates": [ [ [ -72.99496440159156, -12.099165963223063 ], [ -72.853137176313723, -11.988851847558477 ], [ -72.764126605093011, -12.133190115179685 ], [ -72.890189166853602, -12.122156804346387 ], [ -72.99496440159156, -12.099165963223063 ] ] ] } },
{ "type": "Feature", "properties": { "ubigeo": "080914", "nombre": "TICUMPINIA CHOCORIARI", "categ": null, "poblacion": 292.0, "altitud": 428.0, "provincia": "LA CONVENCION", "distrito": "MEGANTONI", "reg_nat": "RUPA RUPA O SELVA ALTA", "lon_cp": -72.93340381, "lat_cp": -11.93610785, "codigo": "0809140042", "local_vot": "IE JUAN SANTOS ATAHUALPA", "tot_vot": 930, "electores": 2945, "v_jxp_p": 199, "v_an_p": 141, "v_fp_p": 74, "v_obras_p": 59, "v_rp_p": 10, "v_jxp_d": 168, "v_jxp_dip": 182, "pref_marq": 13, "pref_juli": 13, "pref_holg": 11, "pref_lopez": 3, "pref_edwin": 1, "pref_jancc": 12, "pref_veran": 9, "pct_jxp_p": 32.46, "pct_an_p": 23.0, "pct_fp_p": 12.07, "pct_obras_": 9.62, "pct_rp_p": 1.63, "pct_jxp_d": 33.2, "pct_jxp_di": 33.7, "particip": 31.58, "pct_marq": 1.4, "pct_julian": 1.4, "pct_holg": 1.18, "pct_lopez": 0.32, "pct_edwin": 0.11, "pct_jancc": 1.29, "pct_veran": 0.97, "dist_m": 12536.54654002902, "pty_gan": "JxP", "area_km2": 465.343, "dens_hab": 0.6 }, "geometry": { "type": "Polygon", "coordinates": [ [ [ -72.878196331462149, -11.876492077824798 ], [ -72.814576067181548, -11.942113377061304 ], [ -72.853137176313723, -11.988851847558477 ], [ -72.99496440159156, -12.099165963223063 ], [ -73.089605004761765, -12.131872207664843 ], [ -73.071441814401339, -11.909809756388704 ], [ -72.878196331462149, -11.876492077824798 ] ] ] } },
{ "type": "Feature", "properties": { "ubigeo": "080914", "nombre": "CASHIRIARI", "categ": null, "poblacion": 103.0, "altitud": 405.0, "provincia": "LA CONVENCION", "distrito": "MEGANTONI", "reg_nat": "RUPA RUPA O SELVA ALTA", "lon_cp": -72.8169, "lat_cp": -11.82315667, "codigo": "0809140033", "local_vot": "IEI 373 SHIVANKORENI", "tot_vot": 180, "electores": 202, "v_jxp_p": 16, "v_an_p": 55, "v_fp_p": 11, "v_obras_p": 0, "v_rp_p": 0, "v_jxp_d": 13, "v_jxp_dip": 16, "pref_marq": 1, "pref_juli": 0, "pref_holg": 2, "pref_lopez": 0, "pref_edwin": 0, "pref_jancc": 0, "pref_veran": 2, "pct_jxp_p": 15.69, "pct_an_p": 53.92, "pct_fp_p": 10.78, "pct_obras_": 0.0, "pct_rp_p": 0.0, "pct_jxp_d": 14.13, "pct_jxp_di": 17.58, "particip": 89.11, "pct_marq": 0.56, "pct_julian": 0.0, "pct_holg": 1.11, "pct_lopez": 0.0, "pct_edwin": 0.0, "pct_jancc": 0.0, "pct_veran": 1.11, "dist_m": 3795.4489733309815, "pty_gan": "AhoraN", "area_km2": 306.782, "dens_hab": 0.3 }, "geometry": { "type": "Polygon", "coordinates": [ [ [ -72.878196331462149, -11.876492077824798 ], [ -72.888342186786133, -11.79008036567947 ], [ -72.74659144967282, -11.628470643868409 ], [ -72.771592999122362, -11.936468115099958 ], [ -72.814576067181548, -11.942113377061304 ], [ -72.878196331462149, -11.876492077824798 ] ] ] } },
{ "type": "Feature", "properties": { "ubigeo": "080914", "nombre": "KITAPARAY", "categ": null, "poblacion": 33.0, "altitud": 477.0, "provincia": "LA CONVENCION", "distrito": "MEGANTONI", "reg_nat": "RUPA RUPA O SELVA ALTA", "lon_cp": -72.83019839000001, "lat_cp": -12.17592154, "codigo": "0809140048", "local_vot": "IE 64553 TICUMPINIA", "tot_vot": 282, "electores": 350, "v_jxp_p": 44, "v_an_p": 37, "v_fp_p": 14, "v_obras_p": 7, "v_rp_p": 2, "v_jxp_d": 33, "v_jxp_dip": 34, "pref_marq": 2, "pref_juli": 1, "pref_holg": 0, "pref_lopez": 0, "pref_edwin": 0, "pref_jancc": 1, "pref_veran": 3, "pct_jxp_p": 29.93, "pct_an_p": 25.17, "pct_fp_p": 9.52, "pct_obras_": 4.76, "pct_rp_p": 1.36, "pct_jxp_d": 29.73, "pct_jxp_di": 30.36, "particip": 80.57, "pct_marq": 0.71, "pct_julian": 0.35, "pct_holg": 0.0, "pct_lopez": 0.0, "pct_edwin": 0.0, "pct_jancc": 0.35, "pct_veran": 1.06, "dist_m": 10168.162660698576, "pty_gan": "JxP", "area_km2": 53.703, "dens_hab": 0.6 }, "geometry": { "type": "Polygon", "coordinates": [ [ [ -72.890189166853602, -12.122156804346387 ], [ -72.764126605093011, -12.133190115179685 ], [ -72.548778560389565, -12.213466902276084 ], [ -72.5563824, -12.2120715 ], [ -72.5668323, -12.2128475 ], [ -72.5758445, -12.2119195 ], [ -72.5788701, -12.2136182 ], [ -72.5841004, -12.2134871 ], [ -72.5859779, -12.2123337 ], [ -72.5888372, -12.2120296 ], [ -72.6003438, -12.2123022 ], [ -72.6027632, -12.2071535 ], [ -72.6099515, -12.2058637 ], [ -72.6148439, -12.2039919 ], [ -72.6229602, -12.2041911 ], [ -72.6280779, -12.2018422 ], [ -72.629419, -12.2020886 ], [ -72.6319403, -12.2050982 ], [ -72.6367575, -12.2087998 ], [ -72.6431572, -12.2171519 ], [ -72.6474702, -12.2194641 ], [ -72.6519817, -12.2196214 ], [ -72.654208, -12.2178283 ], [ -72.6602805, -12.2151334 ], [ -72.66491, -12.2168636 ], [ -72.6683646, -12.2216661 ], [ -72.6719105, -12.2229034 ], [ -72.6738203, -12.2251892 ], [ -72.6954871, -12.232896 ], [ -72.6974398, -12.2328016 ], [ -72.6991618, -12.2308933 ], [ -72.7026969, -12.2312865 ], [ -72.7079916, -12.2344373 ], [ -72.7094561, -12.2344583 ], [ -72.7139837, -12.2310191 ], [ -72.7226096, -12.2322878 ], [ -72.7266437, -12.2319576 ], [ -72.7318311, -12.2340389 ], [ -72.7350122, -12.2334674 ], [ -72.7439869, -12.2343692 ], [ -72.7498019, -12.2388568 ], [ -72.7549785, -12.2406812 ], [ -72.7600962, -12.2395331 ], [ -72.7642375, -12.2406445 ], [ -72.771163, -12.2406969 ], [ -72.7734751, -12.2384374 ], [ -72.774843, -12.238212 ], [ -72.7796817, -12.2394544 ], [ -72.7814788, -12.2417401 ], [ -72.7846545, -12.2410376 ], [ -72.787565850595257, -12.241221602713262 ], [ -72.890189166853602, -12.122156804346387 ] ] ] } },
{ "type": "Feature", "properties": { "ubigeo": "080914", "nombre": "ALTO TIMPIA", "categ": null, "poblacion": 123.0, "altitud": 504.0, "provincia": "LA CONVENCION", "distrito": "MEGANTONI", "reg_nat": "RUPA RUPA O SELVA ALTA", "lon_cp": -72.78610423000001, "lat_cp": -12.0576359, "codigo": "0809140045", "local_vot": "IE 64553 TICUMPINIA", "tot_vot": 282, "electores": 350, "v_jxp_p": 44, "v_an_p": 37, "v_fp_p": 14, "v_obras_p": 7, "v_rp_p": 2, "v_jxp_d": 33, "v_jxp_dip": 34, "pref_marq": 2, "pref_juli": 1, "pref_holg": 0, "pref_lopez": 0, "pref_edwin": 0, "pref_jancc": 1, "pref_veran": 3, "pct_jxp_p": 29.93, "pct_an_p": 25.17, "pct_fp_p": 9.52, "pct_obras_": 4.76, "pct_rp_p": 1.36, "pct_jxp_d": 29.73, "pct_jxp_di": 30.36, "particip": 80.57, "pct_marq": 0.71, "pct_julian": 0.35, "pct_holg": 0.0, "pct_lopez": 0.0, "pct_edwin": 0.0, "pct_jancc": 0.35, "pct_veran": 1.06, "dist_m": 9271.0322234028699, "pty_gan": "JxP", "area_km2": 155.22, "dens_hab": 0.8 }, "geometry": { "type": "Polygon", "coordinates": [ [ [ -72.764126605093011, -12.133190115179685 ], [ -72.853137176313723, -11.988851847558477 ], [ -72.814576067181548, -11.942113377061304 ], [ -72.771592999122362, -11.936468115099958 ], [ -72.308242686775259, -12.095581115502927 ], [ -72.3093134, -12.0958448 ], [ -72.3145169, -12.0947748 ], [ -72.315225, -12.0937205 ], [ -72.3187816, -12.0947591 ], [ -72.3258197, -12.1021601 ], [ -72.3317045, -12.1053807 ], [ -72.3364145, -12.1062513 ], [ -72.3406738, -12.1039592 ], [ -72.3458934, -12.1056744 ], [ -72.347905, -12.1075364 ], [ -72.3512256, -12.113542 ], [ -72.3530603, -12.1150578 ], [ -72.3561287, -12.1155927 ], [ -72.3591167, -12.1177746 ], [ -72.3640305, -12.1178271 ], [ -72.3710686, -12.1226995 ], [ -72.3734021, -12.1273988 ], [ -72.3850697, -12.1362622 ], [ -72.3937386, -12.140054 ], [ -72.3982984, -12.1409403 ], [ -72.3996341, -12.1422881 ], [ -72.4012756, -12.1467825 ], [ -72.4025416, -12.1550999 ], [ -72.404387, -12.1566312 ], [ -72.4108082, -12.1576957 ], [ -72.4173689, -12.1609103 ], [ -72.4232644, -12.1622948 ], [ -72.429648, -12.1661805 ], [ -72.4369276, -12.1659131 ], [ -72.4394918, -12.163438 ], [ -72.4442829, -12.1643232 ], [ -72.4473024, -12.1769723 ], [ -72.4474311, -12.1822999 ], [ -72.451787, -12.1863375 ], [ -72.459544, -12.1885817 ], [ -72.4631918, -12.1939195 ], [ -72.4684489, -12.195482 ], [ -72.4730301, -12.1955345 ], [ -72.4760127, -12.1987014 ], [ -72.483834, -12.1984602 ], [ -72.4915373, -12.1995194 ], [ -72.5025666, -12.1961427 ], [ -72.5090897, -12.1911615 ], [ -72.5209451, -12.189127 ], [ -72.523799, -12.1875015 ], [ -72.527833, -12.1872498 ], [ -72.5300324, -12.1883824 ], [ -72.5340935, -12.1858673 ], [ -72.5368238, -12.1877637 ], [ -72.5396025, -12.1984183 ], [ -72.5432932, -12.2022983 ], [ -72.5452459, -12.2100372 ], [ -72.5450313, -12.2123127 ], [ -72.5460398, -12.2139695 ], [ -72.548778560389565, -12.213466902276084 ], [ -72.764126605093011, -12.133190115179685 ] ] ] } }
]
}
